{"type":"FeatureCollection","features":[{"type":"Feature","geometry":{"type":"Point","coordinates":[-122.2758722,41.22343889]},"properties":{"year":2015,"case":60001,"month":1,"day":1,"fatalities":1,"road":"SISKIYOU AVE","crossRoad":"DUNSMUIR AVE","intersection":"Four-Way Intersection","release":"final"}},{"type":"Feature","geometry":{"type":"Point","coordinates":[-122.3872,41.43736667]},"properties":{"year":2015,"case":60659,"month":4,"day":4,"fatalities":1,"road":"US-97","crossRoad":"","intersection":"Not an Intersection","release":"final"}},{"type":"Feature","geometry":{"type":"Point","coordinates":[-122.9555361,41.63056944]},"properties":{"year":2015,"case":60677,"month":4,"day":11,"fatalities":1,"road":"QUARTZ VALLEY ROAD","crossRoad":"","intersection":"Not an Intersection","release":"final"}},{"type":"Feature","geometry":{"type":"Point","coordinates":[-122.5994111,41.66186389]},"properties":{"year":2015,"case":60856,"month":5,"day":2,"fatalities":1,"road":"CR-OLD HWY 99","crossRoad":"","intersection":"Not an Intersection","release":"final"}},{"type":"Feature","geometry":{"type":"Point","coordinates":[-123.2680361,41.86071389]},"properties":{"year":2015,"case":61382,"month":8,"day":30,"fatalities":2,"road":"SR-96","crossRoad":"","intersection":"Not an Intersection","release":"final"}},{"type":"Feature","geometry":{"type":"Point","coordinates":[-122.6296306,41.7373]},"properties":{"year":2015,"case":61846,"month":9,"day":12,"fatalities":1,"road":"I-5","crossRoad":"","intersection":"Not an Intersection","release":"final"}},{"type":"Feature","geometry":{"type":"Point","coordinates":[-122.591425,41.81915]},"properties":{"year":2015,"case":62030,"month":8,"day":28,"fatalities":1,"road":"SR-263","crossRoad":"","intersection":"Not an Intersection","release":"final"}},{"type":"Feature","geometry":{"type":"Point","coordinates":[-122.4904861,41.55938333]},"properties":{"year":2015,"case":62049,"month":11,"day":12,"fatalities":1,"road":"I-5","crossRoad":"","intersection":"Not an Intersection","release":"final"}},{"type":"Feature","geometry":{"type":"Point","coordinates":[-122.5164333,41.62157778]},"properties":{"year":2015,"case":62298,"month":6,"day":29,"fatalities":1,"road":"I-5","crossRoad":"","intersection":"Not an Intersection","release":"final"}},{"type":"Feature","geometry":{"type":"Point","coordinates":[-122.7436444,41.35123333]},"properties":{"year":2015,"case":62868,"month":6,"day":26,"fatalities":1,"road":"CR-GAZELLE CALLAHAN RD","crossRoad":"","intersection":"Not an Intersection","release":"final"}},{"type":"Feature","geometry":{"type":"Point","coordinates":[-122.3854944,41.44055]},"properties":{"year":2015,"case":63067,"month":2,"day":19,"fatalities":1,"road":"SR-97","crossRoad":"","intersection":"Not an Intersection","release":"final"}},{"type":"Feature","geometry":{"type":"Point","coordinates":[-122.3783028,41.703525]},"properties":{"year":2016,"case":60485,"month":1,"day":18,"fatalities":1,"road":"CR-HARRY CASH RD","crossRoad":"","intersection":"Not an Intersection","release":"final"}},{"type":"Feature","geometry":{"type":"Point","coordinates":[-122.9628139,41.82827222]},"properties":{"year":2016,"case":60901,"month":6,"day":8,"fatalities":1,"road":"SR-96","crossRoad":"","intersection":"Not an Intersection","release":"final"}},{"type":"Feature","geometry":{"type":"Point","coordinates":[-121.9333889,41.26519722]},"properties":{"year":2016,"case":60915,"month":6,"day":29,"fatalities":1,"road":"SR-89","crossRoad":"","intersection":"Not an Intersection","release":"final"}},{"type":"Feature","geometry":{"type":"Point","coordinates":[-121.9175167,41.26721944]},"properties":{"year":2016,"case":61472,"month":8,"day":11,"fatalities":2,"road":"SR-89","crossRoad":"","intersection":"Not an Intersection","release":"final"}},{"type":"Feature","geometry":{"type":"Point","coordinates":[-122.1376,41.64336389]},"properties":{"year":2016,"case":61843,"month":8,"day":19,"fatalities":1,"road":"US-97","crossRoad":"","intersection":"Not an Intersection","release":"final"}},{"type":"Feature","geometry":{"type":"Point","coordinates":[-123.3897778,41.85495556]},"properties":{"year":2016,"case":61919,"month":9,"day":18,"fatalities":1,"road":"CR-INDIAN CREEK RD","crossRoad":"","intersection":"Not an Intersection","release":"final"}},{"type":"Feature","geometry":{"type":"Point","coordinates":[-122.80975,41.31803333]},"properties":{"year":2016,"case":62092,"month":9,"day":23,"fatalities":1,"road":"SR-3","crossRoad":"","intersection":"Not an Intersection","release":"final"}},{"type":"Feature","geometry":{"type":"Point","coordinates":[-122.5694139,41.65914167]},"properties":{"year":2016,"case":62244,"month":10,"day":30,"fatalities":1,"road":"I-5","crossRoad":"","intersection":"Not an Intersection","release":"final"}},{"type":"Feature","geometry":{"type":"Point","coordinates":[-122.56455,41.86568056]},"properties":{"year":2016,"case":62371,"month":12,"day":3,"fatalities":1,"road":"I-5","crossRoad":"","intersection":"Not an Intersection","release":"final"}},{"type":"Feature","geometry":{"type":"Point","coordinates":[-122.6181556,41.70158333]},"properties":{"year":2016,"case":63417,"month":3,"day":17,"fatalities":1,"road":"APSUUN ST","crossRoad":"","intersection":"Not an Intersection","release":"final"}},{"type":"Feature","geometry":{"type":"Point","coordinates":[-122.5900194,41.66071111]},"properties":{"year":2017,"case":60107,"month":2,"day":28,"fatalities":1,"road":"I-5","crossRoad":"","intersection":"Not an Intersection","release":"final"}},{"type":"Feature","geometry":{"type":"Point","coordinates":[-122.472475,41.51037222]},"properties":{"year":2017,"case":60354,"month":2,"day":24,"fatalities":1,"road":"I-5","crossRoad":"","intersection":"Not an Intersection","release":"final"}},{"type":"Feature","geometry":{"type":"Point","coordinates":[-122.2608861,41.2411]},"properties":{"year":2017,"case":60636,"month":6,"day":30,"fatalities":1,"road":"I-5","crossRoad":"","intersection":"Not an Intersection","release":"final"}},{"type":"Feature","geometry":{"type":"Point","coordinates":[-122.2086167,41.55960556]},"properties":{"year":2017,"case":60914,"month":5,"day":22,"fatalities":1,"road":"US-97","crossRoad":"","intersection":"Not an Intersection","release":"final"}},{"type":"Feature","geometry":{"type":"Point","coordinates":[-123.1839611,41.83514444]},"properties":{"year":2017,"case":60915,"month":6,"day":21,"fatalities":1,"road":"SR-96","crossRoad":"","intersection":"Not an Intersection","release":"final"}},{"type":"Feature","geometry":{"type":"Point","coordinates":[-122.6999944,41.66861389]},"properties":{"year":2017,"case":61044,"month":6,"day":27,"fatalities":1,"road":"SR-3","crossRoad":"","intersection":"Not an Intersection","release":"final"}},{"type":"Feature","geometry":{"type":"Point","coordinates":[-122.8090639,41.31606667]},"properties":{"year":2017,"case":61171,"month":7,"day":26,"fatalities":1,"road":"SR-3","crossRoad":"","intersection":"Not an Intersection","release":"final"}},{"type":"Feature","geometry":{"type":"Point","coordinates":[-123.0816611,41.10288889]},"properties":{"year":2017,"case":61268,"month":7,"day":21,"fatalities":1,"road":"CARIBOU CREEK RD","crossRoad":"","intersection":"Not an Intersection","release":"final"}},{"type":"Feature","geometry":{"type":"Point","coordinates":[-122.3790861,41.39456389]},"properties":{"year":2017,"case":61301,"month":9,"day":3,"fatalities":1,"road":"I-5","crossRoad":"","intersection":"Not an Intersection","release":"final"}},{"type":"Feature","geometry":{"type":"Point","coordinates":[-122.3595417,41.45436389]},"properties":{"year":2017,"case":61392,"month":10,"day":18,"fatalities":1,"road":"US-97","crossRoad":"","intersection":"Not an Intersection","release":"final"}},{"type":"Feature","geometry":{"type":"Point","coordinates":[-122.115375,41.65478333]},"properties":{"year":2017,"case":61401,"month":8,"day":1,"fatalities":1,"road":"US-97","crossRoad":"","intersection":"Not an Intersection","release":"final"}},{"type":"Feature","geometry":{"type":"Point","coordinates":[-122.4522694,41.47191944]},"properties":{"year":2017,"case":61448,"month":9,"day":21,"fatalities":1,"road":"I-5","crossRoad":"","intersection":"Not an Intersection","release":"final"}},{"type":"Feature","geometry":{"type":"Point","coordinates":[-122.9957,41.3956]},"properties":{"year":2017,"case":62427,"month":10,"day":22,"fatalities":1,"road":"CR-SAWYERS BAR RD","crossRoad":"","intersection":"Not an Intersection","release":"final"}},{"type":"Feature","geometry":{"type":"Point","coordinates":[-122.0054472,41.80912222]},"properties":{"year":2017,"case":62655,"month":8,"day":18,"fatalities":1,"road":"OLD STATE HIGHWAY","crossRoad":"","intersection":"Not an Intersection","release":"final"}},{"type":"Feature","geometry":{"type":"Point","coordinates":[-122.0452806,41.25586111]},"properties":{"year":2018,"case":60001,"month":1,"day":7,"fatalities":2,"road":"SR-89","crossRoad":"","intersection":"Not an Intersection","release":"final"}},{"type":"Feature","geometry":{"type":"Point","coordinates":[-123.4458917,41.71470278]},"properties":{"year":2018,"case":60019,"month":1,"day":22,"fatalities":1,"road":"SR-96","crossRoad":"","intersection":"Not an Intersection","release":"final"}},{"type":"Feature","geometry":{"type":"Point","coordinates":[-122.8418806,41.43548056]},"properties":{"year":2018,"case":60033,"month":2,"day":3,"fatalities":1,"road":"EAST CALLAHAN RD","crossRoad":"","intersection":"Not an Intersection","release":"final"}},{"type":"Feature","geometry":{"type":"Point","coordinates":[-121.9186611,41.57376667]},"properties":{"year":2018,"case":60709,"month":5,"day":26,"fatalities":1,"road":"STEVENS PASS RD","crossRoad":"","intersection":"Not an Intersection","release":"final"}},{"type":"Feature","geometry":{"type":"Point","coordinates":[-122.0414889,41.78608056]},"properties":{"year":2018,"case":61352,"month":6,"day":1,"fatalities":1,"road":"US-97","crossRoad":"","intersection":"Not an Intersection","release":"final"}},{"type":"Feature","geometry":{"type":"Point","coordinates":[-121.5193389,41.99828889]},"properties":{"year":2018,"case":61428,"month":7,"day":29,"fatalities":1,"road":"SR-139","crossRoad":"SR-161","intersection":"Four-Way Intersection","release":"final"}},{"type":"Feature","geometry":{"type":"Point","coordinates":[-121.9153639,41.96712222]},"properties":{"year":2018,"case":61978,"month":9,"day":25,"fatalities":1,"road":"US-97 1ST ST","crossRoad":"RAILROAD AVE","intersection":"Not an Intersection","release":"final"}},{"type":"Feature","geometry":{"type":"Point","coordinates":[-122.8877361,41.56351667]},"properties":{"year":2018,"case":62226,"month":9,"day":10,"fatalities":1,"road":"SR-3","crossRoad":"","intersection":"Not an Intersection","release":"final"}},{"type":"Feature","geometry":{"type":"Point","coordinates":[-122.3752694,41.39168611]},"properties":{"year":2018,"case":62324,"month":11,"day":23,"fatalities":1,"road":"I-5","crossRoad":"","intersection":"Not an Intersection","release":"final"}},{"type":"Feature","geometry":{"type":"Point","coordinates":[-122.5294417,41.60810833]},"properties":{"year":2018,"case":62358,"month":11,"day":4,"fatalities":1,"road":"OLD HWY 99","crossRoad":"","intersection":"Not an Intersection","release":"final"}},{"type":"Feature","geometry":{"type":"Point","coordinates":[-123.1735056,41.8355]},"properties":{"year":2018,"case":62379,"month":10,"day":25,"fatalities":1,"road":"SR-96","crossRoad":"","intersection":"Not an Intersection","release":"final"}},{"type":"Feature","geometry":{"type":"Point","coordinates":[-122.3304694,41.32879167]},"properties":{"year":2018,"case":62474,"month":8,"day":12,"fatalities":3,"road":"I-5","crossRoad":"","intersection":"Not an Intersection","release":"final"}},{"type":"Feature","geometry":{"type":"Point","coordinates":[-122.9067389,41.51868056]},"properties":{"year":2018,"case":62493,"month":12,"day":11,"fatalities":1,"road":"SR-3","crossRoad":"","intersection":"Not an Intersection","release":"final"}},{"type":"Feature","geometry":{"type":"Point","coordinates":[-122.0459889,41.68801111]},"properties":{"year":2018,"case":62550,"month":11,"day":21,"fatalities":1,"road":"US-97","crossRoad":"","intersection":"Not an Intersection","release":"final"}},{"type":"Feature","geometry":{"type":"Point","coordinates":[-122.6186833,41.70319167]},"properties":{"year":2018,"case":62747,"month":10,"day":7,"fatalities":1,"road":"APSUUN RD","crossRoad":"","intersection":"Not an Intersection","release":"final"}},{"type":"Feature","geometry":{"type":"Point","coordinates":[-122.5029306,41.59250833]},"properties":{"year":2019,"case":60061,"month":2,"day":21,"fatalities":1,"road":"I-5","crossRoad":"","intersection":"Not an Intersection","release":"final"}},{"type":"Feature","geometry":{"type":"Point","coordinates":[-122.319275,41.30207222]},"properties":{"year":2019,"case":60111,"month":3,"day":14,"fatalities":1,"road":"SOUTH OLD STAGE RD","crossRoad":"","intersection":"Not an Intersection","release":"final"}},{"type":"Feature","geometry":{"type":"Point","coordinates":[-122.4991028,41.57751389]},"properties":{"year":2019,"case":60167,"month":3,"day":9,"fatalities":1,"road":"I-5","crossRoad":"","intersection":"Not an Intersection","release":"final"}},{"type":"Feature","geometry":{"type":"Point","coordinates":[-122.3991722,41.64215]},"properties":{"year":2019,"case":60407,"month":3,"day":6,"fatalities":1,"road":"BIG SPRINGS RD","crossRoad":"","intersection":"Not an Intersection","release":"final"}},{"type":"Feature","geometry":{"type":"Point","coordinates":[-122.56815,41.84859167]},"properties":{"year":2019,"case":60584,"month":2,"day":28,"fatalities":1,"road":"I-5","crossRoad":"","intersection":"Not an Intersection","release":"final"}},{"type":"Feature","geometry":{"type":"Point","coordinates":[-122.6005389,41.78644167]},"properties":{"year":2019,"case":60661,"month":4,"day":28,"fatalities":1,"road":"SR-263","crossRoad":"","intersection":"Not an Intersection","release":"final"}},{"type":"Feature","geometry":{"type":"Point","coordinates":[-122.3363722,41.63296667]},"properties":{"year":2019,"case":61137,"month":8,"day":1,"fatalities":1,"road":"HARRY CASH RD","crossRoad":"","intersection":"Not an Intersection","release":"final"}},{"type":"Feature","geometry":{"type":"Point","coordinates":[-122.4756333,41.55326389]},"properties":{"year":2019,"case":61226,"month":7,"day":20,"fatalities":1,"road":"E LOUIE RD","crossRoad":"","intersection":"Not an Intersection","release":"final"}},{"type":"Feature","geometry":{"type":"Point","coordinates":[-122.3540972,41.46593611]},"properties":{"year":2019,"case":61985,"month":6,"day":20,"fatalities":2,"road":"US-97","crossRoad":"SOLUS DR","intersection":"T-Intersection","release":"final"}},{"type":"Feature","geometry":{"type":"Point","coordinates":[-122.63996944,41.69619722]},"properties":{"year":2020,"case":60483,"month":6,"day":2,"fatalities":1,"road":"I-5","crossRoad":"","intersection":"Not an Intersection","release":"final"}},{"type":"Feature","geometry":{"type":"Point","coordinates":[-122.22938889,41.54249167]},"properties":{"year":2020,"case":60739,"month":5,"day":13,"fatalities":1,"road":"US-97","crossRoad":"","intersection":"Not an Intersection","release":"final"}},{"type":"Feature","geometry":{"type":"Point","coordinates":[-122.47704722,41.52874444]},"properties":{"year":2020,"case":61313,"month":8,"day":25,"fatalities":1,"road":"I-5","crossRoad":"","intersection":"Not an Intersection","release":"final"}},{"type":"Feature","geometry":{"type":"Point","coordinates":[-122.82625833,41.93291111]},"properties":{"year":2020,"case":61458,"month":10,"day":6,"fatalities":1,"road":"FOREST SERVICE ROAD 47N44","crossRoad":"","intersection":"Not an Intersection","release":"final"}},{"type":"Feature","geometry":{"type":"Point","coordinates":[-122.59812778,41.66211944]},"properties":{"year":2020,"case":61868,"month":10,"day":18,"fatalities":1,"road":"I-5","crossRoad":"","intersection":"Not an Intersection","release":"final"}},{"type":"Feature","geometry":{"type":"Point","coordinates":[-122.01101389,41.63818333]},"properties":{"year":2020,"case":62214,"month":12,"day":6,"fatalities":1,"road":"TENNANT RD","crossRoad":"","intersection":"Not an Intersection","release":"final"}},{"type":"Feature","geometry":{"type":"Point","coordinates":[-122.62930278,41.73894444]},"properties":{"year":2021,"case":60034,"month":1,"day":7,"fatalities":1,"road":"I-5","crossRoad":"","intersection":"Not an Intersection","release":"final"}},{"type":"Feature","geometry":{"type":"Point","coordinates":[-122.57030556,41.84509167]},"properties":{"year":2021,"case":60334,"month":4,"day":30,"fatalities":1,"road":"I-5 CASCADE WONDERLAND HWY","crossRoad":"","intersection":"Not an Intersection","release":"final"}},{"type":"Feature","geometry":{"type":"Point","coordinates":[-122.38014167,41.90633333]},"properties":{"year":2021,"case":60342,"month":5,"day":16,"fatalities":1,"road":"AGER BESWICK RD","crossRoad":"","intersection":"Not an Intersection","release":"final"}},{"type":"Feature","geometry":{"type":"Point","coordinates":[-123.26733611,41.86452778]},"properties":{"year":2021,"case":60367,"month":1,"day":23,"fatalities":1,"road":"SR-96","crossRoad":"","intersection":"Not an Intersection","release":"final"}},{"type":"Feature","geometry":{"type":"Point","coordinates":[-122.59688611,41.80788889]},"properties":{"year":2021,"case":60372,"month":2,"day":15,"fatalities":2,"road":"SR-263","crossRoad":"","intersection":"Not an Intersection","release":"final"}},{"type":"Feature","geometry":{"type":"Point","coordinates":[-122.22745833,41.54462778]},"properties":{"year":2021,"case":60508,"month":1,"day":19,"fatalities":1,"road":"US-97","crossRoad":"","intersection":"Not an Intersection","release":"final"}},{"type":"Feature","geometry":{"type":"Point","coordinates":[-122.63961389,41.71891667]},"properties":{"year":2021,"case":60797,"month":1,"day":21,"fatalities":1,"road":"SR-3","crossRoad":"","intersection":"Not an Intersection","release":"final"}},{"type":"Feature","geometry":{"type":"Point","coordinates":[-122.0325,41.25663611]},"properties":{"year":2021,"case":60868,"month":4,"day":12,"fatalities":1,"road":"SR-89","crossRoad":"","intersection":"Not an Intersection","release":"final"}},{"type":"Feature","geometry":{"type":"Point","coordinates":[-122.58318611,41.66081944]},"properties":{"year":2021,"case":60986,"month":6,"day":29,"fatalities":1,"road":"I-5","crossRoad":"","intersection":"Not an Intersection","release":"final"}},{"type":"Feature","geometry":{"type":"Point","coordinates":[-122.35534167,41.46284444]},"properties":{"year":2021,"case":61275,"month":2,"day":22,"fatalities":1,"road":"US-97","crossRoad":"","intersection":"Not an Intersection","release":"final"}},{"type":"Feature","geometry":{"type":"Point","coordinates":[-122.59881667,41.74107222]},"properties":{"year":2021,"case":61299,"month":4,"day":4,"fatalities":1,"road":"YREKA AGER RD","crossRoad":"","intersection":"Not an Intersection","release":"final"}},{"type":"Feature","geometry":{"type":"Point","coordinates":[-122.50231111,41.58941944]},"properties":{"year":2021,"case":61484,"month":8,"day":23,"fatalities":1,"road":"I-5","crossRoad":"","intersection":"Not an Intersection","release":"final"}},{"type":"Feature","geometry":{"type":"Point","coordinates":[-122.57075,41.85816944]},"properties":{"year":2021,"case":61703,"month":9,"day":13,"fatalities":1,"road":"I-5","crossRoad":"","intersection":"Not an Intersection","release":"final"}},{"type":"Feature","geometry":{"type":"Point","coordinates":[-122.63665,41.72880833]},"properties":{"year":2021,"case":62035,"month":7,"day":16,"fatalities":1,"road":"SR-3 MAIN ST","crossRoad":"RAYMOND ST","intersection":"T-Intersection","release":"final"}},{"type":"Feature","geometry":{"type":"Point","coordinates":[-122.58135,41.66105]},"properties":{"year":2021,"case":62141,"month":10,"day":12,"fatalities":1,"road":"I-5 SB","crossRoad":"","intersection":"Not an Intersection","release":"final"}},{"type":"Feature","geometry":{"type":"Point","coordinates":[-122.58815278,41.81636111]},"properties":{"year":2021,"case":62259,"month":10,"day":1,"fatalities":1,"road":"SR-263","crossRoad":"","intersection":"Not an Intersection","release":"final"}},{"type":"Feature","geometry":{"type":"Point","coordinates":[-122.86199722,41.62226389]},"properties":{"year":2021,"case":62306,"month":10,"day":30,"fatalities":1,"road":"SCOTT RIVER RD","crossRoad":"","intersection":"Not an Intersection","release":"final"}},{"type":"Feature","geometry":{"type":"Point","coordinates":[-121.46476944,41.94921111]},"properties":{"year":2021,"case":62470,"month":6,"day":28,"fatalities":2,"road":"SR-139","crossRoad":"","intersection":"Not an Intersection","release":"final"}},{"type":"Feature","geometry":{"type":"Point","coordinates":[-122.57980556,41.92804722]},"properties":{"year":2022,"case":60039,"month":2,"day":7,"fatalities":1,"road":"I-5","crossRoad":"","intersection":"Not an Intersection","release":"final"}},{"type":"Feature","geometry":{"type":"Point","coordinates":[-122.47130833,41.50459444]},"properties":{"year":2022,"case":60149,"month":4,"day":3,"fatalities":1,"road":"I-15","crossRoad":"","intersection":"Not an Intersection","release":"final"}},{"type":"Feature","geometry":{"type":"Point","coordinates":[-123.47595,41.37858056]},"properties":{"year":2022,"case":60474,"month":2,"day":21,"fatalities":1,"road":"SALMON RIVER RD","crossRoad":"","intersection":"Not an Intersection","release":"final"}},{"type":"Feature","geometry":{"type":"Point","coordinates":[-122.59705,41.77748056]},"properties":{"year":2022,"case":60602,"month":7,"day":14,"fatalities":1,"road":"SR-263","crossRoad":"","intersection":"Not an Intersection","release":"final"}},{"type":"Feature","geometry":{"type":"Point","coordinates":[-122.27029722,41.23525556]},"properties":{"year":2022,"case":61032,"month":6,"day":17,"fatalities":1,"road":"I-5","crossRoad":"","intersection":"Not an Intersection","release":"final"}},{"type":"Feature","geometry":{"type":"Point","coordinates":[-122.63086944,41.73524167]},"properties":{"year":2022,"case":61263,"month":7,"day":10,"fatalities":1,"road":"I-5","crossRoad":"","intersection":"Not an Intersection","release":"final"}},{"type":"Feature","geometry":{"type":"Point","coordinates":[-122.31756944,41.30481111]},"properties":{"year":2022,"case":61315,"month":8,"day":30,"fatalities":1,"road":"I-5","crossRoad":"","intersection":"Not an Intersection","release":"final"}},{"type":"Feature","geometry":{"type":"Point","coordinates":[-122.13538333,41.251025]},"properties":{"year":2022,"case":61475,"month":6,"day":30,"fatalities":1,"road":"SR-89","crossRoad":"","intersection":"Not an Intersection","release":"final"}},{"type":"Feature","geometry":{"type":"Point","coordinates":[-122.595875,41.80836944]},"properties":{"year":2022,"case":61497,"month":7,"day":5,"fatalities":1,"road":"SR-263","crossRoad":"","intersection":"Not an Intersection","release":"final"}},{"type":"Feature","geometry":{"type":"Point","coordinates":[-122.27415,41.21591944]},"properties":{"year":2022,"case":61760,"month":9,"day":5,"fatalities":1,"road":"I-5","crossRoad":"","intersection":"Not an Intersection","release":"final"}},{"type":"Feature","geometry":{"type":"Point","coordinates":[-122.30537778,41.28527222]},"properties":{"year":2022,"case":62014,"month":10,"day":29,"fatalities":1,"road":"I-5 RAMP","crossRoad":"","intersection":"Not an Intersection","release":"final"}},{"type":"Feature","geometry":{"type":"Point","coordinates":[-122.63753333,41.72123333]},"properties":{"year":2022,"case":62037,"month":10,"day":4,"fatalities":1,"road":"I-5","crossRoad":"","intersection":"Not an Intersection","release":"final"}},{"type":"Feature","geometry":{"type":"Point","coordinates":[-122.36465,41.51323611]},"properties":{"year":2022,"case":62622,"month":10,"day":15,"fatalities":1,"road":"BIG SPRINGS RD","crossRoad":"","intersection":"Not an Intersection","release":"final"}},{"type":"Feature","geometry":{"type":"Point","coordinates":[-122.25845278,41.24935]},"properties":{"year":2022,"case":62747,"month":11,"day":27,"fatalities":1,"road":"I-5","crossRoad":"","intersection":"Not an Intersection","release":"final"}},{"type":"Feature","geometry":{"type":"Point","coordinates":[-122.51151111,41.61073611]},"properties":{"year":2022,"case":62754,"month":10,"day":30,"fatalities":1,"road":"I-5","crossRoad":"","intersection":"Not an Intersection","release":"final"}},{"type":"Feature","geometry":{"type":"Point","coordinates":[-123.20934722,41.14846389]},"properties":{"year":2022,"case":62768,"month":12,"day":26,"fatalities":1,"road":"CECILVILLE RD","crossRoad":"","intersection":"Not an Intersection","release":"final"}},{"type":"Feature","geometry":{"type":"Point","coordinates":[-122.52254722,41.77809444]},"properties":{"year":2022,"case":62880,"month":9,"day":16,"fatalities":1,"road":"AGER RD","crossRoad":"","intersection":"Not an Intersection","release":"final"}},{"type":"Feature","geometry":{"type":"Point","coordinates":[-121.92159167,41.95721667]},"properties":{"year":2023,"case":60224,"month":2,"day":15,"fatalities":1,"road":"US-97","crossRoad":"","intersection":"Not an Intersection","release":"final"}},{"type":"Feature","geometry":{"type":"Point","coordinates":[-122.52356389,41.60354722]},"properties":{"year":2023,"case":60286,"month":3,"day":24,"fatalities":1,"road":"SISKIYOU BLVD","crossRoad":"","intersection":"Not an Intersection","release":"final"}},{"type":"Feature","geometry":{"type":"Point","coordinates":[-122.357075,41.35579167]},"properties":{"year":2023,"case":60560,"month":1,"day":26,"fatalities":1,"road":"I-5","crossRoad":"","intersection":"Not an Intersection","release":"final"}},{"type":"Feature","geometry":{"type":"Point","coordinates":[-122.73174444,41.66971389]},"properties":{"year":2023,"case":61472,"month":6,"day":3,"fatalities":2,"road":"SR-3","crossRoad":"","intersection":"Not an Intersection","release":"final"}},{"type":"Feature","geometry":{"type":"Point","coordinates":[-122.88768611,41.62898611]},"properties":{"year":2023,"case":62120,"month":7,"day":11,"fatalities":1,"road":"SCOTT RIVER RD","crossRoad":"","intersection":"Not an Intersection","release":"final"}},{"type":"Feature","geometry":{"type":"Point","coordinates":[-122.33067778,41.32932778]},"properties":{"year":2023,"case":62657,"month":10,"day":12,"fatalities":2,"road":"I-5","crossRoad":"","intersection":"Not an Intersection","release":"final"}},{"type":"Feature","geometry":{"type":"Point","coordinates":[-122.5097,41.60644444]},"properties":{"year":2023,"case":62731,"month":8,"day":28,"fatalities":1,"road":"I-5","crossRoad":"","intersection":"Not an Intersection","release":"final"}},{"type":"Feature","geometry":{"type":"Point","coordinates":[-122.96041667,41.42714444]},"properties":{"year":2023,"case":62871,"month":7,"day":18,"fatalities":1,"road":"SAWYERS BAR RD","crossRoad":"","intersection":"Not an Intersection","release":"final"}},{"type":"Feature","geometry":{"type":"Point","coordinates":[-121.62868889,41.99939167]},"properties":{"year":2023,"case":62981,"month":10,"day":16,"fatalities":2,"road":"SR-161","crossRoad":"","intersection":"Not an Intersection","release":"final"}},{"type":"Feature","geometry":{"type":"Point","coordinates":[-122.53523889,41.53808611]},"properties":{"year":2023,"case":63059,"month":11,"day":4,"fatalities":1,"road":"OLD WESTSIDE RD","crossRoad":"SCARFACE RD","intersection":"Four-Way Intersection","release":"final"}},{"type":"Feature","geometry":{"type":"Point","coordinates":[-122.519875,41.89789722]},"properties":{"year":2023,"case":63075,"month":12,"day":29,"fatalities":3,"road":"COPCO RD","crossRoad":"","intersection":"Not an Intersection","release":"final"}},{"type":"Feature","geometry":{"type":"Point","coordinates":[-122.38035,41.40955278]},"properties":{"year":2023,"case":63085,"month":11,"day":18,"fatalities":1,"road":"S WEED BLVD","crossRoad":"","intersection":"Not an Intersection","release":"final"}},{"type":"Feature","geometry":{"type":"Point","coordinates":[-123.37576389,41.79541667]},"properties":{"year":2023,"case":63138,"month":7,"day":24,"fatalities":1,"road":"SR-96","crossRoad":"","intersection":"Not an Intersection","release":"final"}},{"type":"Feature","geometry":{"type":"Point","coordinates":[-122.06550278,41.75724722]},"properties":{"year":2024,"case":60143,"month":3,"day":3,"fatalities":1,"road":"US-97","crossRoad":"","intersection":"Not an Intersection","release":"initial"}},{"type":"Feature","geometry":{"type":"Point","coordinates":[-122.35328889,41.46823333]},"properties":{"year":2024,"case":60557,"month":5,"day":8,"fatalities":1,"road":"US-97 29 PALMS HWY","crossRoad":"","intersection":"Not an Intersection","release":"initial"}},{"type":"Feature","geometry":{"type":"Point","coordinates":[-122.53960556,41.70551111]},"properties":{"year":2024,"case":60839,"month":4,"day":27,"fatalities":1,"road":"BRECEDA LN","crossRoad":"MONTAGUE GRENADA RD","intersection":"Four-Way Intersection","release":"initial"}},{"type":"Feature","geometry":{"type":"Point","coordinates":[-121.9576,41.97543333]},"properties":{"year":2024,"case":60887,"month":7,"day":24,"fatalities":1,"road":"MATHEWS RD","crossRoad":"","intersection":"Not an Intersection","release":"initial"}},{"type":"Feature","geometry":{"type":"Point","coordinates":[-122.00419167,41.79217778]},"properties":{"year":2024,"case":61174,"month":8,"day":2,"fatalities":1,"road":"OLD STATE HWY","crossRoad":"","intersection":"Not an Intersection","release":"initial"}},{"type":"Feature","geometry":{"type":"Point","coordinates":[-122.90668333,41.52164722]},"properties":{"year":2024,"case":61746,"month":8,"day":16,"fatalities":1,"road":"SR-3","crossRoad":"","intersection":"Not an Intersection","release":"initial"}},{"type":"Feature","geometry":{"type":"Point","coordinates":[-123.22430833,41.84610556]},"properties":{"year":2024,"case":61786,"month":9,"day":30,"fatalities":1,"road":"SR-96","crossRoad":"","intersection":"Not an Intersection","release":"initial"}},{"type":"Feature","geometry":{"type":"Point","coordinates":[-121.73370278,41.19015278]},"properties":{"year":2024,"case":61861,"month":8,"day":21,"fatalities":1,"road":"SR-89","crossRoad":"","intersection":"Not an Intersection","release":"initial"}},{"type":"Feature","geometry":{"type":"Point","coordinates":[-122.31562222,41.30147778]},"properties":{"year":2024,"case":61952,"month":7,"day":2,"fatalities":1,"road":"I-5","crossRoad":"","intersection":"Not an Intersection","release":"initial"}},{"type":"Feature","geometry":{"type":"Point","coordinates":[-122.58593056,41.79583056]},"properties":{"year":2024,"case":62368,"month":12,"day":13,"fatalities":1,"road":"I-5","crossRoad":"","intersection":"Not an Intersection","release":"initial"}},{"type":"Feature","geometry":{"type":"Point","coordinates":[-122.39951389,41.42697778]},"properties":{"year":2024,"case":62989,"month":6,"day":30,"fatalities":1,"road":"I-5","crossRoad":"","intersection":"Not an Intersection","release":"initial"}},{"type":"Feature","geometry":{"type":"Point","coordinates":[-122.64585278,41.70181111]},"properties":{"year":2024,"case":63120,"month":10,"day":8,"fatalities":1,"road":"FORT JONES RD","crossRoad":"","intersection":"Not an Intersection","release":"initial"}}]}
