{"type":"FeatureCollection","features":[{"type":"Feature","id":4158,"geometry":{"type":"Point","coordinates":[-122.373713716958,41.5411052370551]},"properties":{"OBJECTID":4158,"NIDID":"CA00244","NAME":"Shasta River","COUNTYSTATE":"Siskiyou, California","PRIMARY_PURPOSE":"Water Supply","DAM_HEIGHT":96,"HAZARD_POTENTIAL":"High"}},{"type":"Feature","id":4188,"geometry":{"type":"Point","coordinates":[-122.070904607911,41.1313722337131]},"properties":{"OBJECTID":4188,"NIDID":"CA00416","NAME":"McCloud Dam","COUNTYSTATE":"Shasta, California","PRIMARY_PURPOSE":"Hydroelectric","DAM_HEIGHT":255,"HAZARD_POTENTIAL":"High"}},{"type":"Feature","id":4189,"geometry":{"type":"Point","coordinates":[-121.985236581269,41.0416272344367]},"properties":{"OBJECTID":4189,"NIDID":"CA00417","NAME":"Iron Canyon Dam","COUNTYSTATE":"Shasta, California","PRIMARY_PURPOSE":"Hydroelectric","DAM_HEIGHT":214,"HAZARD_POTENTIAL":"High"}},{"type":"Feature","id":4271,"geometry":{"type":"Point","coordinates":[-122.651713785519,41.7093052243878]},"properties":{"OBJECTID":4271,"NIDID":"CA00826","NAME":"Greenhorn","COUNTYSTATE":"Siskiyou, California","PRIMARY_PURPOSE":"Water Supply","DAM_HEIGHT":35,"HAZARD_POTENTIAL":"High"}},{"type":"Feature","id":4296,"geometry":{"type":"Point","coordinates":[-122.404713751898,41.7340052479853]},"properties":{"OBJECTID":4296,"NIDID":"CA00926","NAME":"Shelley","COUNTYSTATE":"Siskiyou, California","PRIMARY_PURPOSE":"Water Supply","DAM_HEIGHT":27,"HAZARD_POTENTIAL":"High"}},{"type":"Feature","id":4297,"geometry":{"type":"Point","coordinates":[-122.43951374283,41.6426052384628]},"properties":{"OBJECTID":4297,"NIDID":"CA00927","NAME":"Cloak Lake","COUNTYSTATE":"Siskiyou, California","PRIMARY_PURPOSE":"Water Supply","DAM_HEIGHT":13,"HAZARD_POTENTIAL":"Low"}},{"type":"Feature","id":4298,"geometry":{"type":"Point","coordinates":[-122.447713743922,41.641605237669]},"properties":{"OBJECTID":4298,"NIDID":"CA00928","NAME":"Barton","COUNTYSTATE":"Siskiyou, California","PRIMARY_PURPOSE":"Other","DAM_HEIGHT":13,"HAZARD_POTENTIAL":"Low"}},{"type":"Feature","id":4299,"geometry":{"type":"Point","coordinates":[-122.418213699112,41.3818052217985]},"properties":{"OBJECTID":4299,"NIDID":"CA00929","NAME":"Dwight Hammond","COUNTYSTATE":"Siskiyou, California","PRIMARY_PURPOSE":"Water Supply","DAM_HEIGHT":25,"HAZARD_POTENTIAL":"Low"}},{"type":"Feature","id":4947,"geometry":{"type":"Point","coordinates":[-122.328513670202,41.2822052224462]},"properties":{"OBJECTID":4947,"NIDID":"CA00889","NAME":"Box Canyon Dam","COUNTYSTATE":"Siskiyou, California","PRIMARY_PURPOSE":"Flood Risk Reduction","DAM_HEIGHT":220,"HAZARD_POTENTIAL":"High"}},{"type":"Feature","id":5163,"geometry":{"type":"Point","coordinates":[-121.675575530327,41.0215572594231]},"properties":{"OBJECTID":5163,"NIDID":"CA00395","NAME":"Pit No. 3 Diversion","COUNTYSTATE":"Shasta, California","PRIMARY_PURPOSE":"Hydroelectric","DAM_HEIGHT":135,"HAZARD_POTENTIAL":"High"}},{"type":"Feature","id":5164,"geometry":{"type":"Point","coordinates":[-121.464513496155,41.0134052768186]},"properties":{"OBJECTID":5164,"NIDID":"CA00396","NAME":"Pit No. 1 Diversion","COUNTYSTATE":"Shasta, California","PRIMARY_PURPOSE":"Hydroelectric","DAM_HEIGHT":18,"HAZARD_POTENTIAL":"Low"}},{"type":"Feature","id":5165,"geometry":{"type":"Point","coordinates":[-121.768936539858,40.988120248934]},"properties":{"OBJECTID":5165,"NIDID":"CA00397","NAME":"Pit No. 4 Diversion","COUNTYSTATE":"Shasta, California","PRIMARY_PURPOSE":"Hydroelectric","DAM_HEIGHT":110,"HAZARD_POTENTIAL":"High"}},{"type":"Feature","id":5170,"geometry":{"type":"Point","coordinates":[-121.869524556145,40.992892240704]},"properties":{"OBJECTID":5170,"NIDID":"CA00402","NAME":"Pit No. 5 Diversion","COUNTYSTATE":"Shasta, California","PRIMARY_PURPOSE":"Hydroelectric","DAM_HEIGHT":58,"HAZARD_POTENTIAL":"Low"}},{"type":"Feature","id":5171,"geometry":{"type":"Point","coordinates":[-121.895482561021,40.9987022389206]},"properties":{"OBJECTID":5171,"NIDID":"CA00403","NAME":"Pit No. 5 Open Conduit","COUNTYSTATE":"Shasta, California","PRIMARY_PURPOSE":"Hydroelectric","DAM_HEIGHT":71,"HAZARD_POTENTIAL":"High"}},{"type":"Feature","id":5173,"geometry":{"type":"Point","coordinates":[-121.44781349275,41.0081052778381]},"properties":{"OBJECTID":5173,"NIDID":"CA00405","NAME":"Pit No. 1 Forebay","COUNTYSTATE":"Shasta, California","PRIMARY_PURPOSE":"Hydroelectric","DAM_HEIGHT":47,"HAZARD_POTENTIAL":"High"}},{"type":"Feature","id":5196,"geometry":{"type":"Point","coordinates":[-123.10241382582,41.535305172567]},"properties":{"OBJECTID":5196,"NIDID":"CA00495","NAME":"Campbell Lake","COUNTYSTATE":"Siskiyou, California","PRIMARY_PURPOSE":"Water Supply","DAM_HEIGHT":19,"HAZARD_POTENTIAL":"Low"}},{"type":"Feature","id":5197,"geometry":{"type":"Point","coordinates":[-122.491213760375,41.7042052382352]},"properties":{"OBJECTID":5197,"NIDID":"CA00498","NAME":"Bass Lake","COUNTYSTATE":"Siskiyou, California","PRIMARY_PURPOSE":"Water Supply","DAM_HEIGHT":18,"HAZARD_POTENTIAL":"Low"}},{"type":"Feature","id":5198,"geometry":{"type":"Point","coordinates":[-122.469613755012,41.6910052392171]},"properties":{"OBJECTID":5198,"NIDID":"CA00499","NAME":"Steamboat Lake","COUNTYSTATE":"Siskiyou, California","PRIMARY_PURPOSE":"Water Supply","DAM_HEIGHT":22,"HAZARD_POTENTIAL":"Significant"}},{"type":"Feature","id":5199,"geometry":{"type":"Point","coordinates":[-122.483413756718,41.6885052378215]},"properties":{"OBJECTID":5199,"NIDID":"CA00500","NAME":"Trout Lake","COUNTYSTATE":"Siskiyou, California","PRIMARY_PURPOSE":"Water Supply","DAM_HEIGHT":40,"HAZARD_POTENTIAL":"Significant"}},{"type":"Feature","id":5200,"geometry":{"type":"Point","coordinates":[-122.518013762906,41.6944052351772]},"properties":{"OBJECTID":5200,"NIDID":"CA00501","NAME":"George Fiock No. 1","COUNTYSTATE":"Siskiyou, California","PRIMARY_PURPOSE":"Water Supply","DAM_HEIGHT":19,"HAZARD_POTENTIAL":"Low"}},{"type":"Feature","id":5201,"geometry":{"type":"Point","coordinates":[-122.50681376218,41.7006052366027]},"properties":{"OBJECTID":5201,"NIDID":"CA00502","NAME":"Fiock No. 2","COUNTYSTATE":"Siskiyou, California","PRIMARY_PURPOSE":"Water Supply","DAM_HEIGHT":14,"HAZARD_POTENTIAL":"Low"}},{"type":"Feature","id":5750,"geometry":{"type":"Point","coordinates":[-122.552713775176,41.738805235215]},"properties":{"OBJECTID":5750,"NIDID":"CA01135","NAME":"Montague No. 2","COUNTYSTATE":"Siskiyou, California","PRIMARY_PURPOSE":"Water Supply","DAM_HEIGHT":41,"HAZARD_POTENTIAL":"Low"}},{"type":"Feature","id":5832,"geometry":{"type":"Point","coordinates":[-122.634323724668,41.3349151996289]},"properties":{"OBJECTID":5832,"NIDID":"CA10217","NAME":"Kangaroo Lake","COUNTYSTATE":"Siskiyou, California","PRIMARY_PURPOSE":"Irrigation","DAM_HEIGHT":12,"HAZARD_POTENTIAL":"Low"}},{"type":"Feature","id":6047,"geometry":{"type":"Point","coordinates":[-122.373813746788,41.7315052505437]},"properties":{"OBJECTID":6047,"NIDID":"CA01603","NAME":"Ray Soule Reservoir","COUNTYSTATE":"Siskiyou, California","PRIMARY_PURPOSE":"Water Supply","DAM_HEIGHT":28,"HAZARD_POTENTIAL":"Significant"}},{"type":"Feature","id":6419,"geometry":{"type":"Point","coordinates":[-121.618532594715,41.5048963004982]},"properties":{"OBJECTID":6419,"NIDID":"CA10311","NAME":"Beeler","COUNTYSTATE":"Siskiyou, California","PRIMARY_PURPOSE":"Fire Protection, Stock, Or Small Fish Pond","DAM_HEIGHT":9,"HAZARD_POTENTIAL":"Low"}},{"type":"Feature","id":6483,"geometry":{"type":"Point","coordinates":[-121.87141355513,40.9841052398855]},"properties":{"OBJECTID":6483,"NIDID":"CA01338","NAME":"Upper Elder","COUNTYSTATE":"Shasta, California","PRIMARY_PURPOSE":"Water Supply","DAM_HEIGHT":26,"HAZARD_POTENTIAL":"Low"}},{"type":"Feature","id":9683,"geometry":{"type":"Point","coordinates":[-122.782843731666,41.2343951796095]},"properties":{"OBJECTID":9683,"NIDID":"CA82442","NAME":"East Boulder Lake","COUNTYSTATE":"Siskiyou, California","PRIMARY_PURPOSE":"Recreation","DAM_HEIGHT":7,"HAZARD_POTENTIAL":"Low"}},{"type":"Feature","id":62761,"geometry":{"type":"Point","coordinates":[-121.561313665254,42.0105053426952]},"properties":{"OBJECTID":62761,"NIDID":"OR00585","NAME":"Anderson-Rose Diversion Dam","COUNTYSTATE":"Klamath, Oregon","PRIMARY_PURPOSE":"Irrigation","DAM_HEIGHT":16,"HAZARD_POTENTIAL":"Low"}},{"type":"Feature","id":91218,"geometry":{"type":"Point","coordinates":[-121.435713489235,40.9972052780368]},"properties":{"OBJECTID":91218,"NIDID":"CA10429","NAME":"Pit River Weir","COUNTYSTATE":"Shasta, California","PRIMARY_PURPOSE":"Hydroelectric","DAM_HEIGHT":8,"HAZARD_POTENTIAL":"Low"}},{"type":"Feature","id":91219,"geometry":{"type":"Point","coordinates":[-121.43891349033,41.0012052780697]},"properties":{"OBJECTID":91219,"NIDID":"CA10430","NAME":"Fall River Weir","COUNTYSTATE":"Shasta, California","PRIMARY_PURPOSE":"Hydroelectric","DAM_HEIGHT":8,"HAZARD_POTENTIAL":"Low"}}]}