{"type":"FeatureCollection","features":[{"type":"Feature","id":248,"geometry":{"type":"LineString","coordinates":[[-122.236363761641,40.0989148645268],[-122.258727496436,40.1804722018782],[-122.281145059311,40.2620252261902],[-122.303616734265,40.3435739134627],[-122.3261428063,40.4251182426959],[-122.348723560415,40.5066581888895],[-122.371359286612,40.5881937290435],[-122.394050272889,40.6697248401579],[-122.416796813249,40.7512514982326],[-122.439599199691,40.8327736802676],[-122.462457727215,40.9142913612626],[-122.485372694822,40.9958045182178],[-122.508344401513,41.077313126133],[-122.531373147287,41.1588171600082],[-122.554459236145,41.2403165968432],[-122.577602973088,41.3218114106381],[-122.600804664116,41.4033015763927],[-122.624064619228,41.4847870701071],[-122.647383148427,41.566267866781],[-122.670760564711,41.6477439404146],[-122.694197182082,41.7292152650076],[-122.71769331954,41.81068181556],[-122.741249294085,41.8921435650718],[-122.764865426718,41.9736004895428],[-122.788542041439,42.055052561973],[-122.812279462249,42.1364997543624],[-122.836078016147,42.2179420427109],[-122.841144454751,42.2352524654173]]},"properties":{"OBJECTID":248,"IDENT":"J126","TYPE_CODE":"CONV","LEVEL_":"U","MEA_E_VAL":18000,"MEA_E_UOM":"FT","MEA_W_VAL":999999,"MEA_W_UOM":"FT","MAA_VAL":45000,"MAA_UOM":"FT"}},{"type":"Feature","id":510,"geometry":{"type":"LineString","coordinates":[[-121.003871089568,38.0745856294197],[-121.017696165506,38.1572026945803],[-121.031552603514,38.2398181357086],[-121.045440567594,38.3224319448044],[-121.059360221746,38.4050441118677],[-121.073311732969,38.4876546288985],[-121.087295267265,38.5702634868967],[-121.101310993633,38.6528706778623],[-121.115359081074,38.7354761917952],[-121.129439698588,38.8180800216954],[-121.143553019175,38.9006821565629],[-121.157699213836,38.9832825893976],[-121.171878457572,39.0658813091993],[-121.186090922382,39.1484783089683],[-121.200336785266,39.2310735787044],[-121.214616222226,39.3136671084074],[-121.228929410261,39.3962588890774],[-121.243276530372,39.4788489127144],[-121.25765776056,39.5614371693183],[-121.272073281823,39.644023647889],[-121.286523278164,39.7266083414265],[-121.301007930581,39.8091912389307],[-121.315527425076,39.8917723314017],[-121.330081946649,39.9743516088393],[-121.344671682301,40.0569290612436],[-121.35929682003,40.1395046796145],[-121.373957548839,40.2220784539518],[-121.388654059727,40.3046503732557],[-121.403386543695,40.387220429526],[-121.418155193743,40.4697886107626],[-121.432960203871,40.5523549079656],[-121.44780177008,40.6349193101349],[-121.46268008737,40.7174818082704],[-121.477595355742,40.8000423913722],[-121.492547772196,40.8826010494401],[-121.507537538732,40.9651577704741],[-121.522564855351,41.0477125464741],[-121.537629927052,41.1302653644401],[-121.552732957838,41.2128162163721],[-121.567874151707,41.29536508927],[-121.58305371766,41.3779119731338],[-121.598271862698,41.4604568569634],[-121.613528796822,41.5429997297587],[-121.62882473203,41.6255405815197],[-121.644159880325,41.7080794002465],[-121.659534454706,41.7906161749388],[-121.674948672173,41.8731508945966],[-121.690402747728,41.95568354822],[-121.70589690037,42.0382141238088],[-121.7214313501,42.120742609363],[-121.727542047301,42.1531470051418]]},"properties":{"OBJECTID":510,"IDENT":"J189","TYPE_CODE":"CONV","LEVEL_":"U","MEA_E_VAL":18000,"MEA_E_UOM":"FT","MEA_W_VAL":999999,"MEA_W_UOM":"FT","MAA_VAL":45000,"MAA_UOM":"FT"}},{"type":"Feature","id":553,"geometry":{"type":"LineString","coordinates":[[-122.236363761641,40.0989148645268],[-122.258727496436,40.1804722018782],[-122.281145059311,40.2620252261902],[-122.303616734265,40.3435739134627],[-122.3261428063,40.4251182426959],[-122.348723560415,40.5066581888895],[-122.371359286612,40.5881937290435],[-122.394050272889,40.6697248401579],[-122.416796813249,40.7512514982326],[-122.439599199691,40.8327736802676],[-122.462457727215,40.9142913612626],[-122.485372694822,40.9958045182178],[-122.508344401513,41.077313126133],[-122.531373147287,41.1588171600082],[-122.554459236145,41.2403165968432],[-122.577602973088,41.3218114106381],[-122.600804664116,41.4033015763927],[-122.624064619228,41.4847870701071],[-122.647383148427,41.566267866781],[-122.670760564711,41.6477439404146],[-122.694197182082,41.7292152650076],[-122.71769331954,41.81068181556],[-122.741249294085,41.8921435650718],[-122.764865426718,41.9736004895428],[-122.788542041439,42.055052561973],[-122.812279462249,42.1364997543624],[-122.836078016147,42.2179420427109],[-122.841144454751,42.2352524654173]]},"properties":{"OBJECTID":553,"IDENT":"J1","TYPE_CODE":"CONV","LEVEL_":"U","MEA_E_VAL":18000,"MEA_E_UOM":"FT","MEA_W_VAL":999999,"MEA_W_UOM":"FT","MAA_VAL":45000,"MAA_UOM":"FT"}},{"type":"Feature","id":823,"geometry":{"type":"LineString","coordinates":[[-122.236363761641,40.0989148645268],[-122.185296768154,40.1725330333292],[-122.134118881686,40.2461287181506],[-122.082829605237,40.319701811991],[-122.031428438806,40.3932522058503],[-121.979914881393,40.4667797897288],[-121.928288427999,40.5402844566264],[-121.876548573623,40.6137660945432],[-121.824694807265,40.6872245934791],[-121.772726618926,40.7606598434343],[-121.720643494604,40.8340717304088],[-121.668444917299,40.9074601434025],[-121.616130368013,40.9808249684157],[-121.563699326743,41.0541660924481],[-121.511151267491,41.1274834015001],[-121.458485664257,41.2007767795715],[-121.405701989039,41.2740461116625],[-121.352799708838,41.347291281773],[-121.299778289654,41.420512171903],[-121.246637195486,41.4937086660528],[-121.193375886335,41.5668806462222],[-121.139993820201,41.6400279914113],[-121.086490452082,41.7131505846201],[-121.032865233979,41.7862483038489],[-120.979117617893,41.8593210290973],[-120.925247048822,41.9323686383657],[-120.871252971766,42.0053910106541],[-120.817134828726,42.0783880219623],[-120.762892059701,42.1513595492907],[-120.708524099691,42.2243054686391],[-120.654030382696,42.2972256540075],[-120.599410339715,42.3701199813961],[-120.54466339875,42.4429883228048],[-120.507118018835,42.4928485289408]]},"properties":{"OBJECTID":823,"IDENT":"J3","TYPE_CODE":"CONV","LEVEL_":"U","MEA_E_VAL":18000,"MEA_E_UOM":"FT","MEA_W_VAL":999999,"MEA_W_UOM":"FT","MAA_VAL":45000,"MAA_UOM":"FT"}},{"type":"Feature","id":917,"geometry":{"type":"LineString","coordinates":[[-122.877757889374,39.0974161255476],[-122.878583249304,39.1807436728528],[-122.879410568307,39.2640712141367],[-122.880239856381,39.3473987503992],[-122.881071124527,39.4307262796403],[-122.881904383746,39.5140538038602],[-122.882739644038,39.5973813210586],[-122.883576916404,39.6807088332356],[-122.884416211843,39.7640363393912],[-122.885257540356,39.8473638385255],[-122.886100914943,39.9306913316382],[-122.886946344605,40.0140188197295],[-122.887793842342,40.0973463007994],[-122.888643417153,40.1806737758477],[-122.889495082041,40.2640012448746],[-122.890348848004,40.34732870688],[-122.891204725044,40.4306561628639],[-122.89206272716,40.5139836128262],[-122.892922863353,40.597311055767],[-122.893785146624,40.6806384936862],[-122.894649588972,40.7639659235838],[-122.895516201398,40.8472933474599],[-122.896384995902,40.9306207653143],[-122.897255985485,41.0139481761472],[-122.898129180146,41.0972755809584],[-122.899004593887,41.180602978748],[-122.899882237708,41.2639303695159],[-122.900762124609,41.3472577542621],[-122.901644265591,41.4305851319867],[-122.902528674653,41.5139125026896],[-122.903415363796,41.5972398663708],[-122.904304346021,41.6805672240302],[-122.905195633328,41.7638945736679],[-122.906089237717,41.8472219172839],[-122.906985174189,41.9305492538781],[-122.907883453743,42.0138765834505],[-122.908784090382,42.0972039060012],[-122.909687097104,42.18053122053],[-122.91059248791,42.263858529037],[-122.911500273801,42.3471858305223],[-122.912410469777,42.4305131239856],[-122.912947561047,42.4795794201925]]},"properties":{"OBJECTID":917,"IDENT":"J501","TYPE_CODE":"CONV","LEVEL_":"U","MEA_E_VAL":22000,"MEA_E_UOM":"FT","MEA_W_VAL":999999,"MEA_W_UOM":"FT","MAA_VAL":45000,"MAA_UOM":"FT"}},{"type":"Feature","id":1112,"geometry":{"type":"LineString","coordinates":[[-122.236363761641,40.0989148645268],[-122.216671054099,40.1808737013768],[-122.196930712616,40.2628291942224],[-122.177142484193,40.3447813240638],[-122.157306115831,40.4267300739008],[-122.137421351529,40.5086754257337],[-122.117487934288,40.5906173605623],[-122.097505607108,40.6725558603867],[-122.077474106989,40.754490907207],[-122.057393174932,40.8364224820232],[-122.037262545936,40.9183505668353],[-122.017081954002,41.0002751416433],[-121.99685113413,41.0821961894472],[-121.97656981632,41.1641136892471],[-121.956237731572,41.2460276220431],[-121.935854605888,41.327937969835],[-121.915420167266,41.4098447126232],[-121.894934138707,41.4917478314074],[-121.874396244211,41.5736473051877],[-121.853806203779,41.6555431159642],[-121.833163736411,41.7374352427369],[-121.812468560106,41.8193236645058],[-121.791720389866,41.901208363271],[-121.77091893869,41.9830893170326],[-121.750063918578,42.0649665067904],[-121.729155039532,42.1468399105446],[-121.727542047301,42.1531470051418]]},"properties":{"OBJECTID":1112,"IDENT":"J65","TYPE_CODE":"CONV","LEVEL_":"U","MEA_E_VAL":18000,"MEA_E_UOM":"FT","MEA_W_VAL":999999,"MEA_W_UOM":"FT","MAA_VAL":45000,"MAA_UOM":"FT"}},{"type":"Feature","id":1383,"geometry":{"type":"LineString","coordinates":[[-121.727542047301,42.1531470051418],[-121.668794048626,42.082119582293],[-121.610177458017,42.0110622643814],[-121.551691709474,41.9399751924072],[-121.493336240997,41.8688585063706],[-121.435110492586,41.7977123452714],[-121.377013905241,41.7265368491101],[-121.319045924961,41.6553321558864],[-121.261205998747,41.5840984016008],[-121.203493576598,41.5128357242532],[-121.145908109514,41.4415442588438],[-121.088449054495,41.3702241423726],[-121.03111586554,41.2988755068398],[-120.97390800565,41.2274984872456],[-120.916824933824,41.1560932175899],[-120.859866116062,41.084659827873],[-120.803031019365,41.0131984520949],[-120.746319111731,40.9417092202557],[-120.68972986516,40.8701922623556],[-120.633262753653,40.7986477083947],[-120.576917254209,40.727075686373],[-120.520692844828,40.6554763262907],[-120.46458900551,40.5838497541479],[-120.408605220255,40.5121960979447],[-120.352740975062,40.4405154826812],[-120.316227112529,40.3935664348212]]},"properties":{"OBJECTID":1383,"IDENT":"J92","TYPE_CODE":"CONV","LEVEL_":"U","MEA_E_VAL":18000,"MEA_E_UOM":"FT","MEA_W_VAL":999999,"MEA_W_UOM":"FT","MAA_VAL":45000,"MAA_UOM":"FT"}},{"type":"Feature","id":1545,"geometry":{"type":"LineString","coordinates":[[-123.174577493495,39.9590050550888],[-123.176614846373,40.0423204449795],[-123.178657185327,40.1256357988479],[-123.180704536356,40.2089511166938],[-123.182756926462,40.2922663985173],[-123.184814383645,40.3755816443185],[-123.186876935905,40.4588968530971],[-123.188944609242,40.5422120248533],[-123.191017433657,40.6255271595871],[-123.19309543515,40.7088422572984],[-123.195178642721,40.7921573179871],[-123.197267086371,40.8754723406534],[-123.199360792101,40.9587873262972],[-123.20145978991,41.0421022739183],[-123.203564109799,41.1254171825169],[-123.205673779768,41.2087320530929],[-123.207788828818,41.2920468846464],[-123.208902699709,41.3358384825563]]},"properties":{"OBJECTID":1545,"IDENT":"Q1","TYPE_CODE":"RNAV","LEVEL_":"U","MEA_E_VAL":999999,"MEA_E_UOM":"FT","MEA_W_VAL":999999,"MEA_W_UOM":"FT","MAA_VAL":45000,"MAA_UOM":"FT"}},{"type":"Feature","id":1546,"geometry":{"type":"LineString","coordinates":[[-123.208902699709,41.3358384825563],[-123.211774998992,41.4191406110087],[-123.214654676356,41.5024426674377],[-123.217541772803,41.5857446518435],[-123.218711078262,41.6194218350223]]},"properties":{"OBJECTID":1546,"IDENT":"Q1","TYPE_CODE":"RNAV","LEVEL_":"U","MEA_E_VAL":999999,"MEA_E_UOM":"FT","MEA_W_VAL":999999,"MEA_W_UOM":"FT","MAA_VAL":45000,"MAA_UOM":"FT"}},{"type":"Feature","id":1547,"geometry":{"type":"LineString","coordinates":[[-123.218711078262,41.6194218350223],[-123.221719516841,41.7027215243854],[-123.224735759503,41.7860211347249],[-123.227759851249,41.869320667041],[-123.230791833079,41.9526201183337],[-123.233831750993,42.0359194906028],[-123.236879648992,42.1192187818485],[-123.239935569076,42.2025179930706],[-123.242999559246,42.2858171222691],[-123.246071661502,42.3691161694441],[-123.249151923844,42.4524151355955],[-123.25019455671,42.4805607783308]]},"properties":{"OBJECTID":1547,"IDENT":"Q1","TYPE_CODE":"RNAV","LEVEL_":"U","MEA_E_VAL":999999,"MEA_E_UOM":"FT","MEA_W_VAL":999999,"MEA_W_UOM":"FT","MAA_VAL":45000,"MAA_UOM":"FT"}},{"type":"Feature","id":1599,"geometry":{"type":"LineString","coordinates":[[-123.065722306161,42.4805607952552],[-123.063018292857,42.3972546880182],[-123.060321450639,42.313948516758],[-123.057631737507,42.2306422824743],[-123.054949114461,42.1473359851674],[-123.0522735435,42.0640296258372],[-123.049604983623,41.9807232054838],[-123.046943397831,41.8974167221071],[-123.044288747122,41.8141101777071],[-123.041640992497,41.7308035732839],[-123.039000096955,41.6474969068376],[-123.036366021496,41.564190181368],[-123.033738730119,41.4808833948753],[-123.031118184825,41.3975765493594],[-123.029180451024,41.3358384982567]]},"properties":{"OBJECTID":1599,"IDENT":"Q3","TYPE_CODE":"RNAV","LEVEL_":"U","MEA_E_VAL":999999,"MEA_E_UOM":"FT","MEA_W_VAL":999999,"MEA_W_UOM":"FT","MAA_VAL":45000,"MAA_UOM":"FT"}},{"type":"Feature","id":1600,"geometry":{"type":"LineString","coordinates":[[-123.029180451024,41.3358384982567],[-123.026651970883,41.2525301496935],[-123.024129931823,41.1692217461073],[-123.021614297843,41.085913287498],[-123.019105033943,41.0026047748657],[-123.016602107123,40.9192962072105],[-123.014105480382,40.8359875865323],[-123.011615120721,40.7526789108312],[-123.009130995138,40.6693701821071],[-123.006653067634,40.5860614013601],[-123.004181306207,40.5027525665902],[-123.001715675859,40.4194436797974],[-122.999256145587,40.3361347399818],[-122.996802681393,40.2528257491434],[-122.994355249275,40.1695167062821],[-122.991913819234,40.086207611398],[-122.989478356268,40.0028984664911],[-122.987048830379,39.9195892695615],[-122.984625208564,39.8362800226091],[-122.982207459824,39.7529707256339],[-122.979795552159,39.669661377636],[-122.977389453569,39.5863519806155],[-122.974989135052,39.5030425345722],[-122.972594563609,39.4197330385063],[-122.97020570924,39.3364234934178],[-122.967822540943,39.2531138993066],[-122.965445029719,39.1698042571728],[-122.963346790852,39.0961161187285]]},"properties":{"OBJECTID":1600,"IDENT":"Q3","TYPE_CODE":"RNAV","LEVEL_":"U","MEA_E_VAL":999999,"MEA_E_UOM":"FT","MEA_W_VAL":999999,"MEA_W_UOM":"FT","MAA_VAL":45000,"MAA_UOM":"FT"}},{"type":"Feature","id":1685,"geometry":{"type":"LineString","coordinates":[[-122.883775056815,42.4805608119299],[-122.881379427569,42.3972495636069],[-122.878990151409,42.3139382652609],[-122.876607192334,42.2306269178917],[-122.874230516345,42.1473155204994],[-122.871860086441,42.064004075084],[-122.869495869621,41.9806925806455],[-122.867137831885,41.897381037184],[-122.864785937233,41.8140694466994],[-122.862440154664,41.7307578071918],[-122.860100447178,41.6474461206611],[-122.857766783774,41.5641343871075],[-122.855439130452,41.4808226055309],[-122.853117455212,41.3975107779313],[-122.851402646464,41.3358385137714]]},"properties":{"OBJECTID":1685,"IDENT":"Q5","TYPE_CODE":"RNAV","LEVEL_":"U","MEA_E_VAL":999999,"MEA_E_UOM":"FT","MEA_W_VAL":999999,"MEA_W_UOM":"FT","MAA_VAL":45000,"MAA_UOM":"FT"}},{"type":"Feature","id":1686,"geometry":{"type":"LineString","coordinates":[[-122.851402646464,41.3358385137714],[-122.846411534974,41.2525929283695],[-122.841433126566,41.1693471269423],[-122.836467354239,41.08610111249],[-122.831514146993,41.0028548850125],[-122.826573436828,40.9196084465099],[-122.821645156744,40.8363617969821],[-122.816729237739,40.7531149384292],[-122.811825614815,40.6698678718513],[-122.806934218969,40.5866205982483],[-122.802054985202,40.5033731196203],[-122.797187847514,40.4201254349674],[-122.792332739904,40.3368775472894],[-122.787489599372,40.2536294575865],[-122.782658358917,40.1703811658586],[-122.77783895654,40.0871326741059],[-122.773031327239,40.0038839823282],[-122.768235408015,39.9206350935257],[-122.763451135866,39.8373860066983],[-122.758678447794,39.7541367248462],[-122.753917283797,39.6708872469693],[-122.749167579875,39.5876375750676],[-122.744429276028,39.504387711141],[-122.744180145407,39.5000050558284]]},"properties":{"OBJECTID":1686,"IDENT":"Q5","TYPE_CODE":"RNAV","LEVEL_":"U","MEA_E_VAL":999999,"MEA_E_UOM":"FT","MEA_W_VAL":999999,"MEA_W_UOM":"FT","MAA_VAL":45000,"MAA_UOM":"FT"}},{"type":"Feature","id":4462,"geometry":{"type":"LineString","coordinates":[[-122.806461268273,41.4496743596568],[-122.814930934449,41.5327625067014],[-122.82342238671,41.6158500307178],[-122.831935745055,41.6989369287059],[-122.840471130486,41.7820231956656],[-122.848449950018,41.8594968842648]]},"properties":{"OBJECTID":4462,"IDENT":"V23","TYPE_CODE":"CONV","LEVEL_":"L","MEA_E_VAL":10000,"MEA_E_UOM":"FT","MEA_W_VAL":999999,"MEA_W_UOM":"FT","MAA_VAL":17500,"MAA_UOM":"FT"}},{"type":"Feature","id":4463,"geometry":{"type":"LineString","coordinates":[[-122.848449950018,41.8594968842648],[-122.857004857611,41.942583260172],[-122.857608298643,41.9484357785166]]},"properties":{"OBJECTID":4463,"IDENT":"V23","TYPE_CODE":"CONV","LEVEL_":"L","MEA_E_VAL":10000,"MEA_E_UOM":"FT","MEA_W_VAL":999999,"MEA_W_UOM":"FT","MAA_VAL":17500,"MAA_UOM":"FT"}},{"type":"Feature","id":4464,"geometry":{"type":"LineString","coordinates":[[-122.857608298643,41.9484357785166],[-122.866205938331,42.0315203973915],[-122.874826084106,42.1146043742381],[-122.878208333916,42.1471441231285]]},"properties":{"OBJECTID":4464,"IDENT":"V23","TYPE_CODE":"CONV","LEVEL_":"L","MEA_E_VAL":10000,"MEA_E_UOM":"FT","MEA_W_VAL":999999,"MEA_W_UOM":"FT","MAA_VAL":17500,"MAA_UOM":"FT"}},{"type":"Feature","id":4749,"geometry":{"type":"LineString","coordinates":[[-122.024144093079,40.7015635387488],[-121.995508662434,40.7820196082041],[-121.96680377784,40.8624685826623],[-121.938029077299,40.9429104231234],[-121.909184199809,41.0233450935874],[-121.880268779372,41.1037725560544],[-121.851282449987,41.1841927705245],[-121.822224840654,41.2646057009976],[-121.793095581374,41.3450113074738],[-121.763894298147,41.4254095509531],[-121.7431080547,41.4825136209781]]},"properties":{"OBJECTID":4749,"IDENT":"V25","TYPE_CODE":"CONV","LEVEL_":"L","MEA_E_VAL":11000,"MEA_E_UOM":"FT","MEA_W_VAL":999999,"MEA_W_UOM":"FT","MAA_VAL":17500,"MAA_UOM":"FT"}},{"type":"Feature","id":4750,"geometry":{"type":"LineString","coordinates":[[-121.7431080547,41.4825136209781],[-121.74119198529,41.5658312782801],[-121.739270967959,41.6491489045623],[-121.737344974707,41.7324664978247],[-121.735413979536,41.8157840600673],[-121.734160891885,41.869735873099]]},"properties":{"OBJECTID":4750,"IDENT":"V25","TYPE_CODE":"CONV","LEVEL_":"L","MEA_E_VAL":11000,"MEA_E_UOM":"FT","MEA_W_VAL":999999,"MEA_W_UOM":"FT","MAA_VAL":17500,"MAA_UOM":"FT"}},{"type":"Feature","id":4751,"geometry":{"type":"LineString","coordinates":[[-121.734160891885,41.869735873099],[-121.732221190846,41.953053376309],[-121.730276412887,42.0363708454992],[-121.728326528009,42.1196882826695],[-121.727542047301,42.1531470051418]]},"properties":{"OBJECTID":4751,"IDENT":"V25","TYPE_CODE":"CONV","LEVEL_":"L","MEA_E_VAL":8500,"MEA_E_UOM":"FT","MEA_W_VAL":11000,"MEA_W_UOM":"FT","MAA_VAL":17500,"MAA_UOM":"FT"}},{"type":"Feature","id":5125,"geometry":{"type":"LineString","coordinates":[[-122.806461268273,41.4496743596568],[-122.733609810084,41.5126433254473],[-122.660616531878,41.5755662292673],[-122.587480946652,41.6384428791169],[-122.514202567408,41.7012730829961],[-122.486047095925,41.7253691291784]]},"properties":{"OBJECTID":5125,"IDENT":"V287","TYPE_CODE":"CONV","LEVEL_":"L","MEA_E_VAL":12000,"MEA_E_UOM":"FT","MEA_W_VAL":999999,"MEA_W_UOM":"FT","MAA_VAL":17500,"MAA_UOM":"FT"}},{"type":"Feature","id":6626,"geometry":{"type":"LineString","coordinates":[[-121.727542047301,42.1531470051418],[-121.668791765625,42.0821206212933],[-121.610172895016,42.011064340382],[-121.551684870473,41.9399783024081],[-121.528435866313,41.9116692274011]]},"properties":{"OBJECTID":6626,"IDENT":"V452","TYPE_CODE":"CONV","LEVEL_":"L","MEA_E_VAL":9000,"MEA_E_UOM":"FT","MEA_W_VAL":999999,"MEA_W_UOM":"FT","MAA_VAL":17500,"MAA_UOM":"FT"}},{"type":"Feature","id":8816,"geometry":{"type":"LineString","coordinates":[[-123.274340164942,39.0532216470673],[-123.27581949495,39.1365437432],[-123.27730232903,39.219865821311],[-123.278788688183,39.3031878804002],[-123.280278590408,39.3865099204677],[-123.281772054706,39.4698319415134],[-123.283269100078,39.5531539435374],[-123.284769746523,39.6364759255396],[-123.286274012042,39.7197978885199],[-123.287781916636,39.8031198324785],[-123.289293481304,39.8864417564152],[-123.290808723047,39.96976366033],[-123.292327664866,40.053085545223],[-123.29385032476,40.1364074100941],[-123.29537672273,40.2197292549433],[-123.296906879776,40.3030510787706],[-123.298440816899,40.386372883576],[-123.299978553098,40.4696946673594],[-123.301520110376,40.5530164311208],[-123.30306550873,40.6363381738603],[-123.304614770163,40.7196598965779],[-123.306167913674,40.8029815972733],[-123.307724962264,40.8863032779468],[-123.309285936932,40.9696249375982],[-123.31085085968,41.0529465762277],[-123.312419750508,41.136268193835],[-123.313992632416,41.2195897894202],[-123.315569527405,41.3029113639834],[-123.317150456474,41.3862329165245],[-123.318735443625,41.4695544470434],[-123.320324508857,41.5528759565402],[-123.321917677171,41.6361974440149],[-123.323514969567,41.7195189094674],[-123.325116410046,41.8028403518977],[-123.326722019608,41.8861617723058],[-123.328331824254,41.9694831706917],[-123.329945843984,42.0528045470554],[-123.331564105797,42.1361258993968],[-123.333186629696,42.2194472297161],[-123.33481344268,42.302768537013],[-123.336444565749,42.3860898212876],[-123.338080025904,42.46941108154],[-123.339719845145,42.5527323197701],[-123.341364048473,42.6360535339777],[-123.343012660888,42.7193747241632],[-123.34466570739,42.8026958913261],[-123.346323211981,42.8860170334668],[-123.347985199659,42.9693381525851],[-123.349651697427,43.0526592476809],[-123.351322729284,43.1359803177544],[-123.352256080603,43.1824205355724]]},"properties":{"OBJECTID":8816,"IDENT":"J143","TYPE_CODE":"CONV","LEVEL_":"U","MEA_E_VAL":18000,"MEA_E_UOM":"FT","MEA_W_VAL":999999,"MEA_W_UOM":"FT","MAA_VAL":45000,"MAA_UOM":"FT"}},{"type":"Feature","id":9203,"geometry":{"type":"LineString","coordinates":[[-122.806461268273,41.4496743596568],[-122.843949684085,41.5281300348271],[-122.881529124978,41.6065735069467],[-122.919200049953,41.6850047110155],[-122.95696292001,41.7634235840334],[-122.994818200149,41.8418300610004],[-123.032766358371,41.9202240779163],[-123.070807863677,41.9986055707809],[-123.108943189065,42.0769744725943],[-123.109269469223,42.0776440976096]]},"properties":{"OBJECTID":9203,"IDENT":"V121","TYPE_CODE":"CONV","LEVEL_":"L","MEA_E_VAL":10000,"MEA_E_UOM":"FT","MEA_W_VAL":999999,"MEA_W_UOM":"FT","MAA_VAL":17500,"MAA_UOM":"FT"}},{"type":"Feature","id":11087,"geometry":{"type":"LineString","coordinates":[[-122.518433221004,41.7832746853634],[-122.550877680127,41.8411691315174]]},"properties":{"OBJECTID":11087,"IDENT":"V287","TYPE_CODE":"CONV","LEVEL_":"L","MEA_E_VAL":12000,"MEA_E_UOM":"FT","MEA_W_VAL":999999,"MEA_W_UOM":"FT","MAA_VAL":17500,"MAA_UOM":"FT"}},{"type":"Feature","id":11088,"geometry":{"type":"LineString","coordinates":[[-122.61594437551,41.9569302447327],[-122.659283488458,42.0337835651353],[-122.702727528486,42.1106205424832],[-122.746277008596,42.1874410937762],[-122.746783320818,42.1883330267909]]},"properties":{"OBJECTID":11088,"IDENT":"V287","TYPE_CODE":"CONV","LEVEL_":"L","MEA_E_VAL":12000,"MEA_E_UOM":"FT","MEA_W_VAL":999999,"MEA_W_UOM":"FT","MAA_VAL":17500,"MAA_UOM":"FT"}},{"type":"Feature","id":11089,"geometry":{"type":"LineString","coordinates":[[-122.486047095925,41.7253691291784],[-122.518433221004,41.7832746853634]]},"properties":{"OBJECTID":11089,"IDENT":"V287","TYPE_CODE":"CONV","LEVEL_":"L","MEA_E_VAL":12000,"MEA_E_UOM":"FT","MEA_W_VAL":999999,"MEA_W_UOM":"FT","MAA_VAL":17500,"MAA_UOM":"FT"}},{"type":"Feature","id":11090,"geometry":{"type":"LineString","coordinates":[[-122.550877680127,41.8411691315174],[-122.594060223955,41.9180467590023],[-122.61594437551,41.9569302447327]]},"properties":{"OBJECTID":11090,"IDENT":"V287","TYPE_CODE":"CONV","LEVEL_":"L","MEA_E_VAL":12000,"MEA_E_UOM":"FT","MEA_W_VAL":999999,"MEA_W_UOM":"FT","MAA_VAL":17500,"MAA_UOM":"FT"}},{"type":"Feature","id":11148,"geometry":{"type":"LineString","coordinates":[[-121.814446954073,41.477838614412],[-121.797652918206,41.5602144429261],[-121.780816013406,41.6425878224331],[-121.763936007674,41.7249587379331],[-121.747012666009,41.8073271774262],[-121.734160891885,41.869735873099]]},"properties":{"OBJECTID":11148,"IDENT":"T261","TYPE_CODE":"RNAV","LEVEL_":"L","MEA_E_VAL":999999,"MEA_E_UOM":"FT","MEA_W_VAL":999999,"MEA_W_UOM":"FT","MAA_VAL":17500,"MAA_UOM":"FT"}},{"type":"Feature","id":11167,"geometry":{"type":"LineString","coordinates":[[-121.734160891885,41.869735873099],[-121.766206830597,41.949580326034],[-121.798333142395,42.0294158459217],[-121.83054024728,42.1092423847619],[-121.862828566252,42.1890598945545],[-121.895198523311,42.2688683272996],[-121.927650545457,42.3486676349969],[-121.960185061692,42.4284577676465],[-121.992802505015,42.5082386782481],[-121.997141594456,42.5188358955902]]},"properties":{"OBJECTID":11167,"IDENT":"T261","TYPE_CODE":"RNAV","LEVEL_":"L","MEA_E_VAL":999999,"MEA_E_UOM":"FT","MEA_W_VAL":999999,"MEA_W_UOM":"FT","MAA_VAL":17500,"MAA_UOM":"FT"}},{"type":"Feature","id":11277,"geometry":{"type":"LineString","coordinates":[[-122.851402646464,41.3358385137714],[-122.850935979229,41.4191677836329],[-122.850468114074,41.5024970524739],[-122.849999041999,41.5858263182942],[-122.849528759005,41.669155582094],[-122.849057256092,41.7524848448733],[-122.848584527261,41.835814105632],[-122.848449950018,41.8594968842648]]},"properties":{"OBJECTID":11277,"IDENT":"T263","TYPE_CODE":"RNAV","LEVEL_":"L","MEA_E_VAL":999999,"MEA_E_UOM":"FT","MEA_W_VAL":999999,"MEA_W_UOM":"FT","MAA_VAL":17500,"MAA_UOM":"FT"}},{"type":"Feature","id":11295,"geometry":{"type":"LineString","coordinates":[[-122.848449950018,41.8594968842648],[-122.857017847613,41.9425825191708],[-122.865608104294,42.0256675150483],[-122.874220842062,42.1087518688974],[-122.878208333916,42.1471441231285]]},"properties":{"OBJECTID":11295,"IDENT":"T263","TYPE_CODE":"RNAV","LEVEL_":"L","MEA_E_VAL":999999,"MEA_E_UOM":"FT","MEA_W_VAL":999999,"MEA_W_UOM":"FT","MAA_VAL":17500,"MAA_UOM":"FT"}},{"type":"Feature","id":11535,"geometry":{"type":"LineString","coordinates":[[-121.528435866313,41.9116692274011],[-121.470123761862,41.8405445813405],[-121.411941166476,41.7693905082176],[-121.353887523157,41.6982071460325],[-121.295962278902,41.6269946317852],[-121.238164879713,41.5557531044758],[-121.180494778589,41.4844827001046],[-121.12295142653,41.4131835526716],[-121.065534281536,41.3418557991769],[-121.008242799606,41.2704995726206],[-121.00126346018,41.2617942245485]]},"properties":{"OBJECTID":11535,"IDENT":"V452","TYPE_CODE":"CONV","LEVEL_":"L","MEA_E_VAL":14000,"MEA_E_UOM":"FT","MEA_W_VAL":9000,"MEA_W_UOM":"FT","MAA_VAL":17500,"MAA_UOM":"FT"}},{"type":"Feature","id":12563,"geometry":{"type":"LineString","coordinates":[[-122.60900810238,40.921144061235],[-122.653357028437,40.9974475909265],[-122.697808734568,41.0737340845634],[-122.742363715773,41.1500034561454],[-122.787022466054,41.2262556206725],[-122.831785483409,41.3024904911447],[-122.851402646464,41.3358385137714]]},"properties":{"OBJECTID":12563,"IDENT":"T263","TYPE_CODE":"RNAV","LEVEL_":"L","MEA_E_VAL":999999,"MEA_E_UOM":"FT","MEA_W_VAL":999999,"MEA_W_UOM":"FT","MAA_VAL":17500,"MAA_UOM":"FT"}},{"type":"Feature","id":12588,"geometry":{"type":"LineString","coordinates":[[-122.476972076893,41.6129913440707],[-122.483686096965,41.6961702163363],[-122.486047095925,41.7253691291784]]},"properties":{"OBJECTID":12588,"IDENT":"T355","TYPE_CODE":"RNAV","LEVEL_":"L","MEA_E_VAL":999999,"MEA_E_UOM":"FT","MEA_W_VAL":999999,"MEA_W_UOM":"FT","MAA_VAL":17500,"MAA_UOM":"FT"}},{"type":"Feature","id":12590,"geometry":{"type":"LineString","coordinates":[[-122.486047095925,41.7253691291784],[-122.553603677688,41.7917340168313],[-122.621300249502,41.8580592434191],[-122.689137343367,41.9243446359417],[-122.70026382879,41.9351996796935]]},"properties":{"OBJECTID":12590,"IDENT":"T355","TYPE_CODE":"RNAV","LEVEL_":"L","MEA_E_VAL":999999,"MEA_E_UOM":"FT","MEA_W_VAL":999999,"MEA_W_UOM":"FT","MAA_VAL":17500,"MAA_UOM":"FT"}},{"type":"Feature","id":12604,"geometry":{"type":"LineString","coordinates":[[-122.502983059344,40.7379385009525],[-122.500536392216,40.821247909242],[-122.498083571165,40.9045572655126],[-122.495624562189,40.9878665697643],[-122.493159332291,41.071175820997],[-122.49068784747,41.1544850202108],[-122.488210071726,41.2377941664057],[-122.48572597206,41.3211032595817],[-122.483235513472,41.4044122987387],[-122.480738660963,41.4877212838767],[-122.478235379532,41.5710302149958],[-122.476972076893,41.6129913440707]]},"properties":{"OBJECTID":12604,"IDENT":"T355","TYPE_CODE":"RNAV","LEVEL_":"L","MEA_E_VAL":999999,"MEA_E_UOM":"FT","MEA_W_VAL":999999,"MEA_W_UOM":"FT","MAA_VAL":17500,"MAA_UOM":"FT"}},{"type":"Feature","id":12606,"geometry":{"type":"LineString","coordinates":[[-122.70026382879,41.9351996796935],[-122.759499184119,42.0059407472341],[-122.818866388512,42.0766512937119],[-122.878208333916,42.1471441231285]]},"properties":{"OBJECTID":12606,"IDENT":"T355","TYPE_CODE":"RNAV","LEVEL_":"L","MEA_E_VAL":999999,"MEA_E_UOM":"FT","MEA_W_VAL":999999,"MEA_W_UOM":"FT","MAA_VAL":17500,"MAA_UOM":"FT"}},{"type":"Feature","id":16074,"geometry":{"type":"LineString","coordinates":[[-121.991485771935,40.8237163286676],[-121.969578599604,40.9053827756335],[-121.947617254332,40.9870450665969],[-121.925601449121,41.0687031805577],[-121.90353089397,41.1503570935159],[-121.88140529688,41.2320067834715],[-121.85922436485,41.3136522274246],[-121.83698780288,41.3952934023753],[-121.814695311972,41.4769302863236],[-121.814446954073,41.477838614412]]},"properties":{"OBJECTID":16074,"IDENT":"T261","TYPE_CODE":"RNAV","LEVEL_":"L","MEA_E_VAL":999999,"MEA_E_UOM":null,"MEA_W_VAL":999999,"MEA_W_UOM":null,"MAA_VAL":17500,"MAA_UOM":"FT"}},{"type":"Feature","id":16150,"geometry":{"type":"LineString","coordinates":[[-122.574438651063,40.9069857301668],[-122.608114170959,40.9863388060097],[-122.641870831935,41.0656820588047],[-122.675709044992,41.1450154375518],[-122.70962922813,41.2243388902508],[-122.74363179935,41.3036523649017],[-122.777717179651,41.3829558095044],[-122.806461268273,41.4496743596568]]},"properties":{"OBJECTID":16150,"IDENT":"V23","TYPE_CODE":"CONV","LEVEL_":"L","MEA_E_VAL":10000,"MEA_E_UOM":"FT","MEA_W_VAL":999999,"MEA_W_UOM":null,"MAA_VAL":17500,"MAA_UOM":null}},{"type":"Feature","id":17452,"geometry":{"type":"LineString","coordinates":[[-122.806461268273,41.4496743596568],[-122.843949684085,41.5281300348271],[-122.881529124978,41.6065735069467],[-122.919200049953,41.6850047110155],[-122.95696292001,41.7634235840334],[-122.994818200149,41.8418300610004],[-123.032766358371,41.9202240779163],[-123.070807863677,41.9986055707809],[-123.108943189065,42.0769744725943],[-123.109269469223,42.0776440976096]]},"properties":{"OBJECTID":17452,"IDENT":"V495","TYPE_CODE":"CONV","LEVEL_":"L","MEA_E_VAL":10000,"MEA_E_UOM":"FT","MEA_W_VAL":999999,"MEA_W_UOM":null,"MAA_VAL":17500,"MAA_UOM":"FT"}}]}