{"type":"FeatureCollection","features":[{"type":"Feature","id":4619,"geometry":{"type":"Polygon","coordinates":[[[-121.48144399989599,41.95849099980664],[-121.48140100023828,41.957333999680564],[-121.48139100019254,41.95725700031065],[-121.48093000006008,41.953638999899304],[-121.4814310003755,41.95364499978641],[-121.4814310003755,41.951135000171455],[-121.48089099970203,41.95099099972746],[-121.47914800035288,41.951005999733226],[-121.47796400014715,41.95101199986813],[-121.4766490004202,41.951025000269894],[-121.47652999969618,41.948083999864664],[-121.47653100041943,41.94756600020178],[-121.47187499996248,41.94754199969745],[-121.47165499985444,41.947541000177345],[-121.46466100002158,41.94764299992143],[-121.46635800023832,41.94929199975073],[-121.46717300037308,41.950038999891156],[-121.47075100003119,41.953370999913254],[-121.471081999569,41.95365999983569],[-121.47110000001068,41.95365899974343],[-121.471854999871,41.953651999765285],[-121.47204499984178,41.9536509996729],[-121.47212900040569,41.95365000024858],[-121.47231799965324,41.95364900015622],[-121.4723210000263,41.95395899999205],[-121.47232299967614,41.954964999960815],[-121.47232900042222,41.95527400000949],[-121.47234699996557,41.95537800020346],[-121.47528500028942,41.95813699968543],[-121.47690700016302,41.95967600024852],[-121.47792999981198,41.96060800010347],[-121.47837199967785,41.96101100008022],[-121.47869499971803,41.961304999955345],[-121.47902899962887,41.961304999955345],[-121.48133199974298,41.96126900027529],[-121.48134199978875,41.96103000030625],[-121.48135799968225,41.9606699997006],[-121.48144399989599,41.95849099980664]]]},"properties":{"OBJECTID":4619,"NAME":"Tulelake city","BASENAME":"Tulelake","GEOID":"0680686","PLACE":"80686","STATE":"06","FUNCSTAT":"A"}},{"type":"Feature","id":7395,"geometry":{"type":"Polygon","coordinates":[[[-122.85304499997196,41.60545499981387],[-122.85348799966272,41.605496999962114],[-122.85287900029057,41.60380399980351],[-122.85016100007478,41.60105499967607],[-122.85147699962666,41.5995529998561],[-122.84918600010644,41.59946099981773],[-122.84878900044639,41.59887900028883],[-122.8484229998502,41.59932799980053],[-122.84821699998587,41.5993450001665],[-122.8467209996106,41.59951299970951],[-122.84669300002152,41.599838000099105],[-122.84584299972664,41.59995600003395],[-122.84601699980392,41.60018200016079],[-122.84618900023138,41.60043399973751],[-122.8464519999971,41.600768000304384],[-122.8466579998614,41.601011999762534],[-122.84688999966501,41.601142000319506],[-122.84665700003649,41.601466999894434],[-122.84592100044276,41.60233599998618],[-122.84593300013833,41.60220800024765],[-122.84592599956733,41.60215800027031],[-122.84590100035125,41.6021179997232],[-122.84582600000819,41.602040000331456],[-122.84513300007214,41.60158500020933],[-122.84470000042711,41.60130000029249],[-122.84417399999734,41.601562999984814],[-122.83614200044696,41.6045520000901],[-122.83616900021114,41.60576500013604],[-122.83627499961804,41.607437999917096],[-122.83491100038556,41.60806199998865],[-122.83504899957951,41.60813400009941],[-122.83566299987285,41.6083669999536],[-122.83605700005816,41.608053999672855],[-122.83632099964879,41.6080609998653],[-122.83636199965666,41.60856799997907],[-122.8364069998625,41.60920000004251],[-122.83655599982544,41.61121500026798],[-122.83663199999339,41.612327999694024],[-122.83826100043807,41.61283699995367],[-122.83791999995621,41.613328000149565],[-122.8378990000398,41.61336000013384],[-122.83753199961869,41.6133090000255],[-122.83493999979959,41.61290199977023],[-122.83492899992892,41.61289400005465],[-122.83465899959216,41.61273100000905],[-122.83449000043608,41.61265500011897],[-122.83440199967423,41.61263799990153],[-122.83424299966556,41.61265999970799],[-122.83411999964191,41.61265900032752],[-122.83400900021215,41.612646000320446],[-122.83393899989196,41.61262800004809],[-122.83391399977761,41.61261600008757],[-122.8338920000363,41.61201699994964],[-122.83390499955676,41.611757000081546],[-122.83201499989453,41.61111799968585],[-122.82942399990034,41.61025999997064],[-122.82923599957935,41.61428600010565],[-122.83522000018205,41.61421800025683],[-122.83491899988319,41.61519500000065],[-122.83646299993902,41.61524799998494],[-122.83653800028206,41.61531600009111],[-122.83627700016618,41.61589299977597],[-122.83584799982079,41.616378000248375],[-122.83556699961336,41.61656900024773],[-122.83516099973252,41.61691799968908],[-122.83440099984934,41.617617000268886],[-122.83309199997014,41.61867399968013],[-122.83300900012944,41.618741000245805],[-122.8328090001129,41.61894100022728],[-122.83272200007427,41.61903100011737],[-122.83101599963675,41.620734000195334],[-122.82973900044291,41.6220019998035],[-122.83026099977643,41.6222100003203],[-122.83043300020385,41.62207600028382],[-122.83253100027856,41.62257399994596],[-122.83254999964683,41.6224060000125],[-122.83267600004352,41.622168000308754],[-122.83300499993149,41.62210500024014],[-122.83317999983366,41.62205999976971],[-122.83329600018462,41.62197500028773],[-122.83350100022406,41.62170000024803],[-122.83388299981547,41.621255000300174],[-122.83410700012145,41.62106200023271],[-122.83679400037511,41.61695699980568],[-122.83681299974337,41.61670200032104],[-122.83694699963768,41.61657100023065],[-122.83750800022756,41.615597999864995],[-122.8386599997479,41.61416500009775],[-122.83946800020999,41.6129159997738],[-122.84037399968305,41.61180700000839],[-122.8405889997682,41.611841000205196],[-122.8439039996606,41.612695000178356],[-122.84551999968646,41.61019600026878],[-122.84563600003742,41.61004700007683],[-122.8435449996354,41.6094109998414],[-122.84631800010281,41.60718100014038],[-122.84672599963346,41.60716700023555],[-122.84713800026044,41.60709099983542],[-122.84745200007978,41.607051000331275],[-122.84775800040154,41.606988999741056],[-122.84812999994723,41.60684000020237],[-122.84817000013021,41.60682299979584],[-122.8483180002682,41.606761999801755],[-122.84892099979255,41.60651400000257],[-122.84920600019791,41.6063959999693],[-122.8496139997286,41.60622099981853],[-122.85005999979245,41.605910999672176],[-122.85038200000771,41.60571699987592],[-122.85068800032947,41.60562300024266],[-122.85105499985228,41.60542999974466],[-122.85131299959512,41.605340999849524],[-122.85153600007621,41.6053089999176],[-122.85204099969128,41.605340999849524],[-122.85232699992153,41.605355000150574],[-122.85304499997196,41.60545499981387]]]},"properties":{"OBJECTID":7395,"NAME":"Fort Jones city","BASENAME":"Fort Jones","GEOID":"0625128","PLACE":"25128","STATE":"06","FUNCSTAT":"A"}},{"type":"Feature","id":7885,"geometry":{"type":"Polygon","coordinates":[[[-121.93067299963033,41.966876000064445],[-121.93062300029996,41.956507999824574],[-121.9305439997589,41.95650899987213],[-121.92642600032562,41.95650200020704],[-121.92641000043213,41.95819500026645],[-121.92641100025702,41.958350000005325],[-121.92638600014264,41.95837999988966],[-121.92633500008904,41.95844999978763],[-121.92630900014974,41.95854700003442],[-121.92630199957874,41.95864300011952],[-121.92630999997466,41.958803000162604],[-121.92551999995426,41.95880500018567],[-121.92473499995671,41.958823999733475],[-121.92326000039616,41.958828999789354],[-121.9212560000328,41.958823999733475],[-121.92129100019288,41.96008300007357],[-121.92129100019288,41.96010999983703],[-121.91989500027506,41.96009199999596],[-121.91949199986894,41.96008700003922],[-121.91862099965766,41.960075000141394],[-121.91785099972871,41.960073000158246],[-121.9171100001121,41.95989700005589],[-121.91229700019464,41.96000200004638],[-121.9114850004329,41.95989400007269],[-121.91152600044077,41.96000100005364],[-121.91152300006775,41.960075000141394],[-121.9114989997783,41.9606939999378],[-121.91148100023496,41.96135999974275],[-121.9114710001892,41.96210500014128],[-121.911436999854,41.962692999795266],[-121.91136900008198,41.96668899995057],[-121.91137800030279,41.966764000172894],[-121.91139800039427,41.96683900030692],[-121.91149200010561,41.96701200028829],[-121.91160799955823,41.96719200029527],[-121.91165899961186,41.96725500004398],[-121.91149999960322,41.96732299978764],[-121.91143900040217,41.968708999726616],[-121.91150499962606,41.97149599982985],[-121.91227000043045,41.97039999973123],[-121.91317199970555,41.96911199989364],[-121.91317599990353,41.969249999714506],[-121.91319400034516,41.969786999758824],[-121.91236199959366,41.97104599987502],[-121.91249300001321,41.974541000090625],[-121.91337099989717,41.974527000046365],[-121.91332700041457,41.971566000012075],[-121.91355699967002,41.97163600011732],[-121.9138219999839,41.97164700003146],[-121.91447599956186,41.971650000129124],[-121.91574199978336,41.971665999757214],[-121.91635100005381,41.97165899975347],[-121.91699600030931,41.97165099993904],[-121.917623999948,41.97164600022148],[-121.91832000025708,41.97164099983565],[-121.91897600038321,41.97163200020876],[-121.91959899999905,41.97162399972308],[-121.92012399970561,41.97161100018395],[-121.920741000372,41.97161199999447],[-121.92133800004854,41.97160000026359],[-121.92131999960688,41.97011299992068],[-121.92130500043659,41.9685740003121],[-121.92131499958401,41.9675090001694],[-121.9213129999342,41.96705300014163],[-121.92210899980242,41.96703799990513],[-121.92268499956259,41.96702099989994],[-121.92396599985268,41.96698400022664],[-121.92530300021927,41.96697499994183],[-121.92612400020184,41.96696600032365],[-121.92661799994625,41.966951999950275],[-121.92790599990904,41.96691899977373],[-121.93003900014384,41.96688499969534],[-121.93067299963033,41.966876000064445]]]},"properties":{"OBJECTID":7885,"NAME":"Dorris city","BASENAME":"Dorris","GEOID":"0619584","PLACE":"19584","STATE":"06","FUNCSTAT":"A"}},{"type":"Feature","id":8617,"geometry":{"type":"Polygon","coordinates":[[[-122.90834200013006,41.453939000011516],[-122.90847400037458,41.45259499993608],[-122.906695999967,41.452661999725194],[-122.90605200043477,41.45265900021846],[-122.90598299993947,41.45402099967287],[-122.90448300026458,41.453994999775006],[-122.90445999980004,41.45364100033653],[-122.9032470001803,41.45377900032455],[-122.90317199983724,41.45270900005844],[-122.89876700034878,41.452594000099516],[-122.89795899988668,41.45391600020282],[-122.89777499976368,41.45416700004488],[-122.89744199967774,41.45391700001905],[-122.8970170004286,41.45389999977494],[-122.89589099994922,41.45354000021284],[-122.89575700005491,41.453514000122226],[-122.89527800037914,41.45342099973868],[-122.89485099968356,41.453332999694624],[-122.89386400001965,41.45308599998129],[-122.89245499968301,41.45273200029511],[-122.89212300032031,41.45264899984184],[-122.89205800002298,41.452680000129],[-122.88916099970703,41.454634000277956],[-122.88863900037353,41.45430099967287],[-122.88915200038451,41.45371399998135],[-122.88897800030723,41.45361699992809],[-122.88829799989168,41.453265000099094],[-122.88702599982241,41.454537000253886],[-122.88655600036742,41.454292999843545],[-122.88513500033527,41.45354599981796],[-122.88355100009645,41.4536560003348],[-122.88305900000185,41.45429699975834],[-122.88214199975984,41.45504099981796],[-122.88136699980802,41.45570200018313],[-122.88076599993347,41.45621899996427],[-122.88078699984987,41.45659400013482],[-122.88083999955334,41.45728999999401],[-122.88126399987586,41.457346999994016],[-122.88155000010612,41.45677099977989],[-122.88164899984034,41.4567909999338],[-122.88198100010135,41.45684999991441],[-122.88231400018729,41.45689699990618],[-122.88265700031896,41.456931999935186],[-122.88294500019903,41.45696999992609],[-122.88300700012333,41.457240000318876],[-122.88312900032207,41.457531999708],[-122.88354000022578,41.45847200001873],[-122.88360700017294,41.45866199995185],[-122.88365900005148,41.458807999975804],[-122.88373500021946,41.4589850003111],[-122.88410000009246,41.459941999770514],[-122.88429199971307,41.46039000016783],[-122.88581999987537,41.46007200002722],[-122.88645799955984,41.45990499989839],[-122.8869959996852,41.45975500007314],[-122.8869970004084,41.45981800029784],[-122.88700499990601,41.460691000284925],[-122.88705099993678,41.46093700027801],[-122.88739800026639,41.46089600011956],[-122.887553999902,41.46097700003],[-122.88764400031368,41.461022000310464],[-122.88704000006612,41.462387999948575],[-122.8873070000298,41.462430999880084],[-122.88771899975846,41.46244900026564],[-122.88774600042096,41.46217600027656],[-122.88786100004867,41.46171799977505],[-122.8880600002403,41.46123799987584],[-122.88844799967949,41.46086499971987],[-122.88886100013139,41.46044000010732],[-122.88893099955325,41.46047500024402],[-122.88900500007142,41.460508999974046],[-122.88854700031202,41.46093500018879],[-122.88823099994453,41.46132199981175],[-122.88802300043038,41.46177900004911],[-122.88791700012519,41.462323999841196],[-122.88788199996505,41.46241500020637],[-122.88871299999337,41.462547000257544],[-122.88862799960455,41.4637299997268],[-122.88882400032146,41.46366899994164],[-122.88900699972123,41.463654000239465],[-122.88934700037818,41.46368400031347],[-122.89030300007997,41.463791000127785],[-122.89083299980936,41.464828999831994],[-122.89099299964293,41.465132000172844],[-122.8896650003955,41.46570299998381],[-122.88975900010685,41.46577200030896],[-122.8896519999767,41.46584099988746],[-122.88949600034108,41.46591200000148],[-122.8893080000201,41.466034000006374],[-122.88908999956193,41.466106000210544],[-122.88877300026782,41.46616900032358],[-122.88874200030568,41.466177000034385],[-122.88878999998624,41.46687400033035],[-122.89485099968356,41.46493199984454],[-122.89467400013154,41.46443199969072],[-122.8940099996095,41.462552000019585],[-122.89420299995332,41.46258500032447],[-122.89478499956131,41.46266800018059],[-122.89569000010778,41.46280500013253],[-122.8960299998664,41.46285700025963],[-122.89612799977567,41.46317100016679],[-122.8968819998111,41.463405999769286],[-122.89695499960602,41.463638000194315],[-122.89711500033793,41.464145000041825],[-122.89728299966907,41.46410900020729],[-122.89754100031026,41.46341599983374],[-122.89760300023454,41.463417999846456],[-122.89778499980943,41.4634190001894],[-122.90320600017243,41.46348800025231],[-122.90324100033254,41.462683999791885],[-122.90342799993029,41.459437000184934],[-122.90346100044056,41.45882800017482],[-122.90400000039081,41.45894099970232],[-122.9034220000825,41.45736400000795],[-122.90610900033617,41.457372000131755],[-122.90636999955376,41.45744000013453],[-122.90653799978325,41.45698000030981],[-122.90655399967677,41.45566000029207],[-122.90610500013823,41.455648999915404],[-122.90610699978804,41.45562500024993],[-122.90610699978804,41.455500999929235],[-122.90612299968156,41.455425000223634],[-122.90620399987242,41.455238000294266],[-122.90620700024546,41.455183000054056],[-122.90617999958296,41.45511600017581],[-122.90614299977304,41.45505799976303],[-122.90609400026756,41.454993000028196],[-122.90606300030542,41.45493800025346],[-122.90604499986374,41.45489199998991],[-122.90603800019106,41.45484700016881],[-122.906034999818,41.45453899986714],[-122.90604200038904,41.45450399989334],[-122.90606599978017,41.45445099999327],[-122.90611600000888,41.45439599975897],[-122.90614000029831,41.45435500017826],[-122.90615600019183,41.4543120002782],[-122.90617999958296,41.45422199980007],[-122.90624099968234,41.45408300026756],[-122.90626400014686,41.45401500011167],[-122.90804500002915,41.45391399989707],[-122.90834200013006,41.453939000011516]]]},"properties":{"OBJECTID":8617,"NAME":"Etna city","BASENAME":"Etna","GEOID":"0622972","PLACE":"22972","STATE":"06","FUNCSTAT":"A"}},{"type":"Feature","id":15541,"geometry":{"type":"Polygon","coordinates":[[[-122.28504800008069,41.234709000311405],[-122.28504700025577,41.23328500012886],[-122.28504499970764,41.229263000057955],[-122.28018900013247,41.22935799997747],[-122.28039099979885,41.223857999877076],[-122.28043299963164,41.22254600014396],[-122.28044600005043,41.22215499989353],[-122.28045600009618,41.22182499978465],[-122.28047100016481,41.221339000007525],[-122.28048100021051,41.22102300010568],[-122.2804929999061,41.22066100025759],[-122.27892499956083,41.220659000208094],[-122.27851899967993,41.22067199985322],[-122.27802800030858,41.22066599970544],[-122.2777599996217,41.22067499992687],[-122.27749299965798,41.22067299987775],[-122.27665300030716,41.22067599995141],[-122.27587300033247,41.22068500017141],[-122.2758049996621,41.22068600019579],[-122.27581200023313,41.220340000310166],[-122.27581100040821,41.220265000070164],[-122.27581399988294,41.22015399993545],[-122.27581600043108,41.22009199991822],[-122.27581899990581,41.22000300025938],[-122.2758199997307,41.21987300033509],[-122.27582300010376,41.21964400029207],[-122.27582700030173,41.21938999969896],[-122.27582800012662,41.21929800029956],[-122.27583800017239,41.218750000050115],[-122.2757839997457,41.21716299988751],[-122.27578700011875,41.21698199966748],[-122.2757849995706,41.21625099989118],[-122.27577399969996,41.21377499982968],[-122.27577100022523,41.213399999999666],[-122.27577500042318,41.213214000162246],[-122.27576299982931,41.212221000278504],[-122.27650500016915,41.21221600018519],[-122.27712600013517,41.21220800030531],[-122.27718399986149,41.210395000104796],[-122.27720099957993,41.20980499971797],[-122.27680399991988,41.20981199970107],[-122.27663800023853,41.20981100018624],[-122.2760220002954,41.20981699997816],[-122.27588599985297,41.209821000064395],[-122.27575000030883,41.20981899968342],[-122.27574600011089,41.20957900015119],[-122.27574500028597,41.20905199977046],[-122.2757400002631,41.208456000197025],[-122.27573400041531,41.20775100013427],[-122.27575299978356,41.20769300006608],[-122.27587900018027,41.20771100002285],[-122.27588800040111,41.20764200016169],[-122.27593799973151,41.20728799972985],[-122.27612699987736,41.20703800007319],[-122.27621499974092,41.20685299995563],[-122.27651000019202,41.20685599998731],[-122.27668799956895,41.206857999783026],[-122.27676100026217,41.20685900001881],[-122.27721999984652,41.205817999750174],[-122.2772190000216,41.20511800028586],[-122.27721599964855,41.20466899989],[-122.27732199995377,41.204658999900325],[-122.27761499985674,41.204653000311254],[-122.27761400003182,41.20437900024418],[-122.27737600038043,41.204382999987004],[-122.27721399999874,41.204384999858334],[-122.27721700037176,41.20429000015804],[-122.27721200034888,41.2038770001639],[-122.27684499992777,41.20375500019553],[-122.27655899969753,41.20364899982781],[-122.27645400011554,41.20350699978029],[-122.27640200023698,41.203447000105456],[-122.2763469999854,41.20340000007398],[-122.27626599979456,41.20334999981647],[-122.27618600032694,41.20332399972152],[-122.27613899957294,41.20331699972018],[-122.27604400003672,41.20332500001132],[-122.2759999996558,41.20333700010822],[-122.27595500034825,41.20335800010351],[-122.27591299961713,41.20339300008077],[-122.27587199960927,41.203445000205505],[-122.27583300014952,41.20353099990514],[-122.27582399992868,41.203577000232485],[-122.27582099955563,41.203657000078366],[-122.27582899995154,41.20379800019372],[-122.27577700007302,41.20380099968959],[-122.27577299987504,41.203223999728024],[-122.27577399969996,41.20290800017701],[-122.27501499964167,41.20277899969503],[-122.27491099988461,41.20276000011073],[-122.27490900023477,41.2026950002818],[-122.27491300043275,41.202335000320346],[-122.2742480000858,41.202330000147356],[-122.27375500016629,41.20233400001541],[-122.27357600006614,41.20233400001541],[-122.27347300013399,41.20233400001541],[-122.27333500004174,41.20233200008144],[-122.2728670002366,41.20232899984235],[-122.2727779996498,41.20233200008144],[-122.27264999960329,41.202332999710514],[-122.27170499977217,41.20233200008144],[-122.27098400024704,41.202330000147356],[-122.26995900004997,41.202324999973996],[-122.26916900002954,41.20232699990818],[-122.26916999985445,41.20261199970979],[-122.26917200040262,41.20287999998923],[-122.2691740000524,41.203212000286236],[-122.26917599970224,41.20373899971747],[-122.26917599970224,41.203831000047444],[-122.26917599970224,41.20384899971485],[-122.2691740000524,41.20389900026698],[-122.26917599970224,41.20441399967532],[-122.26917499987732,41.20510200014106],[-122.26917099967937,41.205769999817534],[-122.26916700037972,41.20646000002684],[-122.26916499983159,41.20710899968354],[-122.2691640000067,41.20778299980037],[-122.2691640000067,41.20843499981029],[-122.26916300018178,41.20909299993952],[-122.26916300018178,41.20964799999705],[-122.26916099963364,41.210359000311506],[-122.26916200035686,41.210717999879485],[-122.26911999962577,41.21082499978378],[-122.2687630001487,41.211813999943544],[-122.26865400036874,41.212164999751714],[-122.26860300031512,41.21243999980284],[-122.26862000003355,41.21267099968224],[-122.26855700028436,41.21285500009963],[-122.26850799988057,41.213001000025855],[-122.26852299994917,41.213235999829095],[-122.26852700014712,41.21332899978262],[-122.26860300031512,41.213384999988776],[-122.26902300043969,41.21369400005923],[-122.2690169996936,41.21379699998359],[-122.26898300025671,41.214293999707934],[-122.26897300021098,41.21443399975766],[-122.26917599970224,41.21460700000854],[-122.26996999992062,41.215278999705205],[-122.27002799964694,41.21532800020142],[-122.27016999993717,41.21545100031995],[-122.27047299988587,41.21570700019308],[-122.27060599995525,41.21581699966718],[-122.27066899970447,41.215870000152506],[-122.27068399977307,41.216235999858284],[-122.27069299999391,41.21645700031003],[-122.27069299999391,41.21651199977746],[-122.27070499968947,41.216776000226304],[-122.27071100043557,41.21688599992991],[-122.2707149997352,41.21696200007162],[-122.27083399956089,41.21696500031545],[-122.27083100008616,41.217048000249974],[-122.2708260000633,41.217144999828314],[-122.27077900020763,41.21807800019946],[-122.27070899988742,41.21949999973639],[-122.2707509997202,41.22186600005664],[-122.27076499996394,41.22253500018789],[-122.2711089999205,41.222532000199564],[-122.27153400006794,41.222532000199564],[-122.27310800026099,41.222527000218676],[-122.27310999991083,41.22293800007364],[-122.27311699958351,41.22440399995773],[-122.27311499993372,41.22443299968482],[-122.27311699958351,41.224680999830845],[-122.27312400015454,41.226367999895736],[-122.27313199965214,41.2284360000482],[-122.2717719997193,41.2284360000482],[-122.27104100014844,41.22842900003125],[-122.27072399995605,41.22842600031331],[-122.2707130000854,41.22789699992813],[-122.2707060004127,41.22762800018785],[-122.26998699963907,41.22762900010606],[-122.26979300036864,41.22763000002421],[-122.26911700015101,41.22762299992097],[-122.26600399992499,41.22761000030637],[-122.26600800012294,41.22997599974635],[-122.26600399992499,41.23090500000567],[-122.26600700029805,41.23120000028704],[-122.26716300001637,41.231185000304876],[-122.26780800027183,41.23118799989623],[-122.27077500000965,41.23116799991554],[-122.27076999998678,41.232099999675825],[-122.27075499991818,41.232911999691716],[-122.27074700042057,41.2334800001206],[-122.27074499987245,41.23367600003191],[-122.27073800019973,41.23417600014952],[-122.27073700037484,41.23439000004719],[-122.2707420003977,41.23458900004316],[-122.27073700037484,41.23478899991754],[-122.27046600021319,41.23478700030011],[-122.26999500003497,41.2348020001314],[-122.26935999982526,41.23480500023235],[-122.269257999718,41.23481499966712],[-122.26899999997515,41.23481300005049],[-122.2687149995698,41.23480900014151],[-122.26833299997837,41.234819000251235],[-122.26723199961334,41.234823999967766],[-122.26597600033591,41.23483499988315],[-122.26596899976488,41.23556099966478],[-122.2655679999069,41.235571000335],[-122.26527300035413,41.23557999985601],[-122.26403700026985,41.23558800025484],[-122.26016900018351,41.235639999783565],[-122.25576999964451,41.23569899986133],[-122.25582099969814,41.23655399984223],[-122.25595299994262,41.23933899994549],[-122.25601300021711,41.24053299973],[-122.25607699979119,41.24179900015211],[-122.2561060001035,41.24235900011637],[-122.25624500002067,41.24515000000122],[-122.25626699976199,41.24557499990213],[-122.25629400042449,41.24611699974013],[-122.25632100018865,41.24649800020901],[-122.25632299983849,41.246694999885044],[-122.25614399973836,41.24858399999484],[-122.25609600005777,41.24911599991623],[-122.25596499963818,41.25047300019791],[-122.25658700032744,41.25046099996851],[-122.25735200023352,41.250446999923284],[-122.25789200000867,41.25044500010956],[-122.25986500040989,41.25190000004944],[-122.26168599957686,41.25321500021293],[-122.26224600034182,41.253622999705186],[-122.26309800028652,41.25424800030386],[-122.26394900040631,41.25486699993981],[-122.26456500034946,41.255318999983515],[-122.26456600017438,41.25674800030244],[-122.26456699999927,41.257927000136085],[-122.26594200000072,41.25792100003102],[-122.2659339996048,41.261850000026506],[-122.26614299984219,41.26185200016637],[-122.2679890000218,41.261873999675],[-122.26893999970068,41.26186599979317],[-122.26908299981582,41.26889300006319],[-122.2690800003411,41.269083000010035],[-122.27371099978537,41.26911100021132],[-122.27433699977426,41.269114000087455],[-122.27621700028908,41.26912099979801],[-122.27621999976381,41.269012000169226],[-122.27619299999962,41.26815200032148],[-122.27616500041051,41.268130000227025],[-122.27592699986084,41.267936000300836],[-122.27576000035457,41.267793000094144],[-122.27565999989717,41.267698999981235],[-122.27548499999497,41.2674849997797],[-122.27536299979623,41.26731500031239],[-122.27522100040431,41.26710300018179],[-122.27518100022134,41.26703900014722],[-122.27510099985541,41.26689600000155],[-122.27437600013234,41.26551700027448],[-122.27411800038945,41.26504500016279],[-122.2737280004021,41.264311000192286],[-122.27356900039346,41.26404299977521],[-122.27313500002519,41.263241000124864],[-122.2726560003494,41.2624080002082],[-122.27230599964672,41.261711000285075],[-122.27196300041335,41.26106000008957],[-122.27156400020519,41.26028299992213],[-122.27142399956477,41.260020999769246],[-122.27135400014288,41.259898999859985],[-122.27114699955534,41.25958600027934],[-122.27096599980538,41.25935000014944],[-122.2708429997817,41.259215000255445],[-122.27076699961373,41.25913699970928],[-122.27017900015798,41.25806699995538],[-122.26995499985202,41.25763799973842],[-122.26968000039071,41.2571599999054],[-122.26956800023773,41.257250999911484],[-122.26836800013848,41.2565390000857],[-122.26720999987202,41.25585199992494],[-122.26587699970338,41.255057000177835],[-122.26587800042661,41.25513900020936],[-122.26435699993701,41.25425000000117],[-122.2637650002833,41.25388899995182],[-122.26192599977635,41.25278400012854],[-122.26011099955888,41.251656000057224],[-122.2599699999919,41.251555000112056],[-122.25982900042492,41.251461999817124],[-122.25973900001321,41.251399999772154],[-122.25956400011103,41.2512730001607],[-122.2594779998973,41.251207999913056],[-122.25939400023172,41.25114099980837],[-122.2592310000251,41.251005000271505],[-122.25907399966627,41.250865000174514],[-122.25877999993838,41.25057300022241],[-122.25864400039427,41.250421000313715],[-122.2585139997996,41.250265999984926],[-122.25816499982015,41.24987699987565],[-122.25785600002366,41.24913899992688],[-122.25762300039514,41.24841099980307],[-122.2575410003794,41.24699800017831],[-122.25760300030367,41.246837999685866],[-122.25766699987778,41.24667100006256],[-122.25772200012936,41.246529999829924],[-122.25761099980127,41.24650000014354],[-122.25807500030677,41.24562000006355],[-122.25855300015766,41.24471599974962],[-122.25904400042735,41.2437849998685],[-122.25928200007874,41.24333299972693],[-122.26035599978127,41.24129999996335],[-122.26016499998556,41.24129900025423],[-122.2602529998491,41.24114399990093],[-122.26033900006281,41.24101600022977],[-122.26046700010934,41.240827999793886],[-122.2606040003767,41.24064500011486],[-122.26074900014166,41.2404640000427],[-122.26082500030964,41.24037600014002],[-122.26158600001774,41.239783000131865],[-122.26182799986708,41.239596999672365],[-122.26192699960127,41.2395080002168],[-122.26202500040888,41.239405000255324],[-122.26224899981656,41.23924099977187],[-122.26210400005161,41.23924099977187],[-122.26105700011321,41.23925699967237],[-122.26117500011401,41.23916100021046],[-122.26127999969599,41.23907899971402],[-122.2614970003293,41.23891699993019],[-122.26172199956186,41.23876200000707],[-122.26195300043885,41.238611999818744],[-122.26219100009024,41.23846900025531],[-122.26231300028898,41.23839999973999],[-122.26314299959405,41.238649000023266],[-122.26359200003093,41.23835899970276],[-122.26440399979266,41.23784699998809],[-122.26444800017359,41.23782000033117],[-122.26463700031947,41.237704999866104],[-122.26467699960413,41.237681000119466],[-122.26433500019569,41.23733399987061],[-122.26502499975868,41.23697499980207],[-122.26596100026728,41.23647699971835],[-122.26596000044236,41.2365419997587],[-122.26595700006933,41.236904000183486],[-122.26595600024443,41.23703900024851],[-122.26595399969631,41.23708599975539],[-122.26595399969631,41.237257999760935],[-122.26595200004645,41.237395999752366],[-122.26595200004645,41.237415999854264],[-122.26595000039664,41.237655000158846],[-122.26594899967341,41.23781299996798],[-122.26594899967341,41.23801300011066],[-122.2659410001758,41.238442999932616],[-122.26594200000072,41.23848600009696],[-122.26615000041319,41.23848699984911],[-122.26672699999826,41.23847500012046],[-122.26774700017246,41.23846199996163],[-122.26815600042636,41.23845600009523],[-122.26843699973546,41.238453000161854],[-122.26899800032531,41.23844399968543],[-122.26911299995307,41.23844399968543],[-122.26927699998457,41.23843999999865],[-122.26981199973687,41.238437000064536],[-122.27034400001443,41.238428000261365],[-122.27070899988742,41.238423000145026],[-122.27265299997634,41.23839699980404],[-122.27401200008426,41.23837900018546],[-122.27492599995323,41.23836699976146],[-122.27510800042641,41.238363999823996],[-122.27537399966688,41.2383609998864],[-122.27547099975126,41.23835899970276],[-122.27546900010144,41.23808399987565],[-122.27546400007857,41.237778999930114],[-122.2754599998806,41.23720000018666],[-122.27545499985773,41.23684100005773],[-122.27545400003284,41.23677199985032],[-122.27545400003284,41.236704999804374],[-122.275444999812,41.23623900029714],[-122.27543999978913,41.2358229999657],[-122.27542899991846,41.23494799970532],[-122.27542700026862,41.23476099986388],[-122.2754249997205,41.23468400032998],[-122.27544099961405,41.23468299984415],[-122.27569900025523,41.23468299984415],[-122.27587300033247,41.23467999973761],[-122.27603599964077,41.23467999973761],[-122.27715999957204,41.23468500014028],[-122.27730100003737,41.23468500014028],[-122.27741800021322,41.23468500014028],[-122.27790000026206,41.2346880002466],[-122.2792970000048,41.23469299997315],[-122.28134400002587,41.234696999889174],[-122.2823519996062,41.23470399991057],[-122.28490499996555,41.234707999825964],[-122.28504800008069,41.234709000311405]]]},"properties":{"OBJECTID":15541,"NAME":"Dunsmuir city","BASENAME":"Dunsmuir","GEOID":"0620242","PLACE":"20242","STATE":"06","FUNCSTAT":"A"}},{"type":"Feature","id":16728,"geometry":{"type":"Polygon","coordinates":[[[-122.55218400014759,41.73211800010196],[-122.55222000013262,41.72996499996778],[-122.55144400035591,41.72996499996778],[-122.5502540003024,41.7299600000955],[-122.5502540003024,41.72946099975916],[-122.5502540003024,41.7283300002182],[-122.55032799992225,41.7274920000987],[-122.54727300032084,41.72744399999765],[-122.54612699974997,41.72742199982765],[-122.54620499956776,41.72570899981459],[-122.54500899966649,41.725754999925236],[-122.54426100037718,41.72578400013836],[-122.54423799991262,41.725745999833315],[-122.54371900005387,41.72491499976908],[-122.54149899978042,41.724948999953526],[-122.54192899995074,41.726344999998005],[-122.54193700034666,41.72646099970679],[-122.54181799962265,41.726469000072015],[-122.54051700013937,41.72639199995145],[-122.53851500032415,41.726479999985905],[-122.53681599955932,41.726542000257744],[-122.53487499984344,41.726619000198475],[-122.53488400006428,41.72477100028701],[-122.53488499988917,41.7245999997286],[-122.53492500007218,41.723103999989554],[-122.53504399989785,41.71912499982344],[-122.53511900024093,41.71664100020014],[-122.53148200013324,41.716575999750226],[-122.52211099966814,41.71640999976776],[-122.5214679999608,41.71639900014157],[-122.51961299956035,41.71633100009416],[-122.51956800025282,41.71706499984033],[-122.51956400005487,41.71999699990204],[-122.51571799970984,41.71995700007126],[-122.51564699956472,41.721875999702284],[-122.51558200016572,41.72389000027448],[-122.51555100020359,41.72484100009416],[-122.51550900037078,41.72590600001314],[-122.51544800027142,41.72751699974603],[-122.51542900000484,41.72843000012647],[-122.51540700026352,41.72894600012905],[-122.51539999969252,41.72938800020851],[-122.51548900027929,41.72982500004576],[-122.51556299989913,41.73018499999498],[-122.51556200007421,41.730440999699816],[-122.51550799964755,41.73049500030859],[-122.51544800027142,41.73053599984663],[-122.51541099956317,41.730546000171486],[-122.51532400042284,41.73054900020158],[-122.51523300018624,41.73053800031396],[-122.5151660002391,41.73050800000143],[-122.5151179996602,41.73047599987609],[-122.5149190003669,41.73027399976447],[-122.51486499994022,41.73023199982081],[-122.5147739997036,41.730170999997384],[-122.51459100030382,41.73005899990701],[-122.51452799965632,41.73002499974518],[-122.51436100015005,41.72993199999924],[-122.514173999654,41.72983700030002],[-122.51395799974391,41.72973999996816],[-122.51386900005548,41.7297050000613],[-122.51382700022269,41.72929399995784],[-122.51381100032917,41.72920800026415],[-122.51382300002471,41.728861000229266],[-122.51325999978502,41.72887100014444],[-122.51302299995858,41.72927100016794],[-122.51275099997198,41.7293619996965],[-122.51265499971251,41.72940700029239],[-122.51228599964158,41.729012999978686],[-122.5120820003254,41.72872299976599],[-122.51190900007305,41.72861399995322],[-122.51152199956041,41.72853600012747],[-122.51147899990274,41.72852699975469],[-122.51130999984832,41.72848800013606],[-122.51113199957308,41.72843399985141],[-122.51091999986099,41.72832599981639],[-122.51047399979713,41.72777100014344],[-122.51034900012368,41.72797999998393],[-122.5100339995811,41.72810600012704],[-122.50992399997625,41.728253999915665],[-122.509857999854,41.72847899975655],[-122.50982699989187,41.728702999888014],[-122.50982100004408,41.728743000308164],[-122.50966700005829,41.72889099997016],[-122.50948299993527,41.72899000008824],[-122.50929299996447,41.72912100019962],[-122.50919699970501,41.72926399973477],[-122.50915999989509,41.729444999772895],[-122.50918900020741,41.729845999818856],[-122.50927000039826,41.73009900015325],[-122.50919599988009,41.7302470000433],[-122.50916699956778,41.73068500030201],[-122.5094550003462,41.7303350001605],[-122.5097430002263,41.730074999740346],[-122.50990499970968,41.73030400018629],[-122.51047600034529,41.73130000020268],[-122.51199199991369,41.73131500017578],[-122.51199500028677,41.73165099999546],[-122.51549400030216,41.731823000100896],[-122.51548000005845,41.73342700029989],[-122.51548799955607,41.734548999731366],[-122.51930499958878,41.73459100020421],[-122.52085899969036,41.73461400010038],[-122.52128200018798,41.73462700030036],[-122.52146399976286,41.73464399983596],[-122.52152900006017,41.73465499969081],[-122.52189300010824,41.734754999808374],[-122.52196199970524,41.734777000148554],[-122.52205799996469,41.73479199998003],[-122.52209200029988,41.734794000314814],[-122.52217599996546,41.73479999997812],[-122.5222780000727,41.73480200031266],[-122.52244200010425,41.73480500014398],[-122.52290400006162,41.73479899981083],[-122.52460299992813,41.734818000305296],[-122.52462800004251,41.73471800028578],[-122.52464499976092,41.734674999726764],[-122.52591400035547,41.73469899976172],[-122.5265629999106,41.73470799994012],[-122.52974499973357,41.734754999808374],[-122.53572299959019,41.73484200028683],[-122.53574000020694,41.735062999862656],[-122.535731999811,41.73550600024112],[-122.54002199967177,41.73555200004023],[-122.5426169998639,41.7355799996978],[-122.54290200026928,41.73558300016314],[-122.54314999996639,41.73558499980293],[-122.54352900008307,41.73558899975274],[-122.54374300034333,41.73559799980638],[-122.54423600026283,41.73561700006454],[-122.54655000024758,41.735710000294276],[-122.55128600017215,41.73569100006368],[-122.55132700018004,41.73212599976271],[-122.55218400014759,41.73211800010196]]]},"properties":{"OBJECTID":16728,"NAME":"Montague city","BASENAME":"Montague","GEOID":"0648690","PLACE":"48690","STATE":"06","FUNCSTAT":"A"}},{"type":"Feature","id":22651,"geometry":{"type":"Polygon","coordinates":[[[-122.34780199985396,41.34855899991651],[-122.34745600024756,41.34827700030672],[-122.34712300016162,41.348011999796945],[-122.34698099987139,41.34790700020004],[-122.34677599983196,41.34780799969276],[-122.34668899979334,41.34775200006808],[-122.34637300032416,41.347523999990905],[-122.34596599972008,41.34724300005446],[-122.34535899999776,41.34685799975405],[-122.34491600030698,41.34660900010618],[-122.34451000042611,41.34640099983553],[-122.34286099988996,41.34558199994016],[-122.3425820002307,41.345432999820794],[-122.34246900025283,41.34537999991795],[-122.34241200035137,41.34534800019746],[-122.34234600022916,41.34530199985517],[-122.34232199993971,41.345276999728796],[-122.3422990003735,41.34523700018111],[-122.34224599977173,41.34508600033502],[-122.3421579999082,41.34487600030196],[-122.34193899962509,41.34438900007561],[-122.34171199984435,41.34394099978623],[-122.34117100024426,41.34296000003445],[-122.34074299972379,41.34219699975212],[-122.34047099973724,41.341695999690806],[-122.33994299965762,41.34077800023885],[-122.33989900017501,41.34068100010509],[-122.33983899990056,41.340504000336956],[-122.33925700029258,41.339636000161164],[-122.33890599976499,41.339122999840654],[-122.33847999979264,41.3385829997172],[-122.33843700013496,41.33852900006562],[-122.33781899964364,41.337802000222844],[-122.33760299973358,41.3375760002215],[-122.33718900035511,41.337174999912506],[-122.33699199981329,41.33700400031319],[-122.33613700039386,41.336201000021084],[-122.33561799963681,41.33572000004507],[-122.33366400040045,41.33387700032127],[-122.33347500025457,41.3336899997924],[-122.33312399972696,41.3333440001145],[-122.33304099988628,41.33325300030141],[-122.33295899987053,41.33316399966451],[-122.33254499959374,41.33267100023991],[-122.3322829996529,41.33233200022065],[-122.33206599991794,41.33202900002367],[-122.33199700032097,41.33192400028778],[-122.33185300038092,41.33170499987006],[-122.33173899967979,41.331517000174735],[-122.33150600005129,41.33110600013536],[-122.33120399992751,41.33055399998097],[-122.33076600025959,41.32975499993917],[-122.3291700003252,41.32683999973776],[-122.32829900011396,41.3253120002277],[-122.32824499968727,41.3252149999985],[-122.32707999974812,41.323105000320496],[-122.32683500042405,41.32264900017321],[-122.32536599981297,41.3199779997325],[-122.32540599999592,41.31976000017248],[-122.32532800017816,41.31930799968971],[-122.32533499985084,41.31821900013997],[-122.32533599967574,41.31500100024791],[-122.3270930001669,41.31519499993181],[-122.32712900015193,41.314164999853226],[-122.32716799961166,41.310724000163084],[-122.32550200025541,41.310586999905084],[-122.32534700044471,41.310658999721966],[-122.32536900018603,41.31029499983258],[-122.32551200030117,41.309804000136054],[-122.32541799969151,41.30959299970491],[-122.32511599956773,41.309785999953235],[-122.32465899963321,41.3100630001922],[-122.32423900040698,41.310329999910245],[-122.3236359999843,41.310690000293356],[-122.32351100031082,41.31074800006045],[-122.32333499968541,41.31096500008086],[-122.32295599956875,41.311127999956916],[-122.32289799984243,41.31116600022961],[-122.32231299986141,41.31150900032136],[-122.32166000010834,41.311134999884516],[-122.32154100028266,41.311066999881305],[-122.32058300003274,41.310517000006904],[-122.32044499994049,41.31043900003179],[-122.31995899969367,41.31016000003175],[-122.31955700001076,41.30941999988129],[-122.3194259995912,41.309181999709224],[-122.31821999964417,41.30699900008929],[-122.31656299961044,41.30396999985237],[-122.31659299974766,41.30395099998363],[-122.3168129998557,41.30384600021843],[-122.31819299987998,41.30318500002512],[-122.31659899959544,41.3016769999707],[-122.31638000021064,41.3014700001104],[-122.31617799964596,41.30126899976397],[-122.31601699998748,41.30112599970108],[-122.31606499966806,41.3010699997609],[-122.3161030002012,41.301041999772806],[-122.3162439997682,41.3009710002793],[-122.31676600000002,41.30070900010114],[-122.31715599998738,41.300531000239964],[-122.31727399998813,41.30048100003231],[-122.31484600020055,41.29866899995272],[-122.31414400004368,41.29897799974565],[-122.31387500043017,41.29909600016704],[-122.31238499990269,41.299776999868854],[-122.31129500030661,41.30055300021122],[-122.31120499989491,41.30072400031748],[-122.31118399997855,41.300784999946956],[-122.31117399993279,41.30083200015359],[-122.31115999968907,41.30106800014777],[-122.31116499971196,41.30143399986224],[-122.31116300006215,41.302017999784745],[-122.31116300006215,41.30226599969522],[-122.31065199970098,41.30193900030912],[-122.31018999974361,41.3016530001086],[-122.30972799978626,41.30133699986321],[-122.30934500036994,41.30100099991312],[-122.30907099983521,41.30072599994115],[-122.30889500010812,41.30049100021192],[-122.30886099977293,41.30044300028079],[-122.30880700024456,41.30033899974651],[-122.30861899992362,41.300017000272156],[-122.30851500016654,41.29974600018257],[-122.30843300015077,41.299478000147],[-122.30838799994493,41.29923099992976],[-122.30837600024934,41.29898299995083],[-122.3083929999678,41.29862900013241],[-122.30844599967122,41.29823599986778],[-122.30869799956632,41.29760399982727],[-122.30890400032894,41.297241000149135],[-122.30935399969245,41.29658500021364],[-122.30963400007491,41.296102000276555],[-122.30976899979413,41.295831000117694],[-122.30985400018292,41.29563400017463],[-122.30994299987141,41.29544099988297],[-122.3102440001703,41.29479100015939],[-122.31043699961582,41.29438600013514],[-122.31070799977749,41.293811000314385],[-122.31084599986973,41.29356600007751],[-122.31081800028063,41.29351499967006],[-122.31072799986896,41.29333199978554],[-122.31052200000464,41.29297399994689],[-122.310246999645,41.29246400024904],[-122.30982400004571,41.29170799986458],[-122.30964199957253,41.29138300010018],[-122.30948199973895,41.29111599974686],[-122.30919800005682,41.29061099986999],[-122.30893699994091,41.29016200003802],[-122.30869000006871,41.28979700016007],[-122.30860800005297,41.28968299971496],[-122.30834000026434,41.28934600015339],[-122.30825200040078,41.289246999751114],[-122.30815899961604,41.289134999673955],[-122.30805400003408,41.28902100009705],[-122.30788199960662,41.28885100001461],[-122.3078449997967,41.28881700021495],[-122.3077030004048,41.288683999815994],[-122.30735699990008,41.28888000016723],[-122.30746599968002,41.28977699989507],[-122.30768300031332,41.29053099977141],[-122.3071819999979,41.29126800010723],[-122.30638299975665,41.2912520001215],[-122.30589700040814,41.29079700019252],[-122.30588800018732,41.29123899966618],[-122.30264899956458,41.29123200030256],[-122.301839000351,41.291211999802556],[-122.30011100017214,41.29117099983824],[-122.30012399969263,41.29707999971207],[-122.30012000039298,41.29794200011523],[-122.29878700022435,41.298090000009424],[-122.29504200016166,41.298169000098184],[-122.29449099961751,41.29814699999764],[-122.29603200019861,41.29958700018857],[-122.2962640000022,41.29981200019358],[-122.29634400036815,41.299890000059115],[-122.29661899982946,41.300191000231656],[-122.29815299983954,41.29997599976809],[-122.29934799991592,41.299974000121466],[-122.29990799978256,41.29997100031388],[-122.30005500009565,41.29997000015306],[-122.30112600032348,41.29996399986259],[-122.30202699977367,41.29997000015306],[-122.30236300023265,41.30009200009055],[-122.30239599984462,41.30045900003682],[-122.30248899973103,41.30114599986089],[-122.30262599999837,41.30216499975026],[-122.30259599986115,41.30242999984721],[-122.30187799981074,41.30239699982508],[-122.30111000042994,41.30238199999355],[-122.30302299965842,41.304217999762564],[-122.30304899959766,41.30877699997659],[-122.30305399962056,41.3096350002481],[-122.30313700035954,41.30963200021019],[-122.30625399988519,41.30950499982859],[-122.30623299996881,41.31021500025926],[-122.30622299992305,41.31033599992169],[-122.3041559998105,41.310979999962285],[-122.30325899965997,41.31112999993633],[-122.30328600032244,41.3116579997714],[-122.3020999995686,41.311566000051556],[-122.30205799973581,41.31156500006857],[-122.29830299962737,41.31156500006857],[-122.29833100011477,41.31083500028907],[-122.29833799978745,41.3107649999824],[-122.29710400025134,41.3107649999824],[-122.29694000021982,41.31076299999184],[-122.29692000012832,41.31105100002899],[-122.29649099978292,41.31192099979468],[-122.29634699984288,41.312213999979605],[-122.29742200026865,41.3122209997906],[-122.29790199976937,41.31223100019403],[-122.2979949996558,41.31223100019403],[-122.29798399978513,41.31288400007342],[-122.29801200027254,41.31356600013206],[-122.29815799986241,41.31979099978917],[-122.29792900043186,41.319795999747775],[-122.29747800034518,41.31980200023727],[-122.2965309999659,41.31979800013588],[-122.29648599976005,41.31979800013588],[-122.29561000042423,41.319805999663735],[-122.29502799991795,41.31978099987092],[-122.29458100002921,41.31976100002974],[-122.2938279998187,41.319742999897606],[-122.29339099997573,41.31974000032486],[-122.29302399955456,41.31972700015077],[-122.29298400026993,41.31971599969001],[-122.2929559997825,41.31969499997063],[-122.29295099975964,41.31967699982025],[-122.29295300030778,41.31949200008544],[-122.2872440000647,41.3195160001281],[-122.28723300019404,41.32056300004823],[-122.28715799985096,41.323647999968735],[-122.28711900039121,41.324320999955034],[-122.2871339995615,41.32471499996903],[-122.28725099973738,41.32782900000967],[-122.28873200004402,41.32780399992173],[-122.29872199992701,41.327638999775296],[-122.29893500036236,41.32758900011856],[-122.29907500010442,41.32755699975149],[-122.30093299997962,41.327317999949024],[-122.30365100019544,41.32722699981351],[-122.30527899991685,41.32717300019194],[-122.30622100027327,41.3271050000552],[-122.3061760000674,41.326469000181135],[-122.30615799962574,41.32605599980647],[-122.3061400000824,41.32462899983364],[-122.30613599988445,41.323425999988444],[-122.30625399988519,41.323425999988444],[-122.3076260004119,41.32342900006612],[-122.3104149998745,41.32344200017639],[-122.31156599956996,41.323449000130914],[-122.31275999982142,41.32345600008464],[-122.31343100001617,41.3234669999141],[-122.31503600017136,41.32347699994141],[-122.31547300001434,41.32347200026527],[-122.31552800026594,41.32347900021653],[-122.31557799959634,41.323490000042106],[-122.31561399958134,41.32350499973988],[-122.31563700004587,41.32351900030925],[-122.31562799982505,41.32317699980349],[-122.31602299983527,41.32313700017549],[-122.31875600011968,41.32314299968273],[-122.3201090003798,41.32315500004486],[-122.320276999711,41.32315500004486],[-122.3205870002307,41.323500000065884],[-122.32058600040578,41.32368799995771],[-122.32058100038292,41.32412800023972],[-122.32057899983478,41.32472100000566],[-122.32057899983478,41.3267030002966],[-122.31930199974263,41.326741000259105],[-122.31930199974263,41.327338000169334],[-122.31930099991771,41.328170999709876],[-122.32064599978192,41.32818200009253],[-122.32064099975905,41.33410500029027],[-122.32561900043126,41.33414499993039],[-122.3256009999896,41.339098000039925],[-122.32559000011896,41.34896999975036],[-122.32574999995254,41.348971999917126],[-122.32628300005499,41.34896700017442],[-122.32709900001471,41.348959000180756],[-122.32816699986944,41.34893199994182],[-122.3286849999033,41.34893500019374],[-122.32869499994906,41.34893999993886],[-122.3354970001613,41.34884999974709],[-122.34174100015667,41.3487729998814],[-122.34481099982668,41.34871300006302],[-122.34780199985396,41.34855899991651]]]},"properties":{"OBJECTID":22651,"NAME":"Mount Shasta city","BASENAME":"Mount Shasta","GEOID":"0649852","PLACE":"49852","STATE":"06","FUNCSTAT":"A"}},{"type":"Feature","id":24958,"geometry":{"type":"Polygon","coordinates":[[[-122.4013109995588,41.40769300029484],[-122.40127799994683,41.40682099995681],[-122.40126200005332,41.40527899988984],[-122.40121600002253,41.400771999987036],[-122.40059500005651,41.40075400001091],[-122.3978190001144,41.40074199979945],[-122.39079699979415,41.400752000088104],[-122.38938499998281,41.40075100012669],[-122.38928899972332,41.40075100012669],[-122.38923900039295,41.40075100012669],[-122.3892369998448,41.40027699983807],[-122.38930899981483,41.40012599966972],[-122.38934099960188,41.39985900011538],[-122.38933700030222,41.399418000145296],[-122.38933700030222,41.39917200008112],[-122.38937999995991,41.398648000061606],[-122.38943199983846,41.39816699992549],[-122.38945600012791,41.39795700001196],[-122.38949200011292,41.39782899999496],[-122.38961099993861,41.39783100000766],[-122.39047200010414,41.397886999665346],[-122.39334299958252,41.398055999699544],[-122.39334599995557,41.39709299989074],[-122.39337799974263,41.39513200027849],[-122.39335699982622,41.39392399995456],[-122.39336100002417,41.39285500031054],[-122.39338500031363,41.392211000335934],[-122.39035300027845,41.39226499993419],[-122.38908100020917,41.392281000056165],[-122.3833789996388,41.39363500032151],[-122.38327700042986,41.39361999993004],[-122.3831970000639,41.39361999993004],[-122.38320499956151,41.39440299969971],[-122.38243999965546,41.39439599995957],[-122.37903400042478,41.39474199997915],[-122.37885299977651,41.39465700006127],[-122.37853899995714,41.39449400029618],[-122.37841500010859,41.394418999969304],[-122.37817800028212,41.39425600028135],[-122.3778669999375,41.3940139998088],[-122.37773100039337,41.393888000247536],[-122.37744599998801,41.393601999994864],[-122.37705199980272,41.393120000176005],[-122.37687900044868,41.39286699995649],[-122.37657899997471,41.39238000030208],[-122.37645299957802,41.392187000125645],[-122.37665599996758,41.392600000233806],[-122.37678700038717,41.39285500031054],[-122.37691100023571,41.393069000179025],[-122.37722599988,41.39354600001486],[-122.37737099964495,41.39373599999188],[-122.37750600026246,41.39389600010928],[-122.37784000017334,41.394246999728516],[-122.37807000032711,41.394480000160854],[-122.37822400031288,41.39462200014203],[-122.37834700033652,41.394724999734926],[-122.37806899960387,41.394656000006066],[-122.3776779997916,41.39493099977883],[-122.37731700011658,41.39498399976309],[-122.37705299962764,41.39473600032951],[-122.37681699962607,41.39449100012305],[-122.37648400043847,41.39407699983478],[-122.37617700029182,41.39366100013825],[-122.37590399958201,41.39320400000453],[-122.37579800017511,41.39300000004017],[-122.3756080002043,41.39267900030641],[-122.37551799979263,41.39249900014624],[-122.37545900024139,41.39236699980189],[-122.37537499967749,41.39215900020612],[-122.37533000036996,41.39201199975666],[-122.3752059996231,41.39168499993036],[-122.37507299955371,41.39127400028887],[-122.37500499978165,41.3910159997423],[-122.37495100025328,41.39077199978261],[-122.37491199989522,41.39056000000222],[-122.37488000010819,41.39034700008289],[-122.37485499999383,41.38972900024011],[-122.37486400021464,41.389381999685476],[-122.37485800036687,41.38875000008336],[-122.37486099984162,41.38841000008055],[-122.37480800013816,41.387463000204534],[-122.3748049997651,41.386755000236484],[-122.37478800004669,41.3859999998984],[-122.37475700008456,41.3853239998037],[-122.37475399971147,41.38504100022754],[-122.3747639997572,41.384655999745746],[-122.37473600016813,41.383612999818574],[-122.37473899964287,41.38331599969228],[-122.37474799986369,41.3830399997546],[-122.37475799990945,41.38282799970054],[-122.37368800040484,41.38307300005057],[-122.37314199988359,41.38320199969885],[-122.3728320002622,41.38342599992217],[-122.37218299980876,41.38385900012834],[-122.36966100030983,41.385307999991525],[-122.36904500036671,41.38562199971464],[-122.36771100037315,41.38630200014209],[-122.3649630000201,41.387860000137195],[-122.36473500041448,41.38798199996743],[-122.36367900025527,41.388742000262305],[-122.36360200026238,41.388821999776496],[-122.36336899973557,41.38903100008166],[-122.36261899989812,41.3897149997525],[-122.36222700026096,41.39026000023787],[-122.36189699964977,41.390786000042645],[-122.36006200023908,41.39453299983895],[-122.35973300035114,41.395213000062746],[-122.35904000041509,41.39663899970073],[-122.35844899968797,41.39786000018542],[-122.3573570004421,41.400242000249754],[-122.35428000020106,41.40695899978842],[-122.3545150003777,41.40695299991901],[-122.36263399996675,41.40703600019686],[-122.36277200005897,41.40703799992627],[-122.3706000002932,41.40714299978173],[-122.37302899990569,41.40717599997076],[-122.37298299987492,41.40644499998291],[-122.37294900043806,41.40593899988085],[-122.37320700018091,41.40430000012205],[-122.37495799992598,41.40441500008435],[-122.37597800010016,41.40486600016368],[-122.37633499957722,41.404913999971356],[-122.37673799998336,41.405457999805726],[-122.37763199976087,41.40524799986936],[-122.3773189997664,41.406744999836455],[-122.37727299973565,41.406866000065904],[-122.37720400013868,41.407146000044605],[-122.37717900002433,41.40738999985067],[-122.37719699956767,41.4077799997143],[-122.37728600015444,41.40817700020994],[-122.3774300000945,41.40846000013103],[-122.37765400040047,41.40883199987585],[-122.37790399974745,41.4093000000937],[-122.37757400003453,41.409543000069135],[-122.3775239998058,41.41073999988241],[-122.37706400039662,41.41964799978768],[-122.3770169996426,41.42032900025779],[-122.3770149999928,41.42053499997247],[-122.37712899979559,41.42369000030568],[-122.37721300035952,41.42568699988411],[-122.37273699982764,41.425646999926975],[-122.37270599986549,41.4266470002186],[-122.37264899996408,41.42664199970989],[-122.3725729997961,41.42803599986899],[-122.37250699967386,41.42807899967102],[-122.37150699959116,41.428709000319294],[-122.37148200037512,41.42872500022409],[-122.37131099977259,41.42887400020054],[-122.37180600024021,41.42906600033046],[-122.37215100002173,41.42919899974026],[-122.37295100008787,41.42966899975109],[-122.3729240003237,41.43014299978386],[-122.37287300027008,41.43105999974389],[-122.37286499987415,41.43117299982012],[-122.37375100015403,41.43117100016024],[-122.3738049996824,41.43117100016024],[-122.37381200025341,41.43144500013878],[-122.37382200029914,41.4318569997782],[-122.37398299995763,41.431863000041346],[-122.37503400009396,41.43190300020993],[-122.3750859999725,41.431904999847305],[-122.37606400031389,41.43325800003341],[-122.37615499965219,41.43340199972039],[-122.37625000008674,41.433579000006425],[-122.37652600027126,41.43384199989018],[-122.376564999731,41.43382400032133],[-122.37698300020574,41.43366099980798],[-122.37742800044467,41.433493000251154],[-122.37782500010469,41.433341999833516],[-122.37801599990043,41.4332730000297],[-122.37812200020561,41.43322800003034],[-122.37820199967328,41.433181999864026],[-122.37826500032078,41.43313199979268],[-122.37830799997847,41.433065000040784],[-122.37843000017722,41.43268700015511],[-122.37848299988066,41.43255499995442],[-122.37863699986644,41.432241000010684],[-122.37867100020162,41.43219099988809],[-122.37873300012589,41.43214500033391],[-122.37889999963214,41.43205200030118],[-122.37905000031832,41.43196800017877],[-122.37914700040268,41.43191799984585],[-122.37938199968102,41.43177800019057],[-122.37939599992471,41.4317690001206],[-122.3798720001258,41.43183800017599],[-122.38117799963192,41.43176799996307],[-122.38145100034173,41.4316829999879],[-122.38243700018072,41.43139600023984],[-122.38303700023035,41.431120999886936],[-122.38348300029419,41.43060000010941],[-122.38365700037144,41.43014100009225],[-122.3836959998312,41.42974099991081],[-122.38785599999558,41.429750000261876],[-122.38800099976055,41.4308629999393],[-122.38724300042549,41.43196199992533],[-122.38672700004145,41.432465999749276],[-122.38539100039809,41.433381999764265],[-122.38402600044239,41.43514500024418],[-122.38313900033758,41.43571100024157],[-122.38284100041174,41.43590200026083],[-122.38246300011998,41.43591600022604],[-122.38099400040721,41.43597300014935],[-122.38016599985366,41.4358370001904],[-122.37946799989474,41.43566499981441],[-122.37881099994371,41.4356190000282],[-122.37849700012436,41.43561300011223],[-122.3781690000613,41.43562900033586],[-122.37791600034129,41.4356589999027],[-122.37757400003453,41.43572400015139],[-122.3771849998721,41.43584599969635],[-122.37664699974677,41.43603399971655],[-122.3738470004135,41.43702300013338],[-122.37367900018403,41.43707199982554],[-122.37296100013363,41.43731999996785],[-122.37268800032217,41.43742199982194],[-122.37235600006112,41.4375340002034],[-122.37166700032304,41.437777000276206],[-122.37166800014793,41.44015600004923],[-122.37166800014793,41.440305000051794],[-122.3716659995998,41.44064899999849],[-122.37166499977491,41.441391000330874],[-122.37201600030251,41.442657999684435],[-122.37206599963291,41.44348100015257],[-122.37200000040899,41.44371199982585],[-122.37289199963834,41.44367500012298],[-122.37341100039542,41.443654999965396],[-122.38595399973947,41.44341700024333],[-122.39060199980047,41.443362000081535],[-122.39088999968057,41.44335900014482],[-122.39089600042668,41.443202999878096],[-122.39088600038095,41.44043699998068],[-122.39088100035805,41.43921400024135],[-122.39087999963483,41.438710000284146],[-122.3908760003352,41.43740700011097],[-122.39086200009149,41.43318900014032],[-122.39086200009149,41.43314199981004],[-122.39086100026657,41.43282299997907],[-122.39088100035805,41.43224700023835],[-122.39089399987854,41.432103000009704],[-122.39093200041168,41.43187600004835],[-122.39097699971921,41.43174300006119],[-122.39100299965847,41.431676000222666],[-122.39110700031388,41.43171199987307],[-122.39123199998733,41.43172099995093],[-122.39142899963082,41.43170799991294],[-122.39163799986821,41.431714000189864],[-122.39180100007482,41.431736000302436],[-122.39185700015132,41.4317329998283],[-122.39188599956533,41.43173699978694],[-122.39193699961893,41.43174099974534],[-122.39197299960394,41.43174000026089],[-122.39223299989496,41.43178300030371],[-122.39250099968356,41.43182600031808],[-122.39270999992091,41.43184399976743],[-122.39290599973951,41.4318730002542],[-122.39306700029631,41.43193199999688],[-122.393222000107,41.432069999687855],[-122.39333799955965,41.43225799986854],[-122.39343700019215,41.432433999759205],[-122.39344899988774,41.432465000276],[-122.39369499993501,41.432907999808556],[-122.39396500027176,41.43260200003624],[-122.39430099983242,41.432383999785216],[-122.39461700019991,41.43229200024431],[-122.39478999955396,41.432238999710194],[-122.39572799971239,41.432193000190075],[-122.39707599994962,41.4321130001856],[-122.39870200002122,41.432118000272936],[-122.39935099957634,41.43218500032873],[-122.39954599957002,41.432216999768094],[-122.40068600029312,41.432632999799296],[-122.40093399999024,41.4327939999167],[-122.40108799997603,41.43291000008844],[-122.4010860003262,41.432212999839024],[-122.401084999603,41.43128199971323],[-122.40108399977808,41.43102399973193],[-122.40108299995316,41.430728000223745],[-122.40108100030334,41.42880400015929],[-122.40107899975521,41.42863900010015],[-122.4010779999303,41.42856199970454],[-122.40096999997526,41.42437999990033],[-122.40090200020319,41.42174600032172],[-122.3985370001648,41.42176199992156],[-122.39654000037243,41.421724000191965],[-122.3964600000065,41.41481799993343],[-122.39789500028238,41.414798000315706],[-122.39788100003868,41.41372400027897],[-122.39787600001581,41.412762000002424],[-122.3978619997721,41.40884099975635],[-122.39785000007653,41.40829799979379],[-122.39935300012448,41.4083170002202],[-122.40094300021107,41.408284999782495],[-122.40125799985533,41.408305999903085],[-122.4013109995588,41.40769300029484]]]},"properties":{"OBJECTID":24958,"NAME":"Weed city","BASENAME":"Weed","GEOID":"0683850","PLACE":"83850","STATE":"06","FUNCSTAT":"A"}},{"type":"Feature","id":28164,"geometry":{"type":"Polygon","coordinates":[[[-122.67054499970038,41.7431920001454],[-122.67057099963968,41.735750999855455],[-122.66563200022381,41.73581299989422],[-122.6656799999044,41.73767099979483],[-122.66097900013992,41.73770899974928],[-122.65927600007544,41.73778199989849],[-122.65821900009132,41.73735099999245],[-122.65713899964267,41.736952000142026],[-122.65706099982488,41.736676000166035],[-122.65637200008678,41.73659000030028],[-122.6563519999953,41.73600899979617],[-122.65627300035258,41.73368800007436],[-122.65668699973106,41.733209999885425],[-122.65624300021537,41.732977999827014],[-122.65632299968298,41.73246200003296],[-122.65789500022622,41.733350999994066],[-122.65833999956683,41.73304299977472],[-122.65840499986416,41.73290699997398],[-122.65833500044228,41.73268200022335],[-122.65821599971828,41.73229699973079],[-122.65708299956619,41.73211500014514],[-122.65704599975625,41.732026999784814],[-122.65701700034226,41.731829000041714],[-122.65694700002207,41.73171499972988],[-122.65727900028307,41.731352000317834],[-122.6561600003747,41.73093099976214],[-122.65611500016884,41.72847899975655],[-122.65682499982333,41.72843599971377],[-122.66579500043046,41.72818000006398],[-122.66556299972855,41.72461000030707],[-122.6608910002764,41.72472399981816],[-122.66052100038053,41.71938100001542],[-122.66045899955793,41.71862299990191],[-122.66037300024254,41.71746600004339],[-122.65908799975448,41.71747499995405],[-122.65638600033049,41.717512000020434],[-122.65557500039367,41.7175209999246],[-122.65559499958685,41.7165100001236],[-122.6556399997927,41.71414999972011],[-122.65564200034082,41.71403700004576],[-122.6556540000364,41.71353000013573],[-122.65730100002439,41.713545000234134],[-122.65862099977423,41.71409200017911],[-122.65867900039886,41.71434399970059],[-122.66001400021733,41.714399000241826],[-122.66052899987812,41.715119999802184],[-122.66118699965408,41.71519099986647],[-122.66134499983782,41.71490299991291],[-122.66205100019266,41.71362099982945],[-122.66266399976276,41.712579999737464],[-122.65573699987706,41.71075600003828],[-122.65514600004829,41.70877600030442],[-122.65581100039523,41.70847700013365],[-122.65966799971261,41.70705099968781],[-122.6599919995777,41.70428500011541],[-122.65978400006357,41.701792999672776],[-122.65882699963855,41.69785699990536],[-122.65306200021729,41.69826400026361],[-122.6528749997212,41.69826999998431],[-122.6528029997512,41.697659000177524],[-122.65249899997757,41.697270000129315],[-122.65208399987588,41.69644800027722],[-122.6518379998286,41.695739999924584],[-122.65129100038074,41.6957969998208],[-122.65157000004,41.69472200015491],[-122.6519509998065,41.69424999996964],[-122.65218500015823,41.69407500019037],[-122.65233300029624,41.69437900021502],[-122.652956999737,41.693939999882],[-122.65452599990716,41.69321499966471],[-122.65553199983766,41.69311200019956],[-122.65578100025799,41.693039000276926],[-122.65572099998354,41.69118800024764],[-122.65572000015862,41.69111999969429],[-122.65330900008946,41.691483000306405],[-122.65241399958877,41.69163499991544],[-122.65113300019699,41.69143900015837],[-122.6510439996102,41.69120600004665],[-122.6510019997774,41.68891400010789],[-122.65103799976244,41.68831199994061],[-122.65103799976244,41.684918999787435],[-122.65103500028769,41.68487299996985],[-122.6510150001962,41.68440999981433],[-122.64987700002125,41.684454000073806],[-122.64906000023663,41.68448600030462],[-122.64531799964868,41.684633000300806],[-122.64375500022459,41.6846610000064],[-122.64364899991936,41.68466600004841],[-122.64274799957086,41.684710999737945],[-122.64264700018686,41.68471599977606],[-122.64192499993848,41.68472000020878],[-122.64171599970112,41.68472099981379],[-122.64175400023426,41.68481300030425],[-122.64181600015856,41.68496299969879],[-122.64182100018142,41.68505499984322],[-122.64184299992272,41.68527100024868],[-122.64165799997481,41.68742999974154],[-122.64159299967746,41.68754400012366],[-122.64139900040702,41.68783900012196],[-122.6385260003805,41.689033999784336],[-122.63777599964476,41.68903600020193],[-122.64225499965137,41.70039500011214],[-122.64196000009859,41.70038699985447],[-122.64158799965459,41.70037600016928],[-122.64003799975097,41.700403999730135],[-122.6398079995972,41.70040799985803],[-122.64046399972332,41.70216099976586],[-122.64018500006406,41.70218099985634],[-122.63864500020621,41.70226000015312],[-122.63697599957857,41.70313600029195],[-122.6369709995557,41.70337699999704],[-122.63715899987669,41.70442899989571],[-122.63621099967251,41.70417399981316],[-122.63402899993223,41.7046310001059],[-122.63316199991893,41.70500199993444],[-122.63266800017449,41.705002999894916],[-122.63243100034802,41.70387399972318],[-122.63227200033938,41.703206000190846],[-122.630231999991,41.703185999748435],[-122.63037699975595,41.704283000172055],[-122.63058199979537,41.70583200001863],[-122.62753100039193,41.70588499990171],[-122.62692700014436,41.705895000039234],[-122.62534600027861,41.70591800014845],[-122.62483499991744,41.705924999771845],[-122.62438300000584,41.70592700033474],[-122.62460599958858,41.70349100028588],[-122.62508799963744,41.70238799975717],[-122.6247119998938,41.701617000283505],[-122.6228470003459,41.700067000134126],[-122.62219100021979,41.69908699976246],[-122.62214199981598,41.69860400009785],[-122.62023700008514,41.69856399969772],[-122.61728899971556,41.69850199993389],[-122.61734700034019,41.699390000195834],[-122.61738199960196,41.699916999738],[-122.61740900026446,41.700326999902465],[-122.61370500020966,41.70030299977184],[-122.61361399997305,41.70030299977184],[-122.61355299987368,41.70030299977184],[-122.61257899973023,41.700297000240795],[-122.6126580002713,41.70228300022124],[-122.61364900013315,41.702269000180756],[-122.61744500024946,41.702217000003614],[-122.6178069997494,41.70603599973383],[-122.6170610001099,41.706059999736645],[-122.61676599965882,41.70605400007213],[-122.61674100044277,41.706351000231834],[-122.61634200023461,41.70637699999531],[-122.61588699994995,41.70639800005457],[-122.61588000027724,41.706340000225524],[-122.61452799984204,41.706421999922306],[-122.61454999958336,41.70696100001225],[-122.61567400041291,41.70696900012266],[-122.61574999968259,41.709796999906395],[-122.61557899997838,41.70982300028818],[-122.61558999984904,41.71011499972655],[-122.61510000030258,41.71019000014446],[-122.61511199999813,41.71089900020978],[-122.61569699997915,41.71079600023085],[-122.61572499956823,41.711606000116404],[-122.61572799994129,41.71175600006794],[-122.61518599961798,41.71203400018819],[-122.61658099971089,41.71204599974179],[-122.62147399999431,41.713177000252],[-122.6234730003348,41.71362000000301],[-122.62486500005465,41.713928999951754],[-122.62852700027669,41.71474100021015],[-122.62872100044544,41.714784000030335],[-122.62896099974664,41.714805000025635],[-122.62927999958887,41.71483300000868],[-122.63117000014941,41.715152000199765],[-122.63155799958862,41.71521700007815],[-122.63149099964146,41.71529000030681],[-122.63075099984977,41.71576699992537],[-122.63067499968177,41.716687000097124],[-122.63074800037504,41.71702200020514],[-122.62794800014346,41.71705500009931],[-122.62789200006696,41.72416299988435],[-122.62655600042359,41.72418899981861],[-122.62613700012393,41.72419200014561],[-122.62285900004149,41.72402799972122],[-122.622662000398,41.72402100005765],[-122.62265200035223,41.72534799994556],[-122.62263599956039,41.72773799971836],[-122.61295899967187,41.72762100002486],[-122.61298499961111,41.729514999850906],[-122.61311699985559,41.7389600000705],[-122.61263900000472,41.73896999975415],[-122.61240300000314,41.73897099985649],[-122.61129800033846,41.738988999685006],[-122.61101799995599,41.73897500026569],[-122.60953699964935,41.73884099982795],[-122.60865700011556,41.73875799982675],[-122.60772499980492,41.738681999796206],[-122.60736999997768,41.738638999880216],[-122.60719400025059,41.73860799989173],[-122.60625899956686,41.738383000002585],[-122.60355200012003,41.73778599971143],[-122.60352000033298,41.73777900020622],[-122.60361900006718,41.73765300026724],[-122.60373500041814,41.73740899999118],[-122.60378399992365,41.73727300005029],[-122.60378399992365,41.73712400012952],[-122.6037310002202,41.73684300021549],[-122.60353200002855,41.736570000190305],[-122.60323099972966,41.736259999700025],[-122.60285699963585,41.735963000324325],[-122.60259600041825,41.73576899991612],[-122.60237700013515,41.73550799988331],[-122.60221599957835,41.73521499968465],[-122.60212900043805,41.73483499979035],[-122.60196200003347,41.7343220000203],[-122.60176399966674,41.733573999709996],[-122.60163800016836,41.73323600018072],[-122.6013810002504,41.732884000136934],[-122.60157200004609,41.73029000021467],[-122.60168699967383,41.72762100002486],[-122.59846399984298,41.72766099977788],[-122.5984389997286,41.728328999950165],[-122.59326000011325,41.72837300033193],[-122.5931229998459,41.72837399992885],[-122.59293700007306,41.7289599997232],[-122.59201300015835,41.728587999798336],[-122.59190000018044,41.728531999738436],[-122.59144300024596,41.728881000058045],[-122.59099700018211,41.72931799999211],[-122.59076600020343,41.729746000103546],[-122.59038200006385,41.73073799980475],[-122.59023300010095,41.73169600032868],[-122.59020299996371,41.73197500021613],[-122.58770200038119,41.73297199999352],[-122.58799299973602,41.73307699967992],[-122.58821200001914,41.73316399974972],[-122.58838199989844,41.73323200008442],[-122.5886249995727,41.73329200016221],[-122.58888599968861,41.73338700011484],[-122.59210299967171,41.73442400033226],[-122.593229999976,41.73516199985371],[-122.59288900039249,41.73529499976402],[-122.59250699990277,41.735549999729045],[-122.59240200032076,41.735820999765146],[-122.59235299991694,41.736135999755255],[-122.59238700025216,41.73639099973294],[-122.59260599963694,41.73672599967646],[-122.59297399988297,41.7369720001331],[-122.59299700034752,41.73830800031125],[-122.59301900008883,41.739272999886644],[-122.59302499993663,41.739513000078645],[-122.59311199997524,41.74211800012003],[-122.59310399957931,41.74249400030028],[-122.59305199970079,41.7436009997344],[-122.59297800008093,41.74518699993157],[-122.59292899967714,41.746244999738494],[-122.59687399975638,41.74588300000303],[-122.59704199998586,41.74600499990863],[-122.60147599978666,41.74595400025647],[-122.6019160000027,41.745985000049885],[-122.60345500003568,41.745993999987085],[-122.60343199957113,41.74603900032444],[-122.60324400014848,41.752081000285585],[-122.60323300027781,41.753694000017525],[-122.6032259997068,41.75528900014924],[-122.60322099968393,41.75573899994159],[-122.60321800020918,41.75633399984176],[-122.5973170003455,41.75942899997993],[-122.59631499971464,41.76021800001143],[-122.59100200020498,41.76227099970704],[-122.58948900011129,41.76285600004079],[-122.58670399994833,41.767032999843615],[-122.58625899970941,41.76771200007454],[-122.5863420004484,41.76776200020611],[-122.58639099995388,41.767799000117634],[-122.58645200005326,41.76784399990875],[-122.58665000041998,41.768024999747475],[-122.58675300035215,41.76807399998615],[-122.58693599975192,41.76810200020144],[-122.58723700005078,41.768117999936145],[-122.58784600032125,41.768574000077066],[-122.58817600003411,41.76881000005258],[-122.58801500037566,41.768979999843374],[-122.58825700022498,41.769072999987586],[-122.58855000012795,41.76920499970144],[-122.58875599999226,41.76918299976798],[-122.58893199971935,41.76923800025744],[-122.58904200022255,41.7692820000791],[-122.5891660000711,41.76932599987054],[-122.5893130003842,41.76937000030179],[-122.58948200043858,41.76943500025934],[-122.58963600042438,41.769511999690934],[-122.58981899982416,41.76958899970006],[-122.59040600035333,41.76995700013807],[-122.59065499987535,41.770094000140524],[-122.59080200018843,41.77018700000975],[-122.59152100006375,41.77068699971146],[-122.59165300030821,41.77077500001675],[-122.59190299965518,41.77090599997351],[-122.59232100012991,41.77108699988269],[-122.59252600016933,41.77120799985181],[-122.59260700036018,41.77127999983034],[-122.59271699996502,41.771411000095725],[-122.59276100034594,41.77149900007778],[-122.59284900020954,41.771735000012164],[-122.59294299992084,41.772074000133095],[-122.59297399988297,41.77215200000223],[-122.59310600012748,41.77242699996953],[-122.59306299957144,41.77289400030209],[-122.59307000014245,41.77304200003939],[-122.59342499996968,41.77297999977454],[-122.59339800020553,41.77270200009779],[-122.59333299990817,41.77204399979743],[-122.59331100016688,41.770576999830084],[-122.59334299995393,41.76971100010834],[-122.59467399957443,41.76972199998547],[-122.59600500009324,41.769695000100974],[-122.5968250002509,41.769677999795654],[-122.59835099986506,41.76964799967935],[-122.61353000030746,41.757459999698376],[-122.62270000003282,41.757498999817315],[-122.62380600042074,41.757509999777874],[-122.62580900006088,41.757122999728026],[-122.62596399987159,41.75695300001601],[-122.62597100044258,41.75663299980961],[-122.62621400011683,41.75644999966966],[-122.62664500011205,41.755951999931526],[-122.62727299975076,41.75493499998068],[-122.62888999960153,41.752176999817756],[-122.62956099979627,41.75070999997127],[-122.62961299967479,41.75059199997956],[-122.62990899995079,41.74983500011012],[-122.63155500011388,41.74510200007609],[-122.63183399977314,41.7451160001704],[-122.63196600001763,41.74512100020335],[-122.63263700021236,41.74514899971044],[-122.63614200007557,41.74779800013362],[-122.63584699962446,41.748101000163444],[-122.6368850002403,41.748707999904795],[-122.6393649999064,41.75015999966999],[-122.63958300036462,41.75031600032194],[-122.64037199966181,41.74964699967332],[-122.64023299974465,41.74953500003548],[-122.64073800025805,41.749493999891854],[-122.64124299987311,41.74949499983028],[-122.641904999847,41.74939299999834],[-122.64307399998411,41.74986200030945],[-122.64508400019527,41.74967100014476],[-122.64494899957772,41.74941699989453],[-122.64477500039877,41.74814900024265],[-122.64410500002896,41.743487000209186],[-122.64434000020557,41.74320299987677],[-122.6452719996179,41.74416200016415],[-122.64765400027306,41.74425900016435],[-122.64812499955293,41.743203999913185],[-122.65023299967338,41.74329899995031],[-122.6509370003784,41.74333799996014],[-122.6535149999538,41.74338500021546],[-122.65515799974384,41.74339299981339],[-122.65622099957574,41.743397999980516],[-122.6571189995512,41.7434159999087],[-122.6589000003318,41.74345599987995],[-122.66142400037886,41.74345799994488],[-122.66455799962294,41.74340899967659],[-122.66611000007472,41.743332999788336],[-122.66635399957387,41.74332100004467],[-122.66909600007912,41.743185999925565],[-122.67054499970038,41.74330800026403],[-122.67054499970038,41.7431920001454]]]},"properties":{"OBJECTID":28164,"NAME":"Yreka city","BASENAME":"Yreka","GEOID":"0686944","PLACE":"86944","STATE":"06","FUNCSTAT":"A"}}]}