{"type":"FeatureCollection","features":[{"type":"Feature","id":95309,"geometry":{"type":"Point","coordinates":[-123.378598058653,42.0191124081112]},"properties":{"OBJECTID":95309,"USGS_ID":"pt95309","Date_Min":"1996/11/01 00:00:00.000","Date_Max":"1996/12/31 00:00:00.000","Confidence":3,"LS_Type":" ","Inventory":"OR DOGAMI","Inv_URL":"https://www.oregon.gov/dogami/slido/Pages/data.aspx","Info_Sourc":"USDA-Siskiyou National Forest"}},{"type":"Feature","id":97141,"geometry":{"type":"Point","coordinates":[-123.229647939201,42.0169058333376]},"properties":{"OBJECTID":97141,"USGS_ID":"pt97141","Date_Min":"1996/01/01 00:00:00.000","Date_Max":"1997/12/31 00:00:00.000","Confidence":3,"LS_Type":" ","Inventory":"OR DOGAMI","Inv_URL":"https://www.oregon.gov/dogami/slido/Pages/data.aspx","Info_Sourc":"USDA-Rogue River National Forest"}},{"type":"Feature","id":97151,"geometry":{"type":"Point","coordinates":[-123.05049832194,42.0192602971251]},"properties":{"OBJECTID":97151,"USGS_ID":"pt97151","Date_Min":"1996/01/01 00:00:00.000","Date_Max":"1997/12/31 00:00:00.000","Confidence":3,"LS_Type":" ","Inventory":"OR DOGAMI","Inv_URL":"https://www.oregon.gov/dogami/slido/Pages/data.aspx","Info_Sourc":"USDA-Rogue River National Forest"}},{"type":"Feature","id":187044,"geometry":{"type":"Point","coordinates":[-123.447835744224,41.760415854708]},"properties":{"OBJECTID":187044,"USGS_ID":"pt187044","Date_Min":" ","Date_Max":" ","Confidence":3,"LS_Type":"debris flow","Inventory":"USGS Conterminous","Inv_URL":"https://pubs.usgs.gov/mf/1999/2329/","Info_Sourc":" "}},{"type":"Feature","id":187045,"geometry":{"type":"Point","coordinates":[-123.377956300643,41.7153628760959]},"properties":{"OBJECTID":187045,"USGS_ID":"pt187045","Date_Min":" ","Date_Max":" ","Confidence":3,"LS_Type":"debris flow","Inventory":"USGS Conterminous","Inv_URL":"https://pubs.usgs.gov/mf/1999/2329/","Info_Sourc":" "}},{"type":"Feature","id":187048,"geometry":{"type":"Point","coordinates":[-123.494016022122,41.3049275440709]},"properties":{"OBJECTID":187048,"USGS_ID":"pt187048","Date_Min":" ","Date_Max":" ","Confidence":3,"LS_Type":"debris flow","Inventory":"USGS Conterminous","Inv_URL":"https://pubs.usgs.gov/mf/1999/2329/","Info_Sourc":" "}},{"type":"Feature","id":187049,"geometry":{"type":"Point","coordinates":[-123.269404944283,41.2678092344087]},"properties":{"OBJECTID":187049,"USGS_ID":"pt187049","Date_Min":" ","Date_Max":" ","Confidence":3,"LS_Type":"debris flow","Inventory":"USGS Conterminous","Inv_URL":"https://pubs.usgs.gov/mf/1999/2329/","Info_Sourc":" "}},{"type":"Feature","id":187050,"geometry":{"type":"Point","coordinates":[-123.406345325576,41.1368392723146]},"properties":{"OBJECTID":187050,"USGS_ID":"pt187050","Date_Min":" ","Date_Max":" ","Confidence":3,"LS_Type":"debris flow","Inventory":"USGS Conterminous","Inv_URL":"https://pubs.usgs.gov/mf/1999/2329/","Info_Sourc":" "}},{"type":"Feature","id":187053,"geometry":{"type":"Point","coordinates":[-123.384056452443,41.4950002567565]},"properties":{"OBJECTID":187053,"USGS_ID":"pt187053","Date_Min":" ","Date_Max":" ","Confidence":3,"LS_Type":"debris flow","Inventory":"USGS Conterminous","Inv_URL":"https://pubs.usgs.gov/mf/1999/2329/","Info_Sourc":" "}},{"type":"Feature","id":189745,"geometry":{"type":"Point","coordinates":[-122.984203808959,41.6494495335692]},"properties":{"OBJECTID":189745,"USGS_ID":"pt189745","Date_Min":" ","Date_Max":" ","Confidence":3,"LS_Type":"debris flow","Inventory":"USGS Conterminous","Inv_URL":"https://pubs.usgs.gov/mf/1999/2329/","Info_Sourc":" "}},{"type":"Feature","id":191004,"geometry":{"type":"Point","coordinates":[-122.18260000009,41.3911999998802]},"properties":{"OBJECTID":191004,"USGS_ID":"pt191004","Date_Min":"2016/07/02 14:29:59.000","Date_Max":" ","Confidence":2,"LS_Type":"mudslide","Inventory":"NASA","Inv_URL":"https://maps.nccs.nasa.gov/arcgis/apps/MapAndAppGallery/index.html?appid=574f26408683485799d02e857e5d9521","Info_Sourc":"LA Times"}},{"type":"Feature","id":191420,"geometry":{"type":"Point","coordinates":[-122.19159999964,41.3935999999401]},"properties":{"OBJECTID":191420,"USGS_ID":"pt191420","Date_Min":"2015/08/26 03:00:00.000","Date_Max":" ","Confidence":2,"LS_Type":"debris_flow","Inventory":"NASA","Inv_URL":"https://maps.nccs.nasa.gov/arcgis/apps/MapAndAppGallery/index.html?appid=574f26408683485799d02e857e5d9521","Info_Sourc":"Record Searchlight"}},{"type":"Feature","id":191822,"geometry":{"type":"Point","coordinates":[-123.639699999955,40.9825999997902]},"properties":{"OBJECTID":191822,"USGS_ID":"pt191822","Date_Min":"2016/01/27 00:00:00.000","Date_Max":" ","Confidence":2,"LS_Type":"rock_fall","Inventory":"NASA","Inv_URL":"https://maps.nccs.nasa.gov/arcgis/apps/MapAndAppGallery/index.html?appid=574f26408683485799d02e857e5d9521","Info_Sourc":"KRCR TV"}},{"type":"Feature","id":192233,"geometry":{"type":"Point","coordinates":[-122.191099999965,41.3971000003648]},"properties":{"OBJECTID":192233,"USGS_ID":"pt192233","Date_Min":"2014/09/22 14:29:59.000","Date_Max":" ","Confidence":2,"LS_Type":"lahar","Inventory":"NASA","Inv_URL":"https://maps.nccs.nasa.gov/arcgis/apps/MapAndAppGallery/index.html?appid=574f26408683485799d02e857e5d9521","Info_Sourc":"Phys.org"}},{"type":"Feature","id":192881,"geometry":{"type":"Point","coordinates":[-121.798074000415,41.0804880002211]},"properties":{"OBJECTID":192881,"USGS_ID":"pt192881","Date_Min":"2017/03/07 00:00:00.000","Date_Max":" ","Confidence":2,"LS_Type":"landslide","Inventory":"NASA","Inv_URL":"https://maps.nccs.nasa.gov/arcgis/apps/MapAndAppGallery/index.html?appid=574f26408683485799d02e857e5d9521","Info_Sourc":"USDA Forest Service"}},{"type":"Feature","id":196572,"geometry":{"type":"Point","coordinates":[-122.205899999885,41.4292999995953]},"properties":{"OBJECTID":196572,"USGS_ID":"pt196572","Date_Min":"2021/09/10 08:02:31.000","Date_Max":"2021/09/10 14:14:12.000","Confidence":8,"LS_Type":"debris flow","Inventory":"USGS Seismogenic Mass Movements","Inv_URL":"https://doi.org/10.5066/P90VGCSK","Info_Sourc":"NCEDC, IRIS"}},{"type":"Feature","id":196575,"geometry":{"type":"Point","coordinates":[-122.187899999885,41.4090999997652]},"properties":{"OBJECTID":196575,"USGS_ID":"pt196575","Date_Min":"2021/07/30 16:43:15.000","Date_Max":"2021/07/31 01:01:55.000","Confidence":8,"LS_Type":"debris flow","Inventory":"USGS Seismogenic Mass Movements","Inv_URL":"https://doi.org/10.5066/P90VGCSK","Info_Sourc":"NCEDC, IRIS"}},{"type":"Feature","id":196576,"geometry":{"type":"Point","coordinates":[-122.211500000025,41.4197000002549]},"properties":{"OBJECTID":196576,"USGS_ID":"pt196576","Date_Min":"2021/07/27 17:22:15.000","Date_Max":"2021/07/28 02:59:15.000","Confidence":8,"LS_Type":"debris flow","Inventory":"USGS Seismogenic Mass Movements","Inv_URL":"https://doi.org/10.5066/P90VGCSK","Info_Sourc":"NCEDC, IRIS"}},{"type":"Feature","id":196577,"geometry":{"type":"Point","coordinates":[-122.188300000345,41.3927999999201]},"properties":{"OBJECTID":196577,"USGS_ID":"pt196577","Date_Min":"2021/07/01 21:45:46.000","Date_Max":"2021/07/02 02:05:42.000","Confidence":8,"LS_Type":"debris flow","Inventory":"USGS Seismogenic Mass Movements","Inv_URL":"https://doi.org/10.5066/P90VGCSK","Info_Sourc":"NCEDC, IRIS"}},{"type":"Feature","id":196578,"geometry":{"type":"Point","coordinates":[-122.185499999825,41.3907000002049]},"properties":{"OBJECTID":196578,"USGS_ID":"pt196578","Date_Min":"2021/06/27 21:48:12.000","Date_Max":"2021/06/28 02:45:42.000","Confidence":8,"LS_Type":"debris flow","Inventory":"USGS Seismogenic Mass Movements","Inv_URL":"https://doi.org/10.5066/P90VGCSK","Info_Sourc":"NCEDC, IRIS"}},{"type":"Feature","id":196639,"geometry":{"type":"Point","coordinates":[-122.154567999713,41.3749869995505]},"properties":{"OBJECTID":196639,"USGS_ID":"pt196639","Date_Min":"2015/03/31 01:20:14.000","Date_Max":"2015/03/31 01:21:10.000","Confidence":8,"LS_Type":"landslide","Inventory":"USGS Seismogenic Mass Movements","Inv_URL":"https://doi.org/10.5066/P90VGCSK","Info_Sourc":"IRIS, NCEDC"}},{"type":"Feature","id":196643,"geometry":{"type":"Point","coordinates":[-122.197317999826,41.3994679998483]},"properties":{"OBJECTID":196643,"USGS_ID":"pt196643","Date_Min":"2014/09/20 20:49:18.000","Date_Max":"2014/09/20 23:10:11.000","Confidence":8,"LS_Type":"outburst flood, debris flow","Inventory":"USGS Seismogenic Mass Movements","Inv_URL":"https://doi.org/10.5066/P90VGCSK","Info_Sourc":"IRIS, NCEDC"}}]}