{"type":"FeatureCollection","features":[{"type":"Feature","id":6317,"geometry":{"type":"Point","coordinates":[-122.328774540962,41.2803697222912]},"properties":{"OBJECTID":6317,"CECPlantID":"H0284","PlantName":"Box Canyon","Retired_Plant":0,"County":"Siskiyou","Capacity_Latest":10,"PriEnergySource":"WAT","OperatorCompanyID":"Siskiyou County"}},{"type":"Feature","id":6319,"geometry":{"type":"Point","coordinates":[-122.376950205913,41.4343105381534]},"properties":{"OBJECTID":6319,"CECPlantID":"E0243","PlantName":"Roseburg Forest Products (Weed Cogeneration Plant)","Retired_Plant":0,"County":"Siskiyou","Capacity_Latest":13.39,"PriEnergySource":"OBS","OperatorCompanyID":"Roseburg Forest Products"}},{"type":"Feature","id":6320,"geometry":{"type":"Point","coordinates":[-122.335350579279,41.9789165623564]},"properties":{"OBJECTID":6320,"CECPlantID":"H0111","PlantName":"Copco 1 (retired 1/22/2024)","Retired_Plant":1,"County":"Siskiyou","Capacity_Latest":0,"PriEnergySource":"WAT","OperatorCompanyID":"PacifiCorp"}},{"type":"Feature","id":6321,"geometry":{"type":"Point","coordinates":[-122.358081713243,41.9757039010994]},"properties":{"OBJECTID":6321,"CECPlantID":"H0112","PlantName":"Copco 2 (retired 5/22/2023)","Retired_Plant":1,"County":"Siskiyou","Capacity_Latest":0,"PriEnergySource":"WAT","OperatorCompanyID":"PacifiCorp"}},{"type":"Feature","id":6322,"geometry":{"type":"Point","coordinates":[-122.360401110186,41.9855925765831]},"properties":{"OBJECTID":6322,"CECPlantID":"H0177","PlantName":"Fall Creek","Retired_Plant":0,"County":"Siskiyou","Capacity_Latest":2.2,"PriEnergySource":"WAT","OperatorCompanyID":"PacifiCorp"}},{"type":"Feature","id":6323,"geometry":{"type":"Point","coordinates":[-122.436835120425,41.9329797880798]},"properties":{"OBJECTID":6323,"CECPlantID":"H0245","PlantName":"Iron Gate (retired 1/11/2024)","Retired_Plant":1,"County":"Siskiyou","Capacity_Latest":0,"PriEnergySource":"WAT","OperatorCompanyID":"PacifiCorp"}}]}