{"type":"FeatureCollection","features":[{"type":"Feature","id":402,"geometry":{"type":"MultiPoint","coordinates":[[-121.56222716676027,41.37822119579129]]},"properties":{"OBJECTID":402,"gaz_id":262304,"gaz_name":"Lakin","gaz_featureclass":"Populated Place","fcode":61500,"state_alpha":"CA","county_name":"Siskiyou"}},{"type":"Feature","id":4526,"geometry":{"type":"MultiPoint","coordinates":[[-121.5802786318333,41.130444675636696]]},"properties":{"OBJECTID":4526,"gaz_id":1656323,"gaz_name":"Spalding Corner","gaz_featureclass":"Populated Place","fcode":61500,"state_alpha":"CA","county_name":"Shasta"}},{"type":"Feature","id":7616,"geometry":{"type":"MultiPoint","coordinates":[[-121.6316665205061,40.99849946163121],[-121.6316665205061,41.00155506170577]]},"properties":{"OBJECTID":7616,"gaz_id":260293,"gaz_name":"Four Corners","gaz_featureclass":"Populated Place","fcode":61500,"state_alpha":"CA","county_name":"Shasta"}},{"type":"Feature","id":15587,"geometry":{"type":"MultiPoint","coordinates":[[-122.20308355760096,41.966815682333355]]},"properties":{"OBJECTID":15587,"gaz_id":1658043,"gaz_name":"Beswick","gaz_featureclass":"Populated Place","fcode":61500,"state_alpha":"CA","county_name":"Siskiyou"}},{"type":"Feature","id":22754,"geometry":{"type":"MultiPoint","coordinates":[[-122.47697987155931,41.793203545834835]]},"properties":{"OBJECTID":22754,"gaz_id":1659805,"gaz_name":"Snowden","gaz_featureclass":"Populated Place","fcode":61500,"state_alpha":"CA","county_name":"Siskiyou"}},{"type":"Feature","id":23060,"geometry":{"type":"MultiPoint","coordinates":[[-123.14005467071624,41.14097604208691]]},"properties":{"OBJECTID":23060,"gaz_id":1655877,"gaz_name":"Cecilville","gaz_featureclass":"Populated Place","fcode":61500,"state_alpha":"CA","county_name":"Siskiyou"}},{"type":"Feature","id":23122,"geometry":{"type":"MultiPoint","coordinates":[[-122.31058027192049,41.30987982608782]]},"properties":{"OBJECTID":23122,"gaz_id":277559,"gaz_name":"Mount Shasta","gaz_featureclass":"Populated Place","fcode":61500,"state_alpha":"CA","county_name":"Siskiyou"}},{"type":"Feature","id":23273,"geometry":{"type":"MultiPoint","coordinates":[[-122.89976929293208,41.52097728913184]]},"properties":{"OBJECTID":23273,"gaz_id":1658259,"gaz_name":"Cheeseville","gaz_featureclass":"Populated Place","fcode":61500,"state_alpha":"CA","county_name":"Siskiyou"}},{"type":"Feature","id":25826,"geometry":{"type":"MultiPoint","coordinates":[[-122.39732169636638,41.38299622400475]]},"properties":{"OBJECTID":25826,"gaz_id":2573569,"gaz_name":"Hammond Ranch","gaz_featureclass":"Populated Place","fcode":61500,"state_alpha":"CA","county_name":"Siskiyou"}},{"type":"Feature","id":32132,"geometry":{"type":"MultiPoint","coordinates":[[-122.36473921351316,41.528594536761915]]},"properties":{"OBJECTID":32132,"gaz_id":2805903,"gaz_name":"Lake Shastina","gaz_featureclass":"Populated Place","fcode":61500,"state_alpha":"CA","county_name":"Siskiyou"}},{"type":"Feature","id":33365,"geometry":{"type":"MultiPoint","coordinates":[[-121.64278676271326,41.91210262832345]]},"properties":{"OBJECTID":33365,"gaz_id":258180,"gaz_name":"Chalk Bank Landing","gaz_featureclass":"Populated Place","fcode":61500,"state_alpha":"CA","county_name":"Siskiyou"}},{"type":"Feature","id":33462,"geometry":{"type":"MultiPoint","coordinates":[[-121.54361833208775,41.81877273000902]]},"properties":{"OBJECTID":33462,"gaz_id":257930,"gaz_name":"Canby Cross","gaz_featureclass":"Populated Place","fcode":61500,"state_alpha":"CA","county_name":"Siskiyou"}},{"type":"Feature","id":33466,"geometry":{"type":"MultiPoint","coordinates":[[-122.34808228230743,41.340989924872474]]},"properties":{"OBJECTID":33466,"gaz_id":268649,"gaz_name":"Upton","gaz_featureclass":"Populated Place","fcode":61500,"state_alpha":"CA","county_name":"Siskiyou"}},{"type":"Feature","id":37138,"geometry":{"type":"MultiPoint","coordinates":[[-122.52003605575352,41.64709393143364]]},"properties":{"OBJECTID":37138,"gaz_id":1658671,"gaz_name":"Grenada","gaz_featureclass":"Populated Place","fcode":61500,"state_alpha":"CA","county_name":"Siskiyou"}},{"type":"Feature","id":37578,"geometry":{"type":"MultiPoint","coordinates":[[-121.51638600755591,41.0360009741364]]},"properties":{"OBJECTID":37578,"gaz_id":1652958,"gaz_name":"Gomez","gaz_featureclass":"Populated Place","fcode":61500,"state_alpha":"CA","county_name":"Shasta"}},{"type":"Feature","id":37658,"geometry":{"type":"MultiPoint","coordinates":[[-122.4605909814647,41.86625815205992]]},"properties":{"OBJECTID":37658,"gaz_id":1657893,"gaz_name":"Ager","gaz_featureclass":"Populated Place","fcode":61500,"state_alpha":"CA","county_name":"Siskiyou"}},{"type":"Feature","id":38769,"geometry":{"type":"MultiPoint","coordinates":[[-122.2755781588832,41.259880924454436]]},"properties":{"OBJECTID":38769,"gaz_id":263883,"gaz_name":"Mott","gaz_featureclass":"Populated Place","fcode":61500,"state_alpha":"CA","county_name":"Siskiyou"}},{"type":"Feature","id":40690,"geometry":{"type":"MultiPoint","coordinates":[[-121.56472222668214,41.11155597571239]]},"properties":{"OBJECTID":40690,"gaz_id":259035,"gaz_name":"Dana","gaz_featureclass":"Populated Place","fcode":61500,"state_alpha":"CA","county_name":"Shasta"}},{"type":"Feature","id":48278,"geometry":{"type":"MultiPoint","coordinates":[[-121.99113170683462,41.852375993110755]]},"properties":{"OBJECTID":48278,"gaz_id":1659813,"gaz_name":"Somerset","gaz_featureclass":"Populated Place","fcode":61500,"state_alpha":"CA","county_name":"Siskiyou"}},{"type":"Feature","id":48328,"geometry":{"type":"MultiPoint","coordinates":[[-121.91445650612023,41.276831159026656]]},"properties":{"OBJECTID":48328,"gaz_id":1659937,"gaz_name":"Swobe","gaz_featureclass":"Populated Place","fcode":61500,"state_alpha":"CA","county_name":"Siskiyou"}},{"type":"Feature","id":51056,"geometry":{"type":"MultiPoint","coordinates":[[-121.68889435863761,41.199332571676884]]},"properties":{"OBJECTID":51056,"gaz_id":264928,"gaz_name":"Pondosa","gaz_featureclass":"Populated Place","fcode":61500,"state_alpha":"CA","county_name":"Siskiyou"}},{"type":"Feature","id":61389,"geometry":{"type":"MultiPoint","coordinates":[[-123.674237435803,41.05041268992955]]},"properties":{"OBJECTID":61389,"gaz_id":1658773,"gaz_name":"Hoopa","gaz_featureclass":"Populated Place","fcode":61500,"state_alpha":"CA","county_name":"Humboldt"}},{"type":"Feature","id":62091,"geometry":{"type":"MultiPoint","coordinates":[[-122.62198428888976,41.76070143053781],[-122.62670679072885,41.764312430382915]]},"properties":{"OBJECTID":62091,"gaz_id":1659733,"gaz_name":"Hawkinsville","gaz_featureclass":"Populated Place","fcode":61500,"state_alpha":"CA","county_name":"Siskiyou"}},{"type":"Feature","id":63503,"geometry":{"type":"MultiPoint","coordinates":[[-121.55972886302192,41.99849174204332]]},"properties":{"OBJECTID":63503,"gaz_id":1657897,"gaz_name":"Ainsworth Corner","gaz_featureclass":"Populated Place","fcode":61500,"state_alpha":"CA","county_name":"Siskiyou"}},{"type":"Feature","id":63529,"geometry":{"type":"MultiPoint","coordinates":[[-121.43832739052421,41.00461287860634]]},"properties":{"OBJECTID":63529,"gaz_id":260035,"gaz_name":"Fall River Mills","gaz_featureclass":"Populated Place","fcode":61500,"state_alpha":"CA","county_name":"Shasta"}},{"type":"Feature","id":63660,"geometry":{"type":"MultiPoint","coordinates":[[-122.26113295446713,41.2468256259559]]},"properties":{"OBJECTID":63660,"gaz_id":266053,"gaz_name":"Shasta Springs","gaz_featureclass":"Populated Place","fcode":61500,"state_alpha":"CA","county_name":"Siskiyou"}},{"type":"Feature","id":66085,"geometry":{"type":"MultiPoint","coordinates":[[-122.55587220332815,41.91014464690137]]},"properties":{"OBJECTID":66085,"gaz_id":266820,"gaz_name":"Hornbrook","gaz_featureclass":"Populated Place","fcode":61500,"state_alpha":"CA","county_name":"Siskiyou"}},{"type":"Feature","id":70248,"geometry":{"type":"MultiPoint","coordinates":[[-122.18863114869632,41.28016033571457]]},"properties":{"OBJECTID":70248,"gaz_id":1659666,"gaz_name":"Signal Butte","gaz_featureclass":"Populated Place","fcode":61500,"state_alpha":"CA","county_name":"Siskiyou"}},{"type":"Feature","id":73268,"geometry":{"type":"MultiPoint","coordinates":[[-121.63388992988605,41.061832865903355]]},"properties":{"OBJECTID":73268,"gaz_id":253121,"gaz_name":"Cayton","gaz_featureclass":"Populated Place","fcode":61500,"state_alpha":"CA","county_name":"Shasta"}},{"type":"Feature","id":73291,"geometry":{"type":"MultiPoint","coordinates":[[-122.62337512708795,41.9948642470019],[-122.62754192749905,41.99514204616429]]},"properties":{"OBJECTID":73291,"gaz_id":266807,"gaz_name":"Hilt","gaz_featureclass":"Populated Place","fcode":61500,"state_alpha":"CA","county_name":"Siskiyou"}},{"type":"Feature","id":73307,"geometry":{"type":"MultiPoint","coordinates":[[-121.5194502562115,41.997937045637265]]},"properties":{"OBJECTID":73307,"gaz_id":261153,"gaz_name":"Hatfield","gaz_featureclass":"Populated Place","fcode":61500,"state_alpha":"CA","county_name":"Siskiyou"}},{"type":"Feature","id":73308,"geometry":{"type":"MultiPoint","coordinates":[[-121.5194502562115,41.997937045637265]]},"properties":{"OBJECTID":73308,"gaz_id":261153,"gaz_name":"Hatfield","gaz_featureclass":"Populated Place","fcode":61500,"state_alpha":"CA","county_name":"Klamath"}},{"type":"Feature","id":73313,"geometry":{"type":"MultiPoint","coordinates":[[-123.45034860445463,41.709295053202624]]},"properties":{"OBJECTID":73313,"gaz_id":258423,"gaz_name":"Clear Creek","gaz_featureclass":"Populated Place","fcode":61500,"state_alpha":"CA","county_name":"Siskiyou"}},{"type":"Feature","id":73841,"geometry":{"type":"MultiPoint","coordinates":[[-122.13946233682883,41.255717136646105],[-122.13918453642046,41.24905063618409],[-122.12196183546902,41.261828538022236]]},"properties":{"OBJECTID":73841,"gaz_id":277555,"gaz_name":"McCloud","gaz_featureclass":"Populated Place","fcode":61500,"state_alpha":"CA","county_name":"Siskiyou"}},{"type":"Feature","id":80722,"geometry":{"type":"MultiPoint","coordinates":[[-122.56337240292527,41.90208904578821]]},"properties":{"OBJECTID":80722,"gaz_id":1659734,"gaz_name":"Henley","gaz_featureclass":"Populated Place","fcode":61500,"state_alpha":"CA","county_name":"Siskiyou"}},{"type":"Feature","id":80921,"geometry":{"type":"MultiPoint","coordinates":[[-122.16168564275998,41.267938834806124]]},"properties":{"OBJECTID":80921,"gaz_id":1658774,"gaz_name":"Hooper","gaz_featureclass":"Populated Place","fcode":61500,"state_alpha":"CA","county_name":"Siskiyou"}},{"type":"Feature","id":80978,"geometry":{"type":"MultiPoint","coordinates":[[-122.29196704628286,41.16265791688458]]},"properties":{"OBJECTID":80978,"gaz_id":1655875,"gaz_name":"Castle Crag","gaz_featureclass":"Populated Place","fcode":61500,"state_alpha":"CA","county_name":"Shasta"}},{"type":"Feature","id":83234,"geometry":{"type":"MultiPoint","coordinates":[[-122.80143144551661,41.30959368324974]]},"properties":{"OBJECTID":83234,"gaz_id":257834,"gaz_name":"Callahan","gaz_featureclass":"Populated Place","fcode":61500,"state_alpha":"CA","county_name":"Siskiyou"}},{"type":"Feature","id":83591,"geometry":{"type":"MultiPoint","coordinates":[[-121.6977861806622,41.33488718066522]]},"properties":{"OBJECTID":83591,"gaz_id":261037,"gaz_name":"Hambone","gaz_featureclass":"Populated Place","fcode":61500,"state_alpha":"CA","county_name":"Siskiyou"}},{"type":"Feature","id":86424,"geometry":{"type":"MultiPoint","coordinates":[[-122.95893746063628,41.253757766005045]]},"properties":{"OBJECTID":86424,"gaz_id":1656029,"gaz_name":"Foster","gaz_featureclass":"Populated Place","fcode":61500,"state_alpha":"CA","county_name":"Siskiyou"}},{"type":"Feature","id":86768,"geometry":{"type":"MultiPoint","coordinates":[[-122.20474718989641,41.532379151293085]]},"properties":{"OBJECTID":86768,"gaz_id":1657932,"gaz_name":"Andesite","gaz_featureclass":"Populated Place","fcode":61500,"state_alpha":"CA","county_name":"Siskiyou"}},{"type":"Feature","id":87008,"geometry":{"type":"MultiPoint","coordinates":[[-122.249192793849,41.51404574629107],[-122.25863749479498,41.51293444498027]]},"properties":{"OBJECTID":87008,"gaz_id":1658098,"gaz_name":"Bolam","gaz_featureclass":"Populated Place","fcode":61500,"state_alpha":"CA","county_name":"Siskiyou"}},{"type":"Feature","id":94374,"geometry":{"type":"MultiPoint","coordinates":[[-122.35502484281047,41.07182280522997]]},"properties":{"OBJECTID":94374,"gaz_id":1659671,"gaz_name":"Sims","gaz_featureclass":"Populated Place","fcode":61500,"state_alpha":"CA","county_name":"Shasta"}},{"type":"Feature","id":94402,"geometry":{"type":"MultiPoint","coordinates":[[-123.00421744407926,41.74180509527456]]},"properties":{"OBJECTID":94402,"gaz_id":1659610,"gaz_name":"Scott Bar","gaz_featureclass":"Populated Place","fcode":61500,"state_alpha":"CA","county_name":"Siskiyou"}},{"type":"Feature","id":95930,"geometry":{"type":"MultiPoint","coordinates":[[-122.27252225467831,41.235436524159]]},"properties":{"OBJECTID":95930,"gaz_id":1656288,"gaz_name":"Shasta Retreat","gaz_featureclass":"Populated Place","fcode":61500,"state_alpha":"CA","county_name":"Siskiyou"}},{"type":"Feature","id":95931,"geometry":{"type":"MultiPoint","coordinates":[[-122.3914212462716,41.71181734730646]]},"properties":{"OBJECTID":95931,"gaz_id":262720,"gaz_name":"Little Shasta","gaz_featureclass":"Populated Place","fcode":61500,"state_alpha":"CA","county_name":"Siskiyou"}},{"type":"Feature","id":96378,"geometry":{"type":"MultiPoint","coordinates":[[-122.36113919165584,41.39154472753956]]},"properties":{"OBJECTID":96378,"gaz_id":1658067,"gaz_name":"Black Butte","gaz_featureclass":"Populated Place","fcode":61500,"state_alpha":"CA","county_name":"Siskiyou"}},{"type":"Feature","id":97620,"geometry":{"type":"MultiPoint","coordinates":[[-122.69975778154863,40.983206268728274]]},"properties":{"OBJECTID":97620,"gaz_id":1665446,"gaz_name":"Trinity Center","gaz_featureclass":"Populated Place","fcode":61500,"state_alpha":"CA","county_name":"Trinity"}},{"type":"Feature","id":98381,"geometry":{"type":"MultiPoint","coordinates":[[-123.19256278729445,41.84041078519757]]},"properties":{"OBJECTID":98381,"gaz_id":232793,"gaz_name":"Seiad Valley","gaz_featureclass":"Populated Place","fcode":61500,"state_alpha":"CA","county_name":"Siskiyou"}},{"type":"Feature","id":98384,"geometry":{"type":"MultiPoint","coordinates":[[-122.3103022693912,41.29238002493718]]},"properties":{"OBJECTID":98384,"gaz_id":264804,"gaz_name":"Pioneer","gaz_featureclass":"Populated Place","fcode":61500,"state_alpha":"CA","county_name":"Siskiyou"}},{"type":"Feature","id":102472,"geometry":{"type":"MultiPoint","coordinates":[[-122.3144721977361,41.47404493775495]]},"properties":{"OBJECTID":102472,"gaz_id":1658785,"gaz_name":"Hotlum","gaz_featureclass":"Populated Place","fcode":61500,"state_alpha":"CA","county_name":"Siskiyou"}},{"type":"Feature","id":102530,"geometry":{"type":"MultiPoint","coordinates":[[-122.06445951620411,41.191551638870365]]},"properties":{"OBJECTID":102530,"gaz_id":1660206,"gaz_name":"Wyntoon","gaz_featureclass":"Populated Place","fcode":61500,"state_alpha":"CA","county_name":"Siskiyou"}},{"type":"Feature","id":105538,"geometry":{"type":"MultiPoint","coordinates":[[-121.45139373577635,41.936827846181835]]},"properties":{"OBJECTID":105538,"gaz_id":252820,"gaz_name":"Tuber","gaz_featureclass":"Populated Place","fcode":61500,"state_alpha":"CA","county_name":"Modoc"}},{"type":"Feature","id":105570,"geometry":{"type":"MultiPoint","coordinates":[[-122.19141430371968,41.63487745980436]]},"properties":{"OBJECTID":105570,"gaz_id":260789,"gaz_name":"Grass Lake","gaz_featureclass":"Populated Place","fcode":61500,"state_alpha":"CA","county_name":"Siskiyou"}},{"type":"Feature","id":105597,"geometry":{"type":"MultiPoint","coordinates":[[-123.13033409355326,41.297363853539906]]},"properties":{"OBJECTID":105597,"gaz_id":232631,"gaz_name":"Sawyers Bar","gaz_featureclass":"Populated Place","fcode":61500,"state_alpha":"CA","county_name":"Siskiyou"}},{"type":"Feature","id":105952,"geometry":{"type":"MultiPoint","coordinates":[[-122.43947856095997,41.76014924692981]]},"properties":{"OBJECTID":105952,"gaz_id":276646,"gaz_name":"Logan","gaz_featureclass":"Populated Place","fcode":61500,"state_alpha":"CA","county_name":"Siskiyou"}},{"type":"Feature","id":113175,"geometry":{"type":"MultiPoint","coordinates":[[-122.58587259477983,41.83292323914887]]},"properties":{"OBJECTID":113175,"gaz_id":1682306,"gaz_name":"Jims Camp","gaz_featureclass":"Populated Place","fcode":61500,"state_alpha":"CA","county_name":"Siskiyou"}},{"type":"Feature","id":113219,"geometry":{"type":"MultiPoint","coordinates":[[-123.67840917065992,41.27763040542787]]},"properties":{"OBJECTID":113219,"gaz_id":1656413,"gaz_name":"Wright Place","gaz_featureclass":"Populated Place","fcode":61500,"state_alpha":"CA","county_name":"Humboldt"}},{"type":"Feature","id":113461,"geometry":{"type":"MultiPoint","coordinates":[[-121.98696388054748,41.68932338147575]]},"properties":{"OBJECTID":113461,"gaz_id":1658886,"gaz_name":"Kegg","gaz_featureclass":"Populated Place","fcode":61500,"state_alpha":"CA","county_name":"Siskiyou"}},{"type":"Feature","id":113523,"geometry":{"type":"MultiPoint","coordinates":[[-122.31057884719243,41.14932411457655]]},"properties":{"OBJECTID":113523,"gaz_id":1655970,"gaz_name":"Dirigo","gaz_featureclass":"Populated Place","fcode":61500,"state_alpha":"CA","county_name":"Shasta"}},{"type":"Feature","id":113584,"geometry":{"type":"MultiPoint","coordinates":[[-122.11446759439715,41.65015586782336]]},"properties":{"OBJECTID":113584,"gaz_id":1658507,"gaz_name":"Erickson","gaz_featureclass":"Populated Place","fcode":61500,"state_alpha":"CA","county_name":"Siskiyou"}},{"type":"Feature","id":119509,"geometry":{"type":"MultiPoint","coordinates":[[-122.32557934430305,41.11265701058401]]},"properties":{"OBJECTID":119509,"gaz_id":1658307,"gaz_name":"Conant","gaz_featureclass":"Populated Place","fcode":61500,"state_alpha":"CA","county_name":"Shasta"}},{"type":"Feature","id":119511,"geometry":{"type":"MultiPoint","coordinates":[[-122.18530259502293,41.58321175634244]]},"properties":{"OBJECTID":119511,"gaz_id":1658326,"gaz_name":"Cougar","gaz_featureclass":"Populated Place","fcode":61500,"state_alpha":"CA","county_name":"Siskiyou"}},{"type":"Feature","id":124926,"geometry":{"type":"MultiPoint","coordinates":[[-122.71365481960527,41.86514262951325]]},"properties":{"OBJECTID":124926,"gaz_id":1657688,"gaz_name":"Swiss Bar","gaz_featureclass":"Populated Place","fcode":61500,"state_alpha":"CA","county_name":"Siskiyou"}},{"type":"Feature","id":127045,"geometry":{"type":"MultiPoint","coordinates":[[-122.38614060048523,41.42265502758227],[-122.37364029986327,41.43126632911248]]},"properties":{"OBJECTID":127045,"gaz_id":1652650,"gaz_name":"Weed","gaz_featureclass":"Populated Place","fcode":61500,"state_alpha":"CA","county_name":"Siskiyou"}},{"type":"Feature","id":127062,"geometry":{"type":"MultiPoint","coordinates":[[-122.52031323632433,41.520706722925134]]},"properties":{"OBJECTID":127062,"gaz_id":1656042,"gaz_name":"Gazelle","gaz_featureclass":"Populated Place","fcode":61500,"state_alpha":"CA","county_name":"Siskiyou"}},{"type":"Feature","id":127069,"geometry":{"type":"MultiPoint","coordinates":[[-123.37951350770916,41.79318486534629],[-123.37562460741941,41.79818486626773]]},"properties":{"OBJECTID":127069,"gaz_id":261072,"gaz_name":"Happy Camp","gaz_featureclass":"Populated Place","fcode":61500,"state_alpha":"CA","county_name":"Siskiyou"}},{"type":"Feature","id":127077,"geometry":{"type":"MultiPoint","coordinates":[[-121.91807371364722,41.96737490791966]]},"properties":{"OBJECTID":127077,"gaz_id":277500,"gaz_name":"Dorris","gaz_featureclass":"Populated Place","fcode":61500,"state_alpha":"CA","county_name":"Siskiyou"}},{"type":"Feature","id":127095,"geometry":{"type":"MultiPoint","coordinates":[[-123.17755819117119,41.24152994548521]]},"properties":{"OBJECTID":127095,"gaz_id":219337,"gaz_name":"Black Bear","gaz_featureclass":"Populated Place","fcode":61500,"state_alpha":"CA","county_name":"Siskiyou"}},{"type":"Feature","id":134189,"geometry":{"type":"MultiPoint","coordinates":[[-121.91112056649854,41.020718439398614]]},"properties":{"OBJECTID":134189,"gaz_id":256886,"gaz_name":"Big Bend","gaz_featureclass":"Populated Place","fcode":61500,"state_alpha":"CA","county_name":"Shasta"}},{"type":"Feature","id":138002,"geometry":{"type":"MultiPoint","coordinates":[[-122.82560283617627,41.86125131922811]]},"properties":{"OBJECTID":138002,"gaz_id":1682307,"gaz_name":"Klamath River","gaz_featureclass":"Populated Place","fcode":61500,"state_alpha":"CA","county_name":"Siskiyou"}},{"type":"Feature","id":138196,"geometry":{"type":"MultiPoint","coordinates":[[-122.36142198490056,41.98320196899359]]},"properties":{"OBJECTID":138196,"gaz_id":1655919,"gaz_name":"Copco","gaz_featureclass":"Populated Place","fcode":61500,"state_alpha":"CA","county_name":"Siskiyou"}},{"type":"Feature","id":138197,"geometry":{"type":"MultiPoint","coordinates":[[-123.50562909627278,41.602628141203276]]},"properties":{"OBJECTID":138197,"gaz_id":1655928,"gaz_name":"Cottage Grove","gaz_featureclass":"Populated Place","fcode":61500,"state_alpha":"CA","county_name":"Siskiyou"}},{"type":"Feature","id":143698,"geometry":{"type":"MultiPoint","coordinates":[[-122.74115582395038,41.867364227376974]]},"properties":{"OBJECTID":143698,"gaz_id":1659727,"gaz_name":"Gottsville","gaz_featureclass":"Populated Place","fcode":61500,"state_alpha":"CA","county_name":"Siskiyou"}},{"type":"Feature","id":144514,"geometry":{"type":"MultiPoint","coordinates":[[-123.54118425441982,41.30152051784943]]},"properties":{"OBJECTID":144514,"gaz_id":264396,"gaz_name":"Orleans","gaz_featureclass":"Populated Place","fcode":61500,"state_alpha":"CA","county_name":"Humboldt"}},{"type":"Feature","id":144912,"geometry":{"type":"MultiPoint","coordinates":[[-123.06782875373885,41.09875564558518]]},"properties":{"OBJECTID":144912,"gaz_id":1659915,"gaz_name":"Summerville","gaz_featureclass":"Populated Place","fcode":61500,"state_alpha":"CA","county_name":"Siskiyou"}},{"type":"Feature","id":146817,"geometry":{"type":"MultiPoint","coordinates":[[-121.8211208896351,41.257665264707775]]},"properties":{"OBJECTID":146817,"gaz_id":256562,"gaz_name":"Bartle","gaz_featureclass":"Populated Place","fcode":61500,"state_alpha":"CA","county_name":"Siskiyou"}},{"type":"Feature","id":150382,"geometry":{"type":"MultiPoint","coordinates":[[-122.37947329636164,41.401544326538456]]},"properties":{"OBJECTID":150382,"gaz_id":225830,"gaz_name":"Igerna","gaz_featureclass":"Populated Place","fcode":61500,"state_alpha":"CA","county_name":"Siskiyou"}},{"type":"Feature","id":155373,"geometry":{"type":"MultiPoint","coordinates":[[-121.8941782018995,41.2712758581247]]},"properties":{"OBJECTID":155373,"gaz_id":253172,"gaz_name":"Kinyon","gaz_featureclass":"Populated Place","fcode":61500,"state_alpha":"CA","county_name":"Siskiyou"}},{"type":"Feature","id":155403,"geometry":{"type":"MultiPoint","coordinates":[[-122.00196407582413,41.642101776978976],[-121.9980750749231,41.6423796773571]]},"properties":{"OBJECTID":155403,"gaz_id":262385,"gaz_name":"Leaf","gaz_featureclass":"Populated Place","fcode":61500,"state_alpha":"CA","county_name":"Siskiyou"}},{"type":"Feature","id":155426,"geometry":{"type":"MultiPoint","coordinates":[[-122.30224616534679,41.27821352547908]]},"properties":{"OBJECTID":155426,"gaz_id":256387,"gaz_name":"Azalea","gaz_featureclass":"Populated Place","fcode":61500,"state_alpha":"CA","county_name":"Siskiyou"}},{"type":"Feature","id":161179,"geometry":{"type":"MultiPoint","coordinates":[[-122.31780134699251,41.13849061278974]]},"properties":{"OBJECTID":161179,"gaz_id":258050,"gaz_name":"Castella","gaz_featureclass":"Populated Place","fcode":61500,"state_alpha":"CA","county_name":"Shasta"}},{"type":"Feature","id":161226,"geometry":{"type":"MultiPoint","coordinates":[[-121.47750524310797,41.95599384704996]]},"properties":{"OBJECTID":161226,"gaz_id":1660040,"gaz_name":"Tulelake","gaz_featureclass":"Populated Place","fcode":61500,"state_alpha":"CA","county_name":"Siskiyou"}},{"type":"Feature","id":165114,"geometry":{"type":"MultiPoint","coordinates":[[-121.71472775833706,41.169610066915524]]},"properties":{"OBJECTID":165114,"gaz_id":1659280,"gaz_name":"Obie","gaz_featureclass":"Populated Place","fcode":61500,"state_alpha":"CA","county_name":"Shasta"}},{"type":"Feature","id":165129,"geometry":{"type":"MultiPoint","coordinates":[[-122.07779392951686,41.26738494191978]]},"properties":{"OBJECTID":165129,"gaz_id":1655804,"gaz_name":"Ash Creek Junction","gaz_featureclass":"Populated Place","fcode":61500,"state_alpha":"CA","county_name":"Siskiyou"}},{"type":"Feature","id":170456,"geometry":{"type":"MultiPoint","coordinates":[[-122.32030144556481,41.12987941234571]]},"properties":{"OBJECTID":170456,"gaz_id":1656351,"gaz_name":"Sweetbriar","gaz_featureclass":"Populated Place","fcode":61500,"state_alpha":"CA","county_name":"Shasta"}},{"type":"Feature","id":170647,"geometry":{"type":"MultiPoint","coordinates":[[-122.77809481074142,41.10292777056435]]},"properties":{"OBJECTID":170647,"gaz_id":1665332,"gaz_name":"Coffee","gaz_featureclass":"Populated Place","fcode":61500,"state_alpha":"CA","county_name":"Trinity"}},{"type":"Feature","id":172800,"geometry":{"type":"MultiPoint","coordinates":[[-121.55945166628143,42.019602243656266]]},"properties":{"OBJECTID":172800,"gaz_id":1136510,"gaz_name":"Malone","gaz_featureclass":"Populated Place","fcode":61500,"state_alpha":"OR","county_name":"Klamath"}},{"type":"Feature","id":173633,"geometry":{"type":"MultiPoint","coordinates":[[-123.47618315669257,41.376242828779475]]},"properties":{"OBJECTID":173633,"gaz_id":1659814,"gaz_name":"Somes Bar","gaz_featureclass":"Populated Place","fcode":61500,"state_alpha":"CA","county_name":"Siskiyou"}},{"type":"Feature","id":180968,"geometry":{"type":"MultiPoint","coordinates":[[-122.41836044064475,40.99571029413334]]},"properties":{"OBJECTID":180968,"gaz_id":1659417,"gaz_name":"Pollard Flat","gaz_featureclass":"Populated Place","fcode":61500,"state_alpha":"CA","county_name":"Shasta"}},{"type":"Feature","id":181145,"geometry":{"type":"MultiPoint","coordinates":[[-122.92921439168921,41.48069948411771]]},"properties":{"OBJECTID":181145,"gaz_id":1655955,"gaz_name":"Deacon Lee Place","gaz_featureclass":"Populated Place","fcode":61500,"state_alpha":"CA","county_name":"Siskiyou"}},{"type":"Feature","id":181178,"geometry":{"type":"MultiPoint","coordinates":[[-121.91335035301871,41.58377048047575]]},"properties":{"OBJECTID":181178,"gaz_id":1659968,"gaz_name":"Tennant","gaz_featureclass":"Populated Place","fcode":61500,"state_alpha":"CA","county_name":"Siskiyou"}},{"type":"Feature","id":186592,"geometry":{"type":"MultiPoint","coordinates":[[-122.06279948884789,41.66737837345105]]},"properties":{"OBJECTID":186592,"gaz_id":1659368,"gaz_name":"Penoyar","gaz_featureclass":"Populated Place","fcode":61500,"state_alpha":"CA","county_name":"Siskiyou"}},{"type":"Feature","id":186692,"geometry":{"type":"MultiPoint","coordinates":[[-121.59056364384547,41.84766032844719]]},"properties":{"OBJECTID":186692,"gaz_id":1658550,"gaz_name":"Fleener Place","gaz_featureclass":"Populated Place","fcode":61500,"state_alpha":"CA","county_name":"Siskiyou"}},{"type":"Feature","id":186717,"geometry":{"type":"MultiPoint","coordinates":[[-122.36391800062987,41.44737743142396]]},"properties":{"OBJECTID":186717,"gaz_id":1853381,"gaz_name":"Carrick","gaz_featureclass":"Populated Place","fcode":61500,"state_alpha":"CA","county_name":"Siskiyou"}},{"type":"Feature","id":193457,"geometry":{"type":"MultiPoint","coordinates":[[-122.9517153093825,41.573475488743675]]},"properties":{"OBJECTID":193457,"gaz_id":263949,"gaz_name":"Mugginsville","gaz_featureclass":"Populated Place","fcode":61500,"state_alpha":"CA","county_name":"Siskiyou"}},{"type":"Feature","id":195398,"geometry":{"type":"MultiPoint","coordinates":[[-122.00418739896584,41.78709918743692],[-122.00002049704513,41.779321586699204]]},"properties":{"OBJECTID":195398,"gaz_id":263888,"gaz_name":"Mount Hebron","gaz_featureclass":"Populated Place","fcode":61500,"state_alpha":"CA","county_name":"Siskiyou"}},{"type":"Feature","id":197198,"geometry":{"type":"MultiPoint","coordinates":[[-121.67694834908865,41.14516596891219]]},"properties":{"OBJECTID":197198,"gaz_id":1658715,"gaz_name":"Harlow Place","gaz_featureclass":"Populated Place","fcode":61500,"state_alpha":"CA","county_name":"Shasta"}},{"type":"Feature","id":199017,"geometry":{"type":"MultiPoint","coordinates":[[-122.40503202987476,41.595430237834066]]},"properties":{"OBJECTID":199017,"gaz_id":257020,"gaz_name":"Big Springs","gaz_featureclass":"Populated Place","fcode":61500,"state_alpha":"CA","county_name":"Siskiyou"}},{"type":"Feature","id":202819,"geometry":{"type":"MultiPoint","coordinates":[[-122.39335954295679,41.036266499357666]]},"properties":{"OBJECTID":202819,"gaz_id":1656018,"gaz_name":"Fisher","gaz_featureclass":"Populated Place","fcode":61500,"state_alpha":"CA","county_name":"Shasta"}},{"type":"Feature","id":202887,"geometry":{"type":"MultiPoint","coordinates":[[-123.14311239580617,41.3006967526551]]},"properties":{"OBJECTID":202887,"gaz_id":1658042,"gaz_name":"Bestville","gaz_featureclass":"Populated Place","fcode":61500,"state_alpha":"CA","county_name":"Siskiyou"}},{"type":"Feature","id":204098,"geometry":{"type":"MultiPoint","coordinates":[[-122.9214367060941,41.58042049162971]]},"properties":{"OBJECTID":204098,"gaz_id":264399,"gaz_name":"Oro Fino","gaz_featureclass":"Populated Place","fcode":61500,"state_alpha":"CA","county_name":"Siskiyou"}},{"type":"Feature","id":205693,"geometry":{"type":"MultiPoint","coordinates":[[-123.10533769372992,41.962909701456866]]},"properties":{"OBJECTID":205693,"gaz_id":1657604,"gaz_name":"Eileen","gaz_featureclass":"Populated Place","fcode":61500,"state_alpha":"CA","county_name":"Siskiyou"}},{"type":"Feature","id":209719,"geometry":{"type":"MultiPoint","coordinates":[[-122.00529880541512,41.82682069003203],[-121.99890960443216,41.82793189073281]]},"properties":{"OBJECTID":209719,"gaz_id":1659030,"gaz_name":"Macdoel","gaz_featureclass":"Populated Place","fcode":61500,"state_alpha":"CA","county_name":"Siskiyou"}},{"type":"Feature","id":209753,"geometry":{"type":"MultiPoint","coordinates":[[-122.8947688828868,41.456811685446915]]},"properties":{"OBJECTID":209753,"gaz_id":277509,"gaz_name":"Etna","gaz_featureclass":"Populated Place","fcode":61500,"state_alpha":"CA","county_name":"Siskiyou"}},{"type":"Feature","id":210982,"geometry":{"type":"MultiPoint","coordinates":[[-123.70840806102679,41.18818719583388]]},"properties":{"OBJECTID":210982,"gaz_id":1660142,"gaz_name":"Weitchpec","gaz_featureclass":"Populated Place","fcode":61500,"state_alpha":"CA","county_name":"Humboldt"}},{"type":"Feature","id":211676,"geometry":{"type":"MultiPoint","coordinates":[[-123.06033245821993,41.782914493495454]]},"properties":{"OBJECTID":211676,"gaz_id":261041,"gaz_name":"Hamburg","gaz_featureclass":"Populated Place","fcode":61500,"state_alpha":"CA","county_name":"Siskiyou"}},{"type":"Feature","id":214255,"geometry":{"type":"MultiPoint","coordinates":[[-122.4089157414954,41.011821596270515]]},"properties":{"OBJECTID":214255,"gaz_id":1656044,"gaz_name":"Gibson","gaz_featureclass":"Populated Place","fcode":61500,"state_alpha":"CA","county_name":"Shasta"}},{"type":"Feature","id":215308,"geometry":{"type":"MultiPoint","coordinates":[[-122.90560279877523,41.55069889117907]]},"properties":{"OBJECTID":215308,"gaz_id":260875,"gaz_name":"Greenview","gaz_featureclass":"Populated Place","fcode":61500,"state_alpha":"CA","county_name":"Siskiyou"}},{"type":"Feature","id":215325,"geometry":{"type":"MultiPoint","coordinates":[[-122.27696806732509,41.31293602915489]]},"properties":{"OBJECTID":215325,"gaz_id":261569,"gaz_name":"Howard","gaz_featureclass":"Populated Place","fcode":61500,"state_alpha":"CA","county_name":"Siskiyou"}},{"type":"Feature","id":215641,"geometry":{"type":"MultiPoint","coordinates":[[-122.52781446988234,41.72820373636807]]},"properties":{"OBJECTID":215641,"gaz_id":277557,"gaz_name":"Montague","gaz_featureclass":"Populated Place","fcode":61500,"state_alpha":"CA","county_name":"Siskiyou"}},{"type":"Feature","id":218996,"geometry":{"type":"MultiPoint","coordinates":[[-123.36340159157281,41.708742161231115]]},"properties":{"OBJECTID":218996,"gaz_id":1657393,"gaz_name":"Hoskin","gaz_featureclass":"Populated Place","fcode":61500,"state_alpha":"CA","county_name":"Siskiyou"}},{"type":"Feature","id":219214,"geometry":{"type":"MultiPoint","coordinates":[[-121.76667427155581,41.200443165234866]]},"properties":{"OBJECTID":219214,"gaz_id":1655944,"gaz_name":"Curtis","gaz_featureclass":"Populated Place","fcode":61500,"state_alpha":"CA","county_name":"Siskiyou"}},{"type":"Feature","id":223208,"geometry":{"type":"MultiPoint","coordinates":[[-122.0002979893313,41.73154478323609]]},"properties":{"OBJECTID":223208,"gaz_id":1658859,"gaz_name":"Jerome","gaz_featureclass":"Populated Place","fcode":61500,"state_alpha":"CA","county_name":"Siskiyou"}},{"type":"Feature","id":225862,"geometry":{"type":"MultiPoint","coordinates":[[-122.6344845868168,41.73542392771201]]},"properties":{"OBJECTID":225862,"gaz_id":1652661,"gaz_name":"Yreka","gaz_featureclass":"Populated Place","fcode":61500,"state_alpha":"CA","county_name":"Siskiyou"}},{"type":"Feature","id":225882,"geometry":{"type":"MultiPoint","coordinates":[[-122.84032369762042,41.607643900719516]]},"properties":{"OBJECTID":225882,"gaz_id":277519,"gaz_name":"Fort Jones","gaz_featureclass":"Populated Place","fcode":61500,"state_alpha":"CA","county_name":"Siskiyou"}},{"type":"Feature","id":226527,"geometry":{"type":"MultiPoint","coordinates":[[-121.49027460712384,41.06127897839058]]},"properties":{"OBJECTID":226527,"gaz_id":260605,"gaz_name":"Glenburn","gaz_featureclass":"Populated Place","fcode":61500,"state_alpha":"CA","county_name":"Shasta"}},{"type":"Feature","id":227754,"geometry":{"type":"MultiPoint","coordinates":[[-122.38336159028859,41.35793352330814]]},"properties":{"OBJECTID":227754,"gaz_id":259256,"gaz_name":"Deetz","gaz_featureclass":"Populated Place","fcode":61500,"state_alpha":"CA","county_name":"Siskiyou"}},{"type":"Feature","id":229709,"geometry":{"type":"MultiPoint","coordinates":[[-121.97085207131066,41.6440466798724]]},"properties":{"OBJECTID":229709,"gaz_id":1658128,"gaz_name":"Bray","gaz_featureclass":"Populated Place","fcode":61500,"state_alpha":"CA","county_name":"Siskiyou"}},{"type":"Feature","id":231299,"geometry":{"type":"MultiPoint","coordinates":[[-121.72417766861334,41.87293511841946]]},"properties":{"OBJECTID":231299,"gaz_id":262272,"gaz_name":"Laird Landing","gaz_featureclass":"Populated Place","fcode":61500,"state_alpha":"CA","county_name":"Siskiyou"}},{"type":"Feature","id":238392,"geometry":{"type":"MultiPoint","coordinates":[[-122.8394918334128,41.83402921632652]]},"properties":{"OBJECTID":238392,"gaz_id":1682327,"gaz_name":"Walker","gaz_featureclass":"Populated Place","fcode":61500,"state_alpha":"CA","county_name":"Siskiyou"}},{"type":"Feature","id":242048,"geometry":{"type":"MultiPoint","coordinates":[[-123.25673290026475,41.862075681106255]]},"properties":{"OBJECTID":242048,"gaz_id":1658565,"gaz_name":"Fort Goff","gaz_featureclass":"Populated Place","fcode":61500,"state_alpha":"CA","county_name":"Siskiyou"}},{"type":"Feature","id":243900,"geometry":{"type":"MultiPoint","coordinates":[[-121.72306438378678,41.32572037819682]]},"properties":{"OBJECTID":243900,"gaz_id":266257,"gaz_name":"Slagger","gaz_featureclass":"Populated Place","fcode":61500,"state_alpha":"CA","county_name":"Siskiyou"}},{"type":"Feature","id":245842,"geometry":{"type":"MultiPoint","coordinates":[[-122.93866154862916,41.83736020801282]]},"properties":{"OBJECTID":245842,"gaz_id":1682318,"gaz_name":"Oakbar","gaz_featureclass":"Populated Place","fcode":61500,"state_alpha":"CA","county_name":"Siskiyou"}},{"type":"Feature","id":246023,"geometry":{"type":"MultiPoint","coordinates":[[-122.43169831336967,41.45820932615693]]},"properties":{"OBJECTID":246023,"gaz_id":1658474,"gaz_name":"Edgewood","gaz_featureclass":"Populated Place","fcode":61500,"state_alpha":"CA","county_name":"Siskiyou"}},{"type":"Feature","id":246444,"geometry":{"type":"MultiPoint","coordinates":[[-122.6403202306503,42.00208614582732]]},"properties":{"OBJECTID":246444,"gaz_id":1658298,"gaz_name":"Cole","gaz_featureclass":"Populated Place","fcode":61500,"state_alpha":"CA","county_name":"Siskiyou"}},{"type":"Feature","id":254430,"geometry":{"type":"MultiPoint","coordinates":[[-123.0392200547832,41.776803794707426]]},"properties":{"OBJECTID":254430,"gaz_id":1659863,"gaz_name":"Steelhead","gaz_featureclass":"Populated Place","fcode":61500,"state_alpha":"CA","county_name":"Siskiyou"}},{"type":"Feature","id":254591,"geometry":{"type":"MultiPoint","coordinates":[[-122.7042031944451,41.06487317414406]]},"properties":{"OBJECTID":254591,"gaz_id":1655871,"gaz_name":"Carrville","gaz_featureclass":"Populated Place","fcode":61500,"state_alpha":"CA","county_name":"Trinity"}},{"type":"Feature","id":257687,"geometry":{"type":"MultiPoint","coordinates":[[-122.70892569897916,41.08903987540068]]},"properties":{"OBJECTID":257687,"gaz_id":1665333,"gaz_name":"Coffee Creek","gaz_featureclass":"Populated Place","fcode":61500,"state_alpha":"CA","county_name":"Trinity"}},{"type":"Feature","id":258231,"geometry":{"type":"MultiPoint","coordinates":[[-122.99699635553246,41.82402580176036],[-123.00227435667867,41.82485900099362]]},"properties":{"OBJECTID":258231,"gaz_id":1658780,"gaz_name":"Horse Creek","gaz_featureclass":"Populated Place","fcode":61500,"state_alpha":"CA","county_name":"Siskiyou"}},{"type":"Feature","id":258235,"geometry":{"type":"MultiPoint","coordinates":[[-122.27196655055535,41.20821412228936]]},"properties":{"OBJECTID":258235,"gaz_id":277501,"gaz_name":"Dunsmuir","gaz_featureclass":"Populated Place","fcode":61500,"state_alpha":"CA","county_name":"Siskiyou"}}]}